Shop Name,Address 1,Address 2,City,State/Province,Zip/Postcode,Country,Website,Phone,Email,Added,Updated,CBD,Biz Type,MJ,Kratom,Buyer name ,Title 
CBD American Shaman by Petunia's Way,3330 Cobb Pkwy NW Ste 126,,Acworth,GA,30101,US,https://cbdamericanshaman.com/,7702853010,petuniasway@gmail.com,2019-11-11,,Yes,C,CBD,,,
Cloud 9 Smoke and Vape Co - Acworth,5020 Cherokee St Ste 200,,Acworth,GA,30101,US,https://cloud9smokeco.com/,6784031475,info@cloud9smokeco.com,2019-10-22,2020-11-25,Yes,S,CBD,Yes,,
Vape Rings,3335 Cobb Pkwy NW #200,,Acworth,GA,30101,US,http://www.vaperingsga.com/,7706931057,vaperings@comcast.net,2019-08-09,2021-07-16,Yes,V,CBD,,,
"Your CBD Store - Acworth, GA",3450 Cobb Pkwy NW #230,,Acworth,GA,30101,US,https://cbdrx4u.com/,6789095230,,2019-09-12,,Yes,C,CBD,,,
Wholly Beauty,7300 Highway 140 NW,,Adairsville,GA,30103,US,,7707739050,info@whollybeauty.com,2022-01-03,2022-01-03,Yes,O,CBD,,,
Smoke Crave,1034 Richland Ave W,,Aiken,GA,29801,US,https://smoke-crave-llc.business.site/,8032260013,smokecrave@gmail.com,2021-01-10,,Yes,S,CBD,,,
Good Life Vapor,118 Philema Rd Ste F,,Albany,GA,31701,US,https://www.goodlifevapor.com/,2294469003,info@goodlifevapor.com,2018-08-06,2019-12-22,Yes,V,CBD,,,
Slappey Smoke Shop,2211 N Slappey Blvd,,Albany,GA,31701,US,https://slappeysmokeshop.com/,2296390520,slappeysmokeshop@gmail.com,2020-02-16,,Yes,S,CBD,Yes,,
Summerlin Vitamins & The Vapor Corner,1111 N Slappey Blvd,,Albany,GA,31701,US,https://www.facebook.com/summerlin-vitamins-vapor-corner-fireworks-107293899328827/,2294392108,summerlinvitamins@gmail.com,2018-08-06,2020-01-02,Yes,V,CBD,Yes,,
Faircloth Vapor,1045 S Pierce St,,Alma,GA,31510,US,http://faircloth-vapor.business.site/,9122185336,fairclothgospelmusic@gmail.com,2019-10-30,2019-10-30,Yes,V,CBD,,,
Alpha Smoke,1805 Hembree Rd Ste C,,Alpharetta,GA,30009,US,http://www.alphasmokellc.com/,4042052337,overflowdrew87@gmail.com,2018-09-17,2019-06-04,Yes,S,CBD,Yes,,
ATLRx CBD,865 N Main St,,Alpharetta,GA,30009,US,https://www.atlrx.com/,7706769775,info@atlrx.com,2019-12-11,2019-12-11,Yes,C,CBD,,,
Big Bang Vape Co.,800 N Main St Ste 210,,Alpharetta,GA,30009,US,https://bigbangvapeshops.com/,7704420503,service@bigbangvapeco.com,2018-01-21,2019-01-22,,V,,,,
CBD American Shaman of Alpharetta,5188 McGinnis Ferry Rd,,Alpharetta,GA,30005,US,https://cbdamericanshaman.com/,6786914473,cbdamericanshamanatlanta@gmail.com,2019-11-11,,Yes,C,CBD,,,
Hot Box Smoke Shop,6225 Atlanta Hwy Ste 200,,Alpharetta,GA,30004,US,https://www.hotboxsmokes.com/,4703367760,,2019-08-12,,Yes,S,CBD,Yes,,
Odysseus Vapor,5155 GA-9 Ste 101,,Alpharetta,GA,30004,US,http://odysseusvapor.com/,7706741503,odysseusvapor@gmail.com,2019-08-12,,Yes,V,CBD,,,
Pure Therapy,3005 Old Alabama Rd,,Alpharetta,GA,30022,US,https://www.puretherapymd.com/,4702732012,puretherapyllc@gmail.com,2020-07-11,,Yes,C,CBD,,,
The Hemp Farmacy,5250 Windward Pkwy Ste 116,,Alpharetta,GA,30004,US,https://hempfarmacy.us/,7706760853,alpharetta@hempfarmacy.us,2020-12-17,,Yes,C,CBD,,,
Vapor King,631 N Main St Ste 130,,Alpharetta,GA,30009,US,http://vapor-king.business.site/,7706965592,,2019-08-12,,Yes,V,CBD,,,
Your CBD Store,3460 Old Milton Pkwy Ste 102,,Alpharetta,GA,30005,US,https://cbdrx4u.com,4702993152,,2020-12-07,,Yes,C,CBD,,,
Your CBD Store,109 N Prince St Ste C,,Americus,GA,31709,US,https://cbdrx4u.com/find-us/georgia/americus,2293143878,,2021-06-03,,Yes,C,CBD,,,
Blue Rat Smoke Shop,260 1/2 W Clayton St,,Athens,GA,30601,US,,7065488030,,2018-11-25,2018-11-25,Yes,S,CBD,Yes,,
Cloud 9 Smoke and Vape Co - Athens,378 E Broad St,,Athens,GA,30601,US,http://cloud9smokeco.com/,7065215114,info@cloud9smokeco.com,2018-12-11,2020-11-25,Yes,S,CBD,Yes,,
Elations Of Athens,4100 Lexington Rd,,Athens,GA,30605,US,http://www.shopstarship.com/,7065521492,,2019-10-08,,Yes,H,CBD,Yes,,
Franny's Farmacy Athens,2361 W Broad St,,Athens,GA,30606,US,https://frannysfarmacy.com/cbd-greenville/,6072799001,frannysfarmacy@gmail.com,2019-11-12,,Yes,C,CBD,,,
Green Light Smoke,3970 Atlanta Hwy Ste C,,Athens,GA,30606,US,,6789356258,,2019-11-19,2019-11-19,Yes,S,CBD,,,
Midnight Iguana Vapor Shop & Lounge,800 Oglethorpe Ave,,Athens,GA,30606,US,,7065490190,,2018-09-30,,,V,,,,
Modernage Tobacco & Gifts,3125 Atlanta Hwy,,Athens,GA,30606,US,,7065496360,modernagetobacco@gmail.com,2018-08-06,2019-05-20,Yes,S,CBD,Yes,,
Smoke Shop @ Athens,1112 Hull Rd,,Athens,GA,30601,US,https://smoke-shop-athens.business.site/,7065485050,,2020-02-26,2020-02-26,Yes,S,CBD,Yes,,
Smoker's Den,289 College Ave,,Athens,GA,30601,US,,7065468787,,2019-09-29,,,T,,,,
Vape Dynamiks,156 College Ave Ste A,,Athens,GA,30605,US,https://cravingvapor.com/,7065215111,ryan@vapedynamiks.com,2014-10-04,2019-04-01,,V,,,,
Vape Dynamiks Warehouse,120 Commerce Blvd,,Athens,GA,30606,US,,7065218698,,2018-08-06,2020-01-05,Yes,V,CBD,,,
Victorious Vapors,1021 Parkway Blvd Ste 103,,Athens,GA,30606,US,https://www.victoriousvapors.com/,7063532400,victoriousvapors@yahoo.com,2015-07-14,2019-01-01,,V,,,,
Wild Side Smoke & Vape,740 Baxter St,,Athens,GA,30605,US,http://wildsidesmokeshop.business.site/,7068506604,,2019-09-17,2019-09-17,Yes,H,CBD,Yes,,
"Your CBD Store - Athens, GA",3701 Atlanta Hwy #10,,Athens,GA,30606,US,https://cbdrx4u.com/,7068505942,athensga@cbdrx4u.com,2019-08-04,2019-09-12,Yes,C,CBD,,,
404 Smoke Shop,3435 Roosevelt Hwy Ste 19,,Atlanta,GA,30349,US,https://www.404smokeshop.com/,4706398196,404smokeshop@gmail.com,2019-07-13,2019-07-13,Yes,S,CBD,,,
404 Smoke Shop #3,3341 Martin Luther King Jr Drive SW Ste 103,,Atlanta,GA,30331,US,https://www.404smokeshop.com/,4703554941,404smokeshop@gmail.com,2019-12-28,2021-01-03,Yes,S,CBD,,,
Apothecary ATL,220 Sandy Springs Circle Ste 129,,Atlanta,GA,30328,US,https://www.apothecaryatl.com/,4046897300,info@apothecaryatl.com,2020-10-07,,Yes,C,CBD,,,
ATL Dispensary,728 Monroe Dr NE Ste B,,Atlanta,GA,30308,US,https://atldispensary.com/,8662853477,info@atldispensary.com,2021-08-01,,Yes,C,CBD,,,
ATLRx CBD,1101 Ponce De Leon Ave NE,,Atlanta,GA,30306,US,https://www.atlrx.com/,4042282252,info@atlrx.com,2020-11-18,2020-11-18,Yes,C,CBD,,,
Bee's Smoke Shop,6540 Roswell Rd NE,,Atlanta,GA,30328,US,https://beessmoke.com/,4045499070,beessmokeshop@yahoo.com,2018-11-01,,,S,,Yes,,
Blue Rat Smoke Shop,2084 Cheshire Bridge Rd Ste A,,Atlanta,GA,30324,US,,4043208004,,2018-11-25,2019-07-22,Yes,S,CBD,Yes,,
CBD American Shaman - Doraville,5715 Buford Hwy NE Ste 201,,Atlanta,GA,30340,US,https://cbdamericanshaman.com/,6784045009,customersupport@404cbd.com,2019-11-11,2019-11-11,Yes,C,CBD,,,
Cloud 9 Smoke and Vape Co,8610 Roswell Rd #120,,Atlanta,GA,30350,US,,4702995083,cloud9smokeco@gmail.com,2018-10-29,2019-10-22,Yes,S,CBD,,,
Cloud 9 Smoke and Vape Co - Atlanta,415 Memorial Dr SE,,Atlanta,GA,30312,US,https://cloud9smokeco.com/,6787051799,,2019-10-22,,Yes,S,CBD,,,
DZ Vape & CBD,3754 Buford Hwy NE Ste A3,,Atlanta,GA,30329,US,,4049966457,,2018-08-06,2020-01-12,Yes,S,CBD,Yes,,
East Atlanta Smoke & Vape,1287 Glenwood Ave SE Ste C,,Atlanta,GA,30316,US,https://eav-smoke-and-vape.myshopify.com/,4043003568,eavsmoke@gmail.com,2018-08-06,2021-03-22,Yes,S,CBD,Yes,,
East Atlanta Smoke & Vape,1 Moreland Ave SE Ste B,,Atlanta,GA,30316,US,https://easmoke.com/,4043009298,,2019-06-19,,Yes,S,CBD,Yes,,
Free Smoke Vape & Smoke Shop,371 Boulevard SE Unit 5,,Atlanta,GA,30312,US,https://freesmokevapeshop.com/,4049074725,info@freesmokevapeshop.com,2020-01-26,2020-05-01,Yes,V,CBD,,,
Free Smoke Vape And Smoke Shop,3819 Jonesboro Rd SE Ste C,,Atlanta,GA,30354,US,https://freesmokevapeshop.com/,4704283285,forestpark@freesmokevapeshop.com,2021-06-02,2021-06-02,Yes,S,CBD,,,
Galaxy Trading,2273 Cheshire Bridge Rd NE,,Atlanta,GA,30324,US,http://www.shopstarship.com,4043157177,,2018-12-30,,,S,,,,
Good CBD Shop - Atlanta,1082 Lindbergh Dr NE Ste 101,,Atlanta,GA,30324,US,https://www.goodcbdshop.com/,4708882609,help@goodcbdshop.com,2019-09-25,2019-09-25,Yes,C,CBD,,,
Happy Hookah,66 Peachtree St NW,,Atlanta,GA,30303,US,http://happy-hookah.com/,4042230300,sales@happyhookah.com,2018-08-06,2018-11-23,Yes,L,CBD,,,
Hidden Treasures,495 Whitehall St Ste A,,Atlanta,GA,30303,US,,4049074736,,2018-11-29,2018-11-29,,S,,,,
Inno Medicinals,1039 Grant St SE Bldg B Ste 24,,Atlanta,GA,30315,US,https://innomedicinals.com,4042542100,social@innomedicinals.com,2021-02-11,,Yes,C,CBD,,,
Juan's Smoke Shop,2616 Donald Lee Hollowell Pkwy NW,,Atlanta,GA,30318,US,,4047998906,,2020-07-29,2020-07-30,,T,,,,
Junkman's Daughter,464 Moreland Ave NE,,Atlanta,GA,30307,US,https://www.thejunkmansdaughter.com/,4045773188,info@thejunkmansdaughter.com,2018-12-12,,,H,,,,
Mr. Tobacco And Vape,4800 Briarcliff Rd NE Ste 1049,,Atlanta,GA,30345,US,,4045783448,,2019-05-03,2019-05-03,,S,,,,
Peaceful Clouds,491 Flat Shoals Ave SE,,Atlanta,GA,30312,US,http://www.peacefulclouds.com/,4043431856,peacefulcloudssmoke@gmail.com,2018-08-06,2019-10-31,Yes,S,CBD,,,
Pipes N' Lights,4121 Lawrenceville Hwy,,Atlanta,GA,30307,US,https://www.pipesandlights.com/,6783280440,pipesnlightsup@gmail.com,2018-08-09,2020-12-20,Yes,H,CBD,,,
Starship Enterprises,5370 Old National Hwy,,Atlanta,GA,30349,US,http://www.shopstarship.com,4047620149,webmaster@starshipent.com,2018-12-12,,,H,,,,
Terrapin Station,1985 Howell Mill Rd NW #103,,Atlanta,GA,30318,US,http://www.terrapinstationatl.com/,6787329906,,2018-08-06,2019-12-01,Yes,H,CBD,Yes,,
The Georgia Hemp CBD Company,290 Hilderbrand Dr Ste B-3,,Atlanta,GA,30328,US,https://thegeorgiahempcompany.com/,4043432796,info@thegeorgiahempcompany.com,2019-08-18,,Yes,C,CBD,,,
The Hookah Hook-Up,1960 Cheshire Bridge Rd,,Atlanta,GA,30324,US,http://www.thehookahhookup.net,4043330724,email@hookahhookup.net,2018-12-30,2019-11-03,Yes,S,CBD,Yes,,
The Pot Shop,1166 B Euclid Ave NE,,Atlanta,GA,30307,US,,4044584680,info@thepotshopatlanta.com,2020-12-09,,Yes,C,CBD,,,
TheraSolv Botanicals  & Co.,985 Monroe Dr NE Ste G,,Atlanta,GA,30308,US,https://therasolv.com/,6787051020,sales@therasolv.com,2021-05-04,,Yes,C,CBD,,,
Tribal Smoke Shop,3145 Briarcliff Rd NE,,Atlanta,GA,30329,US,,4043434099,,2019-12-17,2019-12-17,Yes,S,CBD,Yes,,
Vape 911,539 10th St NW,,Atlanta,GA,30318,US,http://www.atlantavapestore.com/,4049751877,info@vape911.com,2018-08-06,2020-01-05,Yes,V,CBD,,,
Vape Central,3350 Chamblee Tucker Rd Ste B,,Atlanta,GA,30341,US,,4703958168,vapecentralatl@gmail.com,2018-09-30,2021-06-15,Yes,V,CBD,,,
VapeRite Atlanta,2350 Cheshire Bridge Rd Ste 101,,Atlanta,GA,30324,US,https://www.vaperite.com/,4045005826,help@vaperite.com,2018-08-06,2020-01-07,Yes,V,CBD,,,
Village Smoke,583 Juniper St NE,,Atlanta,GA,30308,US,http://www.villagesmoke.com/,4044376653,villagesmoke@gmail.com,2018-08-09,2019-06-26,Yes,S,CBD,,,
World Piece,1142 Euclid Ave,,Atlanta,GA,30307,US,,4043430743,l5p@worldpiecestore.com,2019-10-26,2019-10-26,Yes,H,CBD,Yes,,
Wyzo's Smoke Shop,566 Boulevard SE #A,,Atlanta,GA,30312,US,http://www.wyzossmokeshop.com,4046223888,lrodda@mindspring.com,2018-12-30,,Yes,S,CBD,Yes,,
Xhale City,2165 Cheshire Bridge Rd NE Ste 3,,Atlanta,GA,30324,US,https://www.xhalecity.com/,4046002351,info@xhalecity.com,2018-08-06,2019-12-12,Yes,S,CBD,,,
Xhale City,1188 McLendon Ave NE Ste B,,Atlanta,GA,30307,US,https://www.xhalecity.com/,4703462935,little5p@xhalecity.com,2018-08-06,2019-12-12,Yes,S,CBD,,,
Your CBD Store - Westside Village,2250 Marietta Blvd NW #214,,Atlanta,GA,30318,US,https://cbdrx4u.com/find-us/georgia/atlanta-westside-village,6787052023,,2021-06-03,,Yes,C,CBD,,,
Tropic Haze Smoke Shop Vape Shop,1648 Atlanta Hwy NW,,Auburn,GA,30011,US,http://tropichaze.com/,4703758156,tropichazesmokeshop@gmail.com,2018-08-06,2019-12-10,Yes,S,CBD,,,
Aficionados of Augusta,307 8th St,,Augusta,GA,30901,US,,7069220312,307aficionados@gmail.com,2018-10-25,,Yes,S,CBD,Yes,,
Bentley Bros. Vape Co.,2825 Washington Rd Ste H2,,Augusta,GA,30909,US,,7622228539,,2018-06-14,2019-06-26,Yes,V,CBD,,,
Crazy Vapors,123 Davis Rd Ste A,,Augusta,GA,30907,US,https://crazyvapors.com/,7063053892,info@crazyvapors.com,2014-08-28,2019-05-16,,V,,,,
Ivapor&tobacco,3422 Wrightsboro Rd,,Augusta,GA,30909,US,,7064968740,ivapor300@yahoo.com,2022-03-14,2022-03-14,Yes,S,CBD,,,
MadVapes Augusta,4103  Madeline Dr Ste 103,,Augusta,GA,30909,US,http://www.madvapesva.com/,7065043879,info@madvapesva.com,2018-08-06,2019-12-29,,V,,,,
Metro CBD Center,1507 N Leg Rd,,Augusta,GA,30904,US,https://its-cbd-hempower.business.site/,6785905883,metrocbdcenter@gmail.com,2021-03-15,,Yes,C,CBD,,,
Ragweeds,218 S Belair Rd Ste A,,Augusta,GA,30907,US,,7063059080,ragweedsqb@gmail.com,2018-08-09,2020-02-04,Yes,S,CBD,Yes,,
Royal Tobacco,337 S Belair Rd,,Augusta,GA,30907,US,,7066519077,,2019-12-04,,,S,,,,
Smoke Life Smoke & Vape,3402 Wrightsboro Rd Ste b,,Augusta,GA,30909,US,,7063034744,,2020-02-19,,Yes,S,CBD,Yes,,
The Impeccable CBD Store,1507 N Leg Rd,,Augusta,GA,30909,US,https://theimpeccablestore.com/,7069516720,the1impeccablestore@gmail.com,2020-12-15,,Yes,C,CBD,,,
Trip 3 Smokeshop & Gifts,3336 Wrightsboro Rd Ste 4,,Augusta,GA,30909,US,,7067388558,,2018-08-06,2019-07-17,Yes,H,CBD,Yes,,
Vapor Hut Augusta,1127 Agerton Ln,,Augusta,GA,30909,US,https://www.vaporhutsc.com/,7067239203,,2018-08-06,2020-01-08,,V,,,,
Vaposeum,3635 Walton Way Ext Ste A,,Augusta,GA,30909,US,https://www.vaposeum.com/,7069220111,vaposeumecig@gmail.com,2020-08-27,,Yes,V,CBD,,,
Victorious Vapors,248 Bobby Jones Expy Ste G,,Augusta,GA,30907,US,http://www.victoriousvapors.com/,7069256850,victoriousvapors@yahoo.com,2015-03-04,2018-11-13,,V,,,,
Xhale City,2860 East-West Connector,,Austell,GA,30106,US,https://www.xhalecity.com/,6787427477,info@xhalecity.com,2018-11-17,2019-09-03,Yes,S,CBD,,,
DJ’s Smoke And Tobacco Shop,1122 E Shotwell St Ste B,,Bainbridge,GA,39819,US,,2292460375,,2021-10-16,,Yes,S,CBD,Yes,,
The V8P Shop,119 E Shotwell St,,Bainbridge,GA,39817,US,https://www.thev8pshop.com/,2295153015,thev8pshop@gmail.com,2018-08-06,2020-07-19,Yes,V,CBD,,,
Electric Smoke Vapor Shop - Barnesville,213 Mill St #A,,Barnesville,GA,30204,US,,6783591263,,2019-10-08,,,V,,,,
Aloe Vapors,1329 Hatch Pkwy N Ste B,,Baxley,GA,31513,US,,9127052563,aloellc@outlook.com,2016-02-09,2019-02-07,Yes,V,CBD,,,
Blairsville CBD,64 Bracketts Way #3,,Blairsville,GA,30512,US,https://www.blairsvillecbd.com,7062501181,hempfieldsdirect@gmail.com,2021-11-16,2021-11-16,Yes,C,CBD,,,
Empire Of E Cigs And Vapor,19 Cobalt St Ste B,,Blairsville,GA,30512,US,http://www.empireofecigs.com/,7067811023,empireofecigs@hotmail.com,2018-08-06,2019-10-11,,V,,,,
Tobacco Depot,201 Young Harris St,,Blairsville,GA,30512,US,http://www.thetobaccodepot.com/,7067811911,,2018-08-06,2020-04-11,Yes,T,CBD,,,
Caterpillars Tobacco Accessories & Gift Shop,1600 Blue Ridge Dr,,Blue Ridge,GA,30513,US,,7069648288,judena@hotmail.com,2019-01-10,,,H,,,,
Copper Mountain Hemp Traders,3586 E First St Ste 303,,Blue Ridge,GA,30513,US,http://www.coppermountainhemp.com,7069464367,coppermountainhemptraders@gmail.com,2020-06-25,2022-05-03,Yes,C,CBD,,,
Empire of E Cigs & Vapor,5850 Appalachian Hwy Ste 1,,Blue Ridge,GA,30513,US,http://empireofecigs.com/,7069464041,empireofecigs@hotmail.com,2019-10-11,2019-10-11,,V,,,,
Silk Road Traveler,611 E Main St,,Blue Ridge,GA,30513,US,https://silkroadtraveler.com/,7069466294,e.carson@silkroadtraveler.com,2021-01-10,2021-07-06,Yes,O,CBD,,,
Smoky Mountain Mist Vape Shop,27 Roberts Way Ste 102,,Blue Ridge,GA,30513,US,,7069460056,,2018-08-06,2020-01-01,Yes,V,CBD,,,
"Your CBD Store - Braselton, GA",2095 GA-211 #2C,,Braselton,GA,30517,US,https://cbdrx4u.com/,4702097052,,2019-09-12,2019-09-12,Yes,C,CBD,,,
ATL Vaping & CBD,3994 Bremen Crossing,,Bremen,GA,30110,US,,6786338241,,2020-11-18,,Yes,V,CBD,,,
Fine Cigars & Tobacco,5000 Altama Ave,,Brunswick,GA,31525,US,,9122757131,,2019-10-24,,Yes,S,CBD,Yes,,
Hemp Leaf CBD Supply Co.,3629 Altama Ave,,Brunswick,GA,31525,US,https://hempleafsupply.co/,9123427136,hempleafcbdsupplyco@gmail.com,2021-01-26,2021-03-26,Yes,C,CBD,,,
M&G Tobacco Shop,22 Canal Rd,,Brunswick,GA,31525,US,https://m-g-tobacco-shop.business.site/,9122178677,,2021-03-17,,Yes,S,CBD,Yes,,
Soul Urge Vapor Co.,2180 Perry Lane Rd Ste 101,,Brunswick,GA,31525,US,https://www.soulurgevaporcompany.com/,9122899732,soulurgevapes@gmail.com,2018-08-06,2021-01-04,Yes,V,CBD,,,
Tobacco Palace,250 Golden Isles Plaza Ste 121,,Brunswick,GA,31520,US,,9122757430,,2018-08-06,2020-04-14,Yes,S,CBD,Yes,,
Your CBD Store,2221 Peachtree Rd Ste V,,Buckhead,GA,30309,US,https://cbdrx4u.com/find-us/georgia/buckhead,4704282635,buckhead0142@cbdrx4u.com,2021-06-03,,Yes,C,CBD,,,
Guardian Vapor,4995 Lanier Island Pkwy Ste J,,Buford,GA,30518,US,,6782834639,,2014-09-21,2019-09-25,Yes,V,CBD,,,
Oz Smoke Shop,4060 Buford Dr Ste C,,Buford,GA,30518,US,,6785466666,,2018-11-30,,Yes,S,CBD,Yes,,
Viral Vapes Atlanta,3265 Sardis Church Rd Ste 102,,Buford,GA,30519,US,http://viralvapesatlanta.com/,6788049383,mike.madvapes@yahoo.com,2018-08-06,2020-01-10,Yes,V,CBD,,,
Xhale City Buford,1935 Buford Mill Dr Ste G,,Buford,GA,30519,US,https://www.xhalecity.com,7708217803,buford@xhalecity.com,2020-07-26,2020-07-26,Yes,S,CBD,Yes,,
"Your CBD Store - Hamilton Mill, GA",3235 Sardis Church Rd Ste 107,,Buford,GA,30519,US,https://cbdrx4u.com/,4702383749,cbd3507@gmail.com,2019-09-12,2019-09-12,Yes,C,CBD,,,
Dixie's Vapor Shop,148 W Belmont Dr,,Calhoun,GA,30701,US,,7622042983,dixiesvaporshop1@gmail.com,2018-08-09,2020-02-03,Yes,V,CBD,,,
This That & The Other,260 GA-53,,Calhoun,GA,30701,US,http://www.shopthisthatandtheother.com/,7063838033,,2019-11-04,2019-11-04,Yes,S,CBD,Yes,,
Unique eCigs,1126 Red Bud Rd NE,,Calhoun,GA,30701,US,https://www.uniquecigs.com/,7066597471,support@uniquecigs.com,2018-08-06,2018-11-13,,V,,,,
"Your CBD Store - Calhoun, GA",245 GA-53,,Calhoun,GA,30701,US,https://cbdrx4u.com/,7622042906,,2019-09-12,2019-09-12,Yes,C,CBD,,,
Classic Smoke and Vape,2210 Holly Springs Pkwy Ste 112,,Canton,GA,30115,US,http://classicsmoke.net/,4707292777,info@classicsmoke.net,2019-08-25,,Yes,S,CBD,,,
Classic Smoke Shop,127 Big Oak Dr Ste 100,,Canton,GA,30115,US,http://www.classicsmokeshop.net,7707200555,info@classicsmoke.net,2018-12-30,,Yes,S,CBD,Yes,,
Cloud 9 Smoke and Vape Co - Canton,180 Riverstone Pkwy #100,,Canton,GA,30114,US,https://cloud9smokeco.com/,7703454233,cloud9smokeco@gmail.com,2018-10-29,2019-10-22,Yes,S,CBD,,,
Cloud 9 Smoke and Vape Co - Holly Springs,3753 Marietta Hwy Ste 115,,Canton,GA,30114,US,https://cloud9smokeco.com/,4708635169,,2019-10-22,,Yes,S,CBD,,,
Good CBD Shop - Canton,1552 Riverstone Pkwy Ste 170,,Canton,GA,30114,US,https://www.goodcbdshop.com/,7704790353,help@goodcbdshop.com,2019-09-25,2019-09-25,Yes,C,CBD,,,
Maximum Vapor,11242 Cumming Hwy Ste 109,,Canton,GA,30115,US,http://www.maximumvapor.net/,4043778076,admin@maximumvapor.net,2020-01-06,,,V,,,,
Maximum Vapor,6115 Hickory Flat Hwy Ste 107,,Canton,GA,30115,US,http://www.maximumvapor.net/,4708803587,admin@maximumvapor.net,2020-01-06,,,V,,,,
Ole 5 Vapor,4047 Marietta Hwy Ste 100A,,Canton,GA,30114,US,,4047838884,,2020-01-31,,,V,,,,
"Smoke Stars Vape, Smoke, CBD, Kratom Shop",3502 Sixes Rd Ste 106A,,Canton,GA,30114,US,,7702248069,cantonsmokestars@gmail.com,2021-07-23,2021-07-23,Yes,S,CBD,,,
Tobacco Mart,1750 Marietta Hwy Ste 200,,Canton,GA,30114,US,,7707046507,,2020-01-16,,,T,,,,
VapeRite & CBD - Canton,1552 Riverstone Parkway Ste 170,,Canton,GA,30114,US,https://www.vaperite.com/,7704790353,help@vaperite.com,2018-08-06,2019-09-25,Yes,V,CBD,,,
"Your CBD Store - Canton, GA",1431 Riverstone Pkwy #170,,Canton,GA,30114,US,https://cbdrx4u.com/,7707040550,cantonga@cbdrx4u.com,2019-08-04,2019-09-12,Yes,C,CBD,,,
Your CBD Store - Hickory Flat,2864 E Cherokee Dr Ste B,,Canton,GA,30115,US,https://cbdrx4u.com/find-us/georgia/hickory-flat,6788809767,hickoryflat601@cbdrx4u.com,2020-12-07,2021-06-03,Yes,C,CBD,,,
ATL Smoke & Vape #1,901 S Park St S Ste D-1,,Carrollton,GA,30117,US,,6786013355,,2020-11-18,,Yes,S,CBD,Yes,,
Cloud 9 Smoke and Vape Co - Carrollton,827 Maple St Ste B,,Carrollton,GA,30117,US,,6786640848,,2019-10-22,2019-11-11,Yes,S,CBD,,,
Cool Vapors Carrollton,1561 US-27 Ste A2,,Carrollton,GA,30117,US,,6788901090,coolvapors7@gmail.com,2018-08-06,2019-08-31,,V,,,,
Tobacco Outlet,1347 S Park St,,Carrollton,GA,30117,US,,7708309954,,2020-07-14,,,T,,Yes,,
Xhale City Carrollton,901 South Park St Ste D,,Carrollton,GA,30117,US,https://www.xhalecity.com,6786640009,carrollton@xhalecity.com,2020-07-26,2020-07-26,Yes,S,CBD,Yes,,
Your CBD Store,231 Bankhead Hwy Ste A,,Carrollton,GA,30117,US,https://cbdrx4u.com/find-us/georgia/carrollton,6786640980,,2021-06-03,,Yes,C,CBD,,,
Herb Shop,75 Maple Ridge Dr,,Cartersville,GA,30121,US,,7703874488,,2021-01-30,,Yes,O,CBD,,,
Prestige Vapor,117 N Tennessee St,,Cartersville,GA,30120,US,,7702762045,,2020-02-01,,Yes,V,CBD,,,
Smoke Shop,951 Joe Frank Harris Pkwy SE,,Cartersville,GA,30120,US,,7706071382,,2020-02-26,,,S,,,,
The Foggery,1010 N Tennessee St #115,,Cartersville,GA,30120,US,,4703154856,,2019-10-27,,,V,,,,
VJ's Tobacco Mart,1349 Joe Frank Harris Pkwy SE,,Cartersville,GA,30120,US,,7703342122,,2019-09-28,,,T,,,,
"Your CBD Store - Cartersville, GA",618 E Main St,,Cartersville,GA,30121,US,https://cbdrx4u.com/,6783246177,cartersvillega@cbdrx4u.com,2019-09-12,2019-09-12,Yes,C,CBD,,,
Hwy 27 Hemp House,35 Macon Dr,,Cataula,GA,31804,US,https://hwy27hemphouse.wordpress.com/,7064577002,hwy27hemphouse@gmail.com,2021-02-09,,Yes,C,CBD,,,
Cedartown Vapor Lounge,401 N Main St Ste A,,Cedartown,GA,30125,US,,6789010950,md4dodge@yahoo.com,2019-08-01,,,V,,,,
K's Electric Vapor,100 N Houston Lake Blvd Ste O,,Centerville,GA,31028,US,,4789530627,contact@kselectroniccigs.com,2018-08-06,2019-12-27,Yes,V,CBD,,,
Rowe's CBD,100 N Houston Lake Blvd Ste D,,Centerville,GA,31028,US,https://www.rowescbd.com/,4782923109,owner@rowescbd.com,2019-12-27,2021-01-15,Yes,C,CBD,,,
Your CBD Store - Warner Robins,2764 Watson Blvd #400,,Centerville,GA,31028,US,https://cbdrx4u.com/find-us/georgia/warner-robins,4783345953,norcross@cbdrx4u.com,2020-11-24,2021-06-03,Yes,C,CBD,,,
Pineapple Xpress Smoke Shop,4849 Buford Hwy NE #111,,Chamblee,GA,30341,US,,7702565804,,2019-05-07,2019-05-07,,S,,,,
Your CBD Store,5458 Peachtree Blvd,,Chamblee,GA,30341,US,https://cbdrx4u.com,16786914215,,2020-12-07,,Yes,C,CBD,,,
Act A Fool 2,500 S 3rd Ave,,Chatsworth,GA,30705,US,http://act-a-fool.business.site,7069712440,,2018-10-25,2019-06-02,Yes,S,CBD,Yes,,
Vaper's Alley,1422 Green Rd Ste H,,Chatsworth,GA,30705,US,http://www.urolitdalton.com/,7066958273,vapersalleychats@gmail.com,2018-09-30,,,V,,,,
Knockout Vapes,199 Walls Complex Cir,,Clarkesville,GA,30501,US,,7068391960,knockoutvapes@gmail.com,2019-04-30,,Yes,V,CBD,,,
Pyro Vapes,1641 US-129 Unit 3,,Cleveland,GA,30528,US,,7062192774,ajpyrovapes@gmail.com,2015-01-22,2020-01-12,Yes,V,CBD,,,
Vapeopolis,356 GA-87 N,,Cochran,GA,31014,US,http://www.vapeopolis.com/,6788273364,info@vapeopolis.com,2019-08-09,,Yes,V,CBD,,,
2 Brothers CBD,1306 13th St,,Columbus,GA,31901,US,https://www.holistichealthhealing.shop/,7622078305,2brotherscbd@gmail.com,2020-08-30,2020-11-14,Yes,C,CBD,,,
Bucky's Vape Shop,4820 Armour Rd Ste B2,,Columbus,GA,31904,US,https://www.buckysvapeshop.com/,7062213677,buckysvapeshopllc@gmail.com,2018-08-06,2020-01-12,,V,,,,
Rivertown Vapor,2515 Old Whittlesey Rd Ste M,,Columbus,GA,31909,US,https://www.rivertownvapor.com/,7062217745,rivertownvapor@gmail.com,2018-09-11,2019-05-09,Yes,V,CBD,,,
Smoke Buddy's,3441 Macon Rd,,Columbus,GA,31907,US,https://smokebuddys.net/,7065073522,,2021-01-10,,Yes,S,CBD,Yes,,
Smoke Buddy's,7550 Veterans Pkwy,,Columbus,GA,31909,US,https://smokebuddys.net/,7065071070,,2021-01-10,,Yes,S,CBD,Yes,,
Smyle's Smoke Shop,4745 Warm Springs Rd Ste B,,Columbus,GA,31909,US,https://smyles-smoke-shop-vaporizer-store.business.site/,7062216040,,2019-10-15,,Yes,S,CBD,,,
Starship Enterprises Of Columbus,4402 Veterans Pkwy,,Columbus,GA,31904,US,http://www.shopstarship.com/,7066601492,,2019-10-19,,,H,,,,
The Vape Loft - Fort Benning,3903 Victory Dr,,Columbus,GA,31903,US,https://the-vape-loft.business.site/,7062216265,vapeloftsav@gmail.com,2019-05-20,,,V,,,,
Vapor Craft,6100 Veterans Pkwy Ste 1,,Columbus,GA,31909,US,https://shopvaporcraft.com/,7628212538,shop@thevaporcraft.com,2018-09-12,,Yes,V,CBD,,,
Vapor Ville - Columbus,5762 Milgen Rd Ste 203,,Columbus,GA,31907,US,https://vaporvillellc.com/,7066101132,,2019-04-03,2019-04-03,,V,,,,
"Your CBD Store - Columbus, GA",3507 Gentian Blvd,,Columbus,GA,31907,US,https://cbdrx4u.com/,7065616777,cbd3507@gmail.com,2019-09-12,2019-09-12,Yes,C,CBD,,,
Zo CBD Shop,4910 Buena Vista Rd Ste A2,,Columbus,GA,31907,US,https://www.zocbdshop.com/,7068857197,zocbdshop@gmail.com,2021-04-14,,Yes,C,CBD,,,
JD's Tobacco Outlet,145 S Elm St,,Commerce,GA,30529,US,,7063363204,,2019-12-03,2019-12-03,Yes,S,CBD,Yes,,
"Smoke Stars Vape, Smoke, CBD, Kratom Shop",297 Steven B Tanger Blvd,,Commerce,GA,30548,US,,7064239246,smokestarscommerce@gmail.com,2021-07-23,2021-07-23,Yes,S,CBD,,,
Your CBD Store,295 Steven B Tanger Blvd,,Commerce,GA,30529,US,https://cbdrx4u.com,7063350199,peggygilstrap@att.net,2020-12-07,,Yes,C,CBD,,,
Elite Smoke Shop & Adult Novelties,1370 Hwy 138 NE Ste A,,Conyers,GA,30013,US,https://eliteadultonline.com/,7706795372,eliteadultconyers@gmail.com,2018-11-15,2018-11-15,Yes,H,CBD,,,
Hempnotics CBD & Smoke Shop,2221 Salem Rd SE,,Conyers,GA,30013,US,,4702766815,hempnoticsconyers@gmail.com,2022-04-25,2022-04-25,Yes,C,CBD,,,
Juicy Vapes Conyers,1427 GA-138 Ste 3,,Conyers,GA,30013,US,http://juicyvapesatl.com/,7706486751,juicyvapesatl@gmail.com,2015-05-09,2018-12-30,Yes,V,CBD,,,
Just Smoke,3570 GA-20,,Conyers,GA,30013,US,,7706795198,,2018-11-23,2019-12-23,Yes,S,CBD,Yes,,
Rolling Rock Vapor,3544 GA-20 E,,Conyers,GA,30013,US,http://www.rollingrockvapor.com/,6788065339,support@rollingrockvapor.com,2018-09-08,2020-02-11,Yes,V,CBD,,,
Scottish Tobacco,439 Sigman Rd NW Ste 117,,Conyers,GA,30012,US,http://scottishtobacco.com/,4042370525,shafi@scottishtobacco.com,2018-11-23,,,T,,,,
Summoners Brew,1107 West Ave Ste A,,Conyers,GA,30012,US,https://www.summonersbrew.com,7708660996,summonersbrew@gmail.com,2021-07-29,2021-07-29,Yes,V,CBD,,,
"Your CBD Store - Conyers, GA",1360 Dogwood Dr SE #105,,Conyers,GA,30013,US,https://cbdrx4u.com/,7702856894,conyers414@cbdrx4u.com,2019-09-12,2019-09-12,Yes,C,CBD,,,
FTP Vapor,1413 E 16th Ave Ste D,,Cordele,GA,31015,US,http://ftpvapor.com/,2295133519,ftpvapor@outlook.com,2019-11-10,2019-11-10,,V,,,,
Whispers Vapor,401 16th Ave E #A,,Cordele,GA,31015,US,http://whispersvapor.com/,2294175068,,2018-08-06,2020-01-10,Yes,V,CBD,,,
Opt2mist Vapor Shop,700 US-441 Bus Ste E,,Cornelia,GA,30531,US,http://opt2mistvaporshop.com/,7067787755,opt2mist@windstream.net,2018-08-09,2020-02-03,,V,,,,
Peace Pipe Vapors,106 Market Centre Dr,,Cornelia,GA,30531,US,,7063525917,peacepipevapors@gmail.com,2018-09-08,2020-03-18,Yes,V,CBD,,,
Wild Impulse Smoke & Vape,330 Habersham Hills Cir,,Cornelia,GA,30531,US,https://www.vapeshopcornelia.com/,7067762673,ltlw3692@icloud.com,2020-12-10,,Yes,S,CBD,Yes,,
"Your CBD Store - Cornelia, GA",249 Habersham Village Cir,,Cornelia,GA,30531,US,https://cbdrx4u.com,7067780199,cornelia618@cbdrx4u.com,2020-12-07,,Yes,C,CBD,,,
Purely CBD of Covington,9156 US-278,,Covington,GA,30014,US,https://www.purelycbd.net/,4704415880,covingtonga@thepurelycbd.com,2019-08-17,2019-08-17,Yes,C,CBD,,,
Purely CBD West Covington,13007 Brown Bridge Rd,,Covington,GA,30016,US,https://www.purelycbd.net/,4704441362,westcovington@thepurelycbd.com,2020-11-06,2020-11-06,Yes,C,CBD,,,
Rolling Rock Vapor,9123 US-278 Ste D,,Covington,GA,30014,US,http://www.rollingrockvapor.com/,6786603907,support@rollingrockvapor.com,2020-02-11,2020-02-11,Yes,V,CBD,,,
Scottish Tobacco Emporium,6189 US-278,,Covington,GA,30014,US,,7707889090,,2020-07-26,,,T,,,,
Smoke 4 Less,3808 Salem Rd,,Covington,GA,30016,US,,,,2019-12-27,,Yes,S,CBD,Yes,,
Xtreme Vapors,10255 Industrial Blvd,,Covington,GA,30014,US,,7707281760,,2019-09-09,,,V,,,,
Heads Off Smoke Shop,2325 Atlanta Hwy Ste 500,,Cumming,GA,30040,US,https://www.facebook.com/headsoff,7708886549,,2018-11-14,,,S,,,,
Kore CBD Store,410 Peachtree Pkwy Ste 4116,,Cumming,GA,30041,US,https://www.korecbdstore.com/,4703440223,info@korecbdstore.com,2020-07-09,,Yes,C,CBD,,,
North Georgia Vapor,214 Atlanta Rd Ste D,,Cumming,GA,30040,US,,4702394940,northgeorgiavapor@gmail.com,2018-08-06,2019-12-30,,V,,,,
Vape Alot,2611 Freedom Pkwy,,Cumming,GA,30041,US,https://vapealot.com/,7708866368,sales@vapealot.com,2018-08-06,2020-01-05,,V,,,,
Vapors Emporium,655 Atlanta Rd Ste 510,,Cumming,GA,30040,US,http://www.vaporsemp.com/,7708879394,kevin@vaporsemp.com,2018-09-30,,Yes,V,CBD,,,
Victorious Vapors,1746 Market Place Blvd,,Cumming,GA,30041,US,https://www.victoriousvapors.com/,6787715135,victoriousvapors@yahoo.com,2015-07-14,2019-01-01,,V,,,,
"Your CBD Store - Cumming, GA",425 Peachtree Pkwy #325,,Cumming,GA,30041,US,https://cbdrx4u.com/,4708392986,,2019-09-12,2019-09-12,Yes,C,CBD,,,
Tobacco Palace,1342 Auburn Rd,,Dacula,GA,30019,US,,7702775800,tpdacula@gmail.com,2020-07-10,,,S,,,,
My Vape Shack,77 Memorial Dr #C,,Dahlonega,GA,30533,US,,7068678277,,2018-08-06,2019-12-30,Yes,V,CBD,,,
Quickmart End of 400,5585 S Chestatee St,,Dahlonega,GA,30533,US,,7068679149,quickmart3@windstream.net,2018-09-30,,Yes,V,CBD,Yes,,
21 Smoke & Vape,457 Nathan Dean Blvd #101,,Dallas,GA,30132,US,,6789093056,,2020-11-14,,Yes,S,CBD,,,
Ciggys,8876 Dallas Acworth Hwy Ste G,,Dallas,GA,30132,US,http://www.e-ciggys.com/,7707021344,ciggys@comcast.net,2018-09-08,2020-03-12,Yes,V,CBD,,,
Cloud 9 Smoke & Vape Co - Dallas,8651 Hiram Acworth Hwy,,Dallas,GA,30157,US,http://www.cloud9smokeco.com,7706939198,,2018-10-20,2019-10-22,Yes,S,CBD,Yes,,
A K Tobacco and Gift Shop,1804 Murray Ave,,Dalton,GA,30721,US,,7062756433,,2022-02-10,2022-02-10,,S,,,,
Act a Fool,1115 E Walnut Ave,,Dalton,GA,30721,US,,7062705754,,2018-08-06,2018-10-25,Yes,S,CBD,Yes,,
AK Smoke This & That,2515 Cleveland Hwy Ste 6,,Dalton,GA,30721,US,http://aksmokethis.com/,7064280703,,2018-09-17,,Yes,S,CBD,Yes,,
AK Tobacco & Gift Shop #2,906 S Thorton Ave,,Dalton,GA,30720,US,http://aktobaccooutlet.weebly.com/,7064282877,bucktown@optilink.us,2018-08-09,2018-09-17,,V,,Yes,,
CCC Flavors,500 McGhee Dr Ste C,,Dalton,GA,30721,US,https://cccflavors.com/,7063090174,cccflavors@gmail.com,2018-10-15,2021-03-28,Yes,V,CBD,,,
Earth's Remedies,300 S Hamilton St,,Dalton,GA,30720,US,http://earthsremedies.net/,7066712780,earthsremedies06@gmail.com,2020-12-26,,Yes,O,CBD,,,
Hookah Smoke & Vape,416 N Glenwood Ave,,Dalton,GA,30721,US,,7065297033,,2022-03-11,2022-03-11,,S,,,,
Smoke Shop,3925 Cleveland Hwy,,Dalton,GA,30721,US,,7066943056,,2020-02-25,,,T,,,,
Vaper's Alley,2208 Cleveland Hwy #E,,Dalton,GA,30721,US,http://www.urolitdalton.com/,7065293564,urolitdalton@gmail.com,2018-09-30,2018-12-26,Yes,V,CBD,,,
Vaper's Alley,204 S Hamilton St,,Dalton,GA,30720,US,http://www.urolitdalton.com/,7065298683,vapersalleydalton@gmail.com,2018-09-30,,,V,,,,
Bear Smoke Smokeshop,66 N 400 Center Ln #110,,Dawsonville,GA,30534,US,https://bearsmoke.wordpress.com/,7062654054,,2019-07-22,,Yes,S,CBD,Yes,,
My Vape Shack Dawson,240 Dawson Village Way Ste 120,,Dawsonville,GA,30534,US,https://my-vape-shack-dawson.business.site/,7062168277,myvapeshackdawson@yahoo.com,2018-08-06,2019-12-30,Yes,V,CBD,,,
Peachtree Vapor Dawsonville,157 Power Center Dr #120,,Dawsonville,GA,30534,US,https://www.peachtreevapor.com/,7062657801,info@peachtreevapor.com,2018-08-06,2019-09-10,Yes,V,CBD,,,
The Vaperz Den,391 Quill Dr Ste 130,,Dawsonville,GA,30534,US,https://www.thevaperzden.com/,7062161687,wheatley@thevaperzden.com,2017-06-06,2019-11-01,Yes,V,CBD,Yes,,
"Your CBD Store - Dawsonville, GA",837 GA-400 #130,,Dawsonville,GA,30534,US,https://cbdrx4u.com/,7062031923,,2019-09-12,2019-09-12,Yes,C,CBD,,,
Atlanta Vapor,575 Dekalb Industrial Way Ste 101,,Decatur,GA,30030,US,https://www.atlantavapor.com/,4045001970,,2018-03-03,2019-01-25,,V,,,,
Coastal Green Wellness - Decatur,201 W Ponce de Leon Ave Ste 117,,Decatur,GA,30030,US,https://www.cannabisstoredecatur.com/,4042576423,coastalgreenwellness@gmail.com,2019-08-16,,Yes,C,CBD,,,
Hemp Haven ATL,2765 E College Ave,,Decatur,GA,30030,US,https://hemphavenatl.com/,4043903532,hemphavenatl@gmail.com,2021-01-25,,Yes,C,CBD,,,
Vaping Easy,508 S Peterson Ave,,Douglas,GA,31533,US,http://www.vapingeasy.com/,9123848071,info@vapingeasy.com,2018-08-06,2019-11-07,Yes,V,CBD,,,
Atl Vaping,6842 Douglas Blvd Ste L,,Douglasville,GA,30135,US,,7705750527,,2018-06-07,2019-06-20,Yes,V,CBD,,,
Blaze Smoke Shop,7214 Douglas Blvd Ste D,,Douglasville,GA,30135,US,,7704857085,blaze30135@gmail.com,2019-01-03,,Yes,S,CBD,Yes,,
Blaze Smoke Shop,2959 Chapel Hill Rd Ste E,,Douglasville,GA,30135,US,http://www.instagram.com/blazesmokeshop1,7707262858,blaze30135@gmail.com,2018-11-16,2018-11-16,Yes,S,CBD,Yes,,
CBDnU,3081 GA-5,,Douglasville,GA,30135,US,https://www.cbdnu.net,6789093094,thecbdplugg@gmail.com,2021-11-19,2021-11-19,Yes,C,CBD,,,
Mr. D's Smoke Shop,2818 Fairburn Rd Ste D,,Douglasville,GA,30135,US,,7704622021,,2020-01-22,,Yes,S,CBD,Yes,,
Mystic Dreams,6229 Fairburn Rd,,Douglasville,GA,30134,US,,7704899490,,2018-12-30,,Yes,S,CBD,,,
Xhale City,9503 GA-5 Ste 104,,Douglasville,GA,30135,US,https://www.xhalecity.com/,6787427478,hwy5@xhalecity.com,2018-12-19,,Yes,V,CBD,,,
"Your CBD Store - Douglasville, GA",7475 Douglas Blvd #108,,Douglasville,GA,30135,US,https://cbdrx4u.com/,6783836786,douglasville@cbdrx4u.com,2019-09-12,2019-09-12,Yes,C,CBD,,,
K's Electric Vapor Dublin,1505 Rice Ave,,Dublin,GA,31021,US,,4782722072,kselectroniccigs@gmail.com,2018-08-06,2019-12-27,Yes,V,CBD,,,
The Peak Smoke & Vape,905 Hillcrest Pkwy Ste A,,Dublin,GA,31021,US,https://thepeak.ueniweb.com/,4783538510,ascended88@gmail.com,2020-07-29,,Yes,S,CBD,Yes,,
3 Brothers Smokeshop,3631 Peachtree Industrial Blvd #103,,Duluth,GA,30096,US,,4702685771,,2019-07-13,2019-07-13,Yes,S,CBD,Yes,,
7 Vape CBD,3940 Buford Hwy NE  Ste A109,,Duluth,GA,30096,US,,6786153122,,2022-02-14,2022-02-14,Yes,V,CBD,,,
CBD Pros Johns Creek,11720 Medlock Bridge Rd Ste 120,,Duluth,GA,30097,US,https://cbdprosusa.com/,4703953130,info@cbdprosusa.com,2020-11-29,,Yes,C,CBD,,,
Cloud 9 Smoke and Vape Co - Duluth,10360 Medlock Bridge Rd Ste E,,Duluth,GA,30097,US,https://cloud9smokeco.com/,6783955144,cloud9johnscreek@gmail.com,2019-10-22,2019-10-22,Yes,S,CBD,,,
E-Cig & Vape Depot,1933 Pleasant Hill Rd,,Duluth,GA,30096,US,,7706872251,,2018-09-22,,,V,,,,
Got Hemp 2,3580 Breckinridge Blvd #104,,Duluth,GA,30096,US,https://gothemp2.com/,7706805642,wegothemp2@gmail.com,2021-01-13,,Yes,C,CBD,,,
Inhale Smoke Shop & Lounge,2130 Pleasant Hill Rd,,Duluth,GA,30096,US,http://www.inhalesmokeshopandlounge.com/,7705581659,inhale.smoke01@gmail.com,2020-07-08,,Yes,S,CBD,,,
TP ATL,3920 Peachtree Industrial Blvd #2,,Duluth,GA,30096,US,https://tpatl.com/,7705579919,info@tpatl.com,2021-06-07,,Yes,S,CBD,,,
Xhale City Medlock Bridge,10450 Medlock Bridge Rd Ste 103,,Duluth,GA,30097,US,https://www.xhalecity.com,4702464751,medlockbridge@xhalecity.com,2020-07-26,2020-07-26,Yes,S,CBD,Yes,,
Your CBD Store,5482 Chamblee Dunwoody Rd #25,,Dunwoody,GA,30338,US,https://cbdrx4u.com/find-us/georgia/dunwoody,6789361522,,2021-06-03,,Yes,C,CBD,,,
"Your CBD Store - East Cobb, GA",2550 Sandy Plains Rd #360,,East Cobb,GA,30066,US,https://cbdrx4u.com/,6787418990,cbd3507@gmail.com,2019-09-12,2019-09-12,Yes,C,CBD,,,
Starship Enterprises,1188 Central Ave,,East Point,GA,30344,US,http://shopstarship.com/,4047666993,webmaster@starshipent.com,2018-12-12,,,H,,,,
Opt2mist Vapor Shop Toccoa,11 Business Center Dr Ste 204,,Eastanollee,GA,30538,US,,7062447881,opt2mist@windstream.net,2016-03-26,2020-01-12,Yes,V,CBD,,,
J & S Vapor Shoppe,209 Griffin Ave,,Eastman,GA,31023,US,,4782315741,ssp322@yahoo.com,2016-07-20,2019-01-29,Yes,V,CBD,Yes,,
AMS Medical Supply & CBD,665 Old Phoenix Rd #C,,Eatonton,GA,31024,US,https://www.amsmedicalsupplyandcbd.com/,6783747999,info@apalacheemed.com,2020-11-17,2020-11-17,Yes,O,CBD,,,
Blazzin Vapes,216 Elbert St,,Elberton,GA,30635,US,http://www.blazzinvapes.com/,7069888481,blazzinvapes@gmail.com,2015-02-04,2019-03-24,,V,,,,
Essentials Smoke Shop,130 Fowler St,Food Lion Center,Ellijay,GA,30540,US,https://alphasmokellc.com,7622827180,alphasmokellc@hotmail.com,2021-07-19,2021-07-19,Yes,S,CBD,,,
Liquid Vapor Outlet Ellijay,29 Highland Dr Ste 104,,Ellijay,GA,30536,US,,7062763060,,2019-08-15,2019-08-15,,V,,,,
Atlanta Vapor,7860 Senoia Rd,,Fairburn,GA,30213,US,https://www.atlantavapor.com/,6783670960,admin@atlantavapor.com,2014-08-26,2019-02-08,,V,,,,
Your CBD Store,8030 Senoia Rd Ste 500,,Fairburn,GA,30213,US,https://cbdrx4u.com,6782712237,,2020-12-07,,Yes,C,CBD,,,
Atlanta Vapor,455 Glynn St S Ste 205,,Fayetteville,GA,30214,US,https://www.atlantavapor.com/,6783593791,sales@atlantavapor.com,2018-03-03,2019-01-24,,V,,,,
CBD Superstore,335 Glynn St N,,Fayetteville,GA,30214,US,,6788465966,fayettecbdstore@gmail.com,2020-07-22,,Yes,C,CBD,,,
Smoke & Vape,935 W Lanier Ave W Ste 1010,,Fayetteville,GA,30214,US,,6785454368,smokeandvapestore@gmail.com,2020-07-30,,Yes,S,CBD,Yes,,
Xhale City Fayetteville,770 Glynn St N Ste E,,Fayetteville,GA,30214,US,https://www.xhalecity.com,7707423775,fayetteville@xhalecity.com,2020-07-26,2020-07-26,Yes,S,CBD,Yes,,
Vaping Easy,708 S Grant St #14,,Fitzgerald,GA,31750,US,http://www.vapingeasy.com/,2296351109,info@vapingeasy.com,2018-08-06,2019-11-07,Yes,V,CBD,,,
Transitions Vapor Company,5866 Spout Springs Rd Ste B,,Flowery Branch,GA,30542,US,,7709672902,emery@transitionsvapor.com,2018-09-28,,,V,,,,
Your CBD Store,5887 Spout Springs Rd Ste D402,,Flowery Branch,GA,30542,US,https://cbdrx4u.com,6788287517,,2020-12-07,,Yes,C,CBD,,,
ATL Vape Shop,4726 Jonesboro Rd,,Forest Park,GA,30297,US,,4045499451,,2018-10-14,2019-03-08,Yes,V,CBD,Yes,,
Vapor Plus,1003 Forest Pkwy,,Forest Park,GA,30297,US,http://shopvaporplus.com/,4707996120,,2019-10-07,,Yes,V,CBD,,,
Electric Smoke Vapor Shop,130 E Main St,,Forsyth,GA,31029,US,,4789932250,,2019-10-08,,,V,,,,
Bell's Smoke Shop,1923 Battlefield Pkwy,,Fort Oglethorpe,GA,30742,US,,7068589917,,2019-07-22,,,T,,,,
CBD Plus USA,1229 Battlefield Pkwy,,Fort Oglethorpe,GA,30742,US,https://cbdplususa.com/,7062224142,,2020-11-29,,Yes,C,CBD,,,
Chattanooga Vapor Co.,2136 Lafayette Rd,,Fort Oglethorpe,GA,30742,US,http://chattanoogavaporco.com/,7064062736,chattanoogavaporco@gmail.com,2018-08-29,2020-03-01,Yes,V,CBD,,,
Emote Vapes,107 Crye Leike Dr,,Fort Oglethorpe,GA,30742,US,http://www.emotevapes.com/,7064198432,support@emotevapes.com,2018-08-06,2019-10-11,,V,,,,
Epic Vapors,1040 Battlefield Pkwy,,Fort Oglethorpe,GA,30742,US,http://www.epicvaporsllc.com/,7064198338,epicvaporsllc@gmail.com,2018-08-06,2019-12-19,,V,,,,
Grass Roots Hemp Fort Oglethorpe,1857 Battlefield Pkwy,,Fort Oglethorpe,GA,30742,US,https://grassrootscha.com/,7068410090,orders@grassrootscha.com,2021-01-14,,Yes,C,CBD,,,
Tobacco For Less,1844 Lafayette Rd,,Fort Oglethorpe,GA,30742,US,http://ourbeers.com/,7068664574,ourbeers@gmail.com,2020-07-29,,Yes,T,CBD,Yes,,
Smoke Shop,2991 US-41 Ste B,,Fort Valley,GA,31030,US,http://www.smokeshopwr.com/,4783332133,smokeshopwr1234@gmail.com,2020-02-24,,Yes,S,CBD,Yes,,
"129 Package Store, Smoke & Vape Shop",2126 Athens Hwy,,Gainesville,GA,30507,US,,6786965885,ashly.cruz@mistrysgroup.com,2019-07-12,,,T,,,,
"CLOUD 7 Smoke, Vape & More",1310 Dawsonville Hwy,,Gainesville,GA,30501,US,,6789432759,,2022-05-11,2022-05-11,,S,,,,
Discount Tobacco Depot,350 Shallowford Rd Ste C,,Gainesville,GA,30504,US,,6784508182,,2019-09-25,,Yes,S,CBD,,,
Express Fuels - Vape & Smoke Shop,898 W Ridge Rd,,Gainesville,GA,30501,US,,6786965612,,2019-10-28,,Yes,S,CBD,Yes,,
My Vape Shoppe,5201 Browns Bridge Rd #6,,Gainesville,GA,30504,US,https://myvapeshoppe.business.site/,6786968834,mvsga17@gmail.com,2018-09-20,,,V,,,,
Planet X Smoke & Vape,130 John W Morrow Jr Pkwy Ste K,,Gainesville,GA,30501,US,http://planet-x-smoke-vape.business.site/,4708926660,planetco@gmail.com,2018-08-06,2018-10-26,Yes,S,CBD,Yes,,
Premier Vapor,975 Dawsonville Hwy Ste 11,,Gainesville,GA,30501,US,https://www.premiervaporandlounge.com,16789197857,info@premiervaporandlounge.com,2019-08-09,,Yes,V,CBD,,,
Tobacco Palace & Vape Shop,235 Pearl Nix Pkwy Ste 2,,Gainesville,GA,30501,US,,6789714100,,2019-05-24,,Yes,S,CBD,,,
Xhale City Gainesville,3416 Mundy Mill Rd,,Gainesville,GA,30504,US,https://www.xhalecity.com,6789714600,info@xhalecity.com,2020-07-26,2020-07-26,Yes,S,CBD,Yes,,
"Your CBD Store - Gainesville, GA",3560 McEver Rd Ste C,,Gainesville,GA,30504,US,https://cbdrx4u.com/,6789438879,gainesvillega@cbdrx4u.com,2019-09-12,2019-09-12,Yes,C,CBD,,,
Vaporized,115 Atlanta Rd,,Gray,GA,31029,US,,4789360099,vaporizedofgray@gmail.com,2016-09-26,2020-04-01,Yes,V,CBD,,,
Purely CBD,1142 Atlanta Hwy Ste 110,,Grayson,GA,30017,US,https://www.purelycbd.net/,4703597129,grayson@thepurelycbd.com,2020-11-06,,Yes,C,CBD,,,
Electric Smoke Vapor Shop,1531 W Mcintosh Rd,,Griffin,GA,30223,US,,6786031984,,2018-10-16,2019-04-01,,V,,,,
Main Street Discount Tobacco,622 W Taylor St,,Griffin,GA,30224,US,,6785724988,,2020-07-27,,Yes,T,CBD,,,
Rolling Rock Vapor,629 N Expy Ste B,,Griffin,GA,30223,US,https://www.rollingrockvapor.com/,6786887667,support@rollingrockvapor.com,2020-02-11,,Yes,V,CBD,,,
The Vapor Depot 155,1435 N Expressway Ste 104,,Griffin,GA,30223,US,http://thevapordepot155.com/,4702047537,vapordepot155@gmail.com,2018-03-03,2019-11-02,Yes,V,CBD,,,
"Your CBD Store - Griffin, GA",1435 N Expy #103,,Griffin,GA,30223,US,https://cbdrx4u.com,6786032553,griffin528@cbdrx4u.com,2020-12-06,,Yes,C,CBD,,,
CBD Central,717 Gateway Center Blvd,,Grovetown,GA,30813,US,,7064329314,,2020-11-24,,Yes,C,CBD,,,
"Your CBD Store - Grovetown, GA",4984 Steiner Way,,Grovetown,GA,30813,US,https://cbdrx4u.com/,7064329213,cbd3507@gmail.com,2019-09-12,2019-09-12,Yes,C,CBD,,,
"Your CBD Store - Hampton, GA",2 E Main St N,,Hampton,GA,45242,US,https://cbdrx4u.com/,4707811645,hampton450@cbdrx4u.com,2019-09-12,2020-12-06,Yes,C,CBD,,,
Airport Vapes,3440 Lang Ave Ste A,,Hapeville,GA,30354,US,http://airport-vapes.business.site/,4046002482,,2018-06-07,2019-06-20,Yes,V,CBD,,,
Sam's Paradise Vape & Smoke,3380 Sunset Ave,,Hapeville,GA,30354,US,https://samsparadisevape.com/,4045003983,samsparadisevape2@gmail.com,2018-08-06,2020-06-19,Yes,V,CBD,Yes,,
E-Cig Central Vapor Store & Lounge,1087 E Franklin St Ste C,,Hartwell,GA,30643,US,,7063763993,ecigcentralvaporstore@gmail.com,2015-05-03,2019-04-01,,V,,,,
Cotton Patch Quick Stop,168 S Cromartie St,,Hazlehurst,GA,31539,US,,9123750043,ronak79@yahoo.com,2020-07-30,,,O,,,,
Alpine Dispensary,8160 S Main St,,Helen,GA,30545,US,https://alpinedispensary.com/,8554204367,orders@alpined.rocks,2020-11-17,,Yes,C,CBD,,,
Alpine Dispensary Express,8580 S Main St,,Helen,GA,30545,US,https://alpinedispensary.com/,8554204367,orders@alpined.rocks,2020-11-17,,Yes,C,CBD,,,
Mystics,8065 S Main St Ste 800,,Helen,GA,30545,US,,7068783861,,2018-10-31,,,H,,,,
Modern Age Tobacco Shop,4121 Peach Orchard Rd,,Hephzibah,GA,30815,US,,7065926283,modernagetobacco@gmail.com,2018-10-31,2018-10-31,Yes,H,CBD,,,
City Vape,468 W General Screven Way,,Hinesville,GA,31313,US,http://cityvapestore.com/,9122314120,rick@cityvapestore.com,2019-08-25,2020-02-28,,V,,,,
Hinesville CBD and Wellness by 5 Star Nutrition,230 W General Screven Way #106,,Hinesville,GA,31313,US,https://5starnutritionusa.com/,9123321450,hinesville@5starnutritionusa.com,2021-02-04,,Yes,O,CBD,,,
The Vape Loft - Hinesville,556 W Oglethorpe Hwy Ste B,,Hinesville,GA,31313,US,,9129774613,,2019-11-01,,Yes,V,CBD,,,
Tobacco City,552 W Oglethorpe Hwy,,Hinesville,GA,31313,US,,9123325574,,2019-12-23,2019-12-23,,S,,Yes,,
Vape And Smoke Shop,413 W General Screven Way,,Hinesville,GA,31313,US,http://vapeandsmokeshopga.com/,9128770558,,2019-10-04,,,S,,Yes,,
Vapors Hinesville,537 W Oglethorpe Hwy,,Hinesville,GA,31313,US,,9123321157,,2019-10-01,,,V,,,,
Ciggys,4471 Jimmy Lee Smith Pkwy Ste G,,Hiram,GA,30141,US,http://www.e-ciggys.com/,7704851340,ciggys@comcast.net,2018-09-08,2020-03-12,Yes,V,CBD,,,
Fogitup Vape Shop,5745 Wendy Bagwell Pkwy Ste 4,,Hiram,GA,30141,US,,7705803646,hello@fogitupvapeshop.com,2018-08-06,2019-12-22,Yes,V,CBD,,,
Gift Spot Adult Store,5337 Wendy Bagwell Pkwy,,Hiram,GA,30106,US,http://www.giftspothiram.com/,6785675100,,2018-12-15,2019-11-14,Yes,H,CBD,Yes,,
Happy Clouds Vape Shop,1818 Hiram Douglasville Hwy Ste E,,Hiram,GA,30141,US,,7707260335,happycloudsvapeshop@yahoo.com,2016-06-26,2019-01-12,,V,,,,
Kokopellis,3736 Atlanta Hwy Ste D,,Hiram,GA,30141,US,https://kokopellissmokeshop.com/,7704439199,kokopelliscustomerservice@gmail.com,2019-01-12,2019-12-26,Yes,S,CBD,,,
Wholistic Wellness Boutique,5157 Jimmy Lee Smith Pkwy Ste 107,,Hiram,GA,30141,US,https://wholisticwellnessboutique.com/,6783240494,wholisticwellnessboutique@gmail.com,2020-02-13,,Yes,C,CBD,,,
"Your CBD Store - Hiram, GA",4484 Jimmy Lee Smith Pkwy Ste E118,,Hiram,GA,30141,US,https://cbdrx4u.com/,7706753619,cbd3507@gmail.com,2019-09-12,,Yes,C,CBD,,,
Smoke Stars Vape & Smoke,55 Freedom Pkwy Ste 111,,Hoschton,GA,30548,US,,7066843027,smokestarshoschton@gmail.com,2020-01-18,2020-01-22,Yes,V,CBD,Yes,,
Electric Smoke Vapor Shop,10 3rd St Ste 102,,Jackson,GA,30233,US,,4702515400,,2018-10-21,,,V,,,,
Cyclops Smoke and Vape,4077 Camp Rd Ste B,,Jasper,GA,30143,US,https://cyclopssmokeshop.com/,4042219600,cyclops1173@yahoo.com,2020-08-19,,Yes,S,CBD,,,
Vapor Outlet,640 Noah Dr,,Jasper,GA,30143,US,,7066927521,,2018-10-02,2019-10-08,Yes,V,CBD,,,
"Your CBD Store - Jasper, GA",88 Burnt Mountain Rd Ste D,,Jasper,GA,30143,US,https://cbdrx4u.com/,7067162536,yourcbdstorejasper@gmail.com,2019-09-12,,Yes,C,CBD,,,
Skye Vapes,1575 W Cherry St,,Jesup,GA,31545,US,,9125596926,skyevapes912@gmail.com,2016-04-13,2019-01-09,,V,,,,
Vaped CBD Kratom Store,794 N 1st St,,Jesup,GA,31545,US,https://vaped.vip/,9125592278,wirelessspot912@gmail.com,2020-12-13,,Yes,S,CBD,Yes,,
Lions Vape,9700 Medlock Bridge Rd Ste 166,,Johns Creek,GA,30097,US,http://www.lionsvape.com/,6787709349,,2016-01-25,2019-01-07,,V,,,,
Lions Vape,9950 Jones Bridge Rd Ste 400,,Johns Creek,GA,30022,US,http://www.lionsvape.com/,6787709349,,2018-10-29,,,V,,,,
Rising Cloud Vape,11550 Jones Bridge Rd Ste 4,,Johns Creek,GA,30022,US,https://www.risingcloudvape.com/,7705590975,,2016-09-22,2019-02-08,Yes,V,CBD,Yes,,
"Your CBD Store - Johns Creek, GA",9775 Medlock Bridge Rd Ste G,,Johns Creek,GA,30097,US,https://cbdrx4u.com/,4704483943,cbd3507@gmail.com,2019-09-12,2019-09-12,Yes,C,CBD,,,
Exotic Pleasures,8220 Tara Blvd,,Jonesboro,GA,30236,US,,7702101806,,2018-12-21,,,S,,,,
The Vapor Shoppe,1117 GA-96 Ste 104,,Kathleen,GA,31047,US,https://thevaporshoppeinc.com/,4789880112,thevaporshoppe31088@gmail.com,2018-09-24,2019-11-03,Yes,V,CBD,,,
Bee Well Botanicals - Kennesaw,667 Ernest W Barrett Pkwy NW Ste 412,,Kennesaw,GA,30144,US,,7708573912,beewellbotanicalsga@gmail.com,2019-08-17,2019-08-17,Yes,C,CBD,,,
Cloud 9 Smoke and Vape Co,3600 Cherokee St NW,,Kennesaw,GA,30144,US,http://cloud9smokeco.com,6784013920,cloud9smokeco@gmail.com,2018-12-12,2019-10-22,Yes,S,CBD,,,
Cloud 9 Smoke and Vape Co - Cobb Pkwy,2176 Cobb Parkway N,,Kennesaw,GA,30152,US,https://cloud9smokeco.com/,7707908693,cloud9smokeco@gmail.com,2018-10-29,2019-10-22,Yes,S,CBD,,,
Dixie's Vapor Shop,2851 N Cobb Pkwy Ste 204,,Kennesaw,GA,30152,US,,6785403928,dixiesvaporshop1@gmail.com,2014-08-26,2019-04-01,Yes,V,CBD,,,
Genius CBD & Wellness Co.,3055 N Main St Ste 108,,Kennesaw,GA,30144,US,https://smokegenius.global/,4704249919,info@smokegenius.global,2020-10-01,,Yes,C,CBD,Yes,,
K Town Vapor Lounge,667 Ernest W Barrett Pkwy NW Ste 416,,Kennesaw,GA,30144,US,https://www.ktownvaporlounge.com/,7704193456,patti_ktvl@yahoo.com,2018-03-03,2019-01-25,Yes,V,CBD,,,
Vape City,3895 Cherokee Street Suite 624,,Kennesaw,GA,30144,US,,6785748273,hyjosh@me.com,2018-09-12,,,V,,,,
Xhale City,3920 Cherokee St NW #105,,Kennesaw,GA,30144,US,https://www.xhalecity.com/,7704851428,info@xhalecity.com,2018-08-06,2019-12-12,Yes,S,CBD,,,
"Your CBD Store - Kennesaw, GA",745 Chastain Rd Ste 1140,,Kennesaw,GA,30144,US,https://cbdrx4u.com/,7704857437,kennesaw430@cbdrx4u.com,2019-09-12,2019-09-12,Yes,C,CBD,,,
America's Choice E-Cigarettes,2475 Village Dr Ste 102,,Kingsland,GA,31548,US,http://www.americaschoiceecig.com/,9126737449,kingslandecigstore@gmail.com,2017-01-11,2018-10-13,,V,,,,
Smokers Wanted Vapor Company,1630 Boone St Ste A,,Kingsland,GA,31525,US,https://smokerswantedvaporcompany.com/,9125100512,smokerswantedvapor@gmail.com,2018-10-24,2020-03-15,Yes,V,CBD,,,
Wayne's Tobacco Outlet,2518 Scrubby Bluff Rd,,Kingsland,GA,31548,US,,9125805927,,2020-12-12,,Yes,T,CBD,,,
Aj’s Smoke & Novelty Shop,1861 Roanoke Rd Unit I,,LaGrange,GA,30240,US,https://ajsmokeshop.com/,7068121011,ajsmokeshop1@gmail.com,2022-02-10,2022-02-10,Yes,S,CBD,Yes,,
Smoke Stop Vape Shop,3452 Hogansville Rd,,LaGrange,GA,30241,US,https://www.smokestopvapes.com/,7066167753,smokestopvapes@gmail.com,2018-09-14,,Yes,V,CBD,,,
Vapor Ville - LaGrange,422 New Franklin Rd,,LaGrange,GA,30240,US,https://vaporvillellc.com/,7066686111,,2019-04-03,2019-04-03,,V,,,,
Wanda's Vapor House,122 Lakes Blvd,,Lake Park,GA,31636,US,,2296325018,vape_glass@yahoo.com,2019-09-22,2019-09-22,Yes,V,CBD,Yes,,
7 Smoke & Vapor,1135 Herrington Rd Ste 108,,Lawrenceville,GA,30044,US,http://www.smokeshoplawrenceville.com/,6782269822,sevensmokeandvapor@gmail.com,2014-09-21,2019-08-19,Yes,S,CBD,Yes,,
CBD American Shaman Lawrenceville,911 Duluth Hwy B-5,,Lawrenceville,GA,30043,US,https://cbdamericanshaman.com/,6783315386,ddunne@blueoceanlifestyle.com,2019-11-11,,Yes,C,CBD,,,
Hotbox Smoke Shop,195 Gwinnett Dr Ste B,,Lawrenceville,GA,30046,US,,6782428275,,2019-08-12,2019-08-12,Yes,S,CBD,Yes,,
House of Hemp CBD Shop,1121 Grayson Hwy Ste 10,,Lawrenceville,GA,30045,US,,,houseofhempatl@gmail.com,2021-05-23,2021-08-14,Yes,C,CBD,,,
Inhale Smoke Shop & Lounge,884 Buford Dr Ste 1600,,Lawrenceville,GA,30043,US,https://www.inhalesmokeshopandlounge.com/,4702821070,inhale.smoke01@gmail.com,2018-09-14,,Yes,S,CBD,,,
Remedy,1880 Braselton Hwy #102,,Lawrenceville,GA,30043,US,,6785875790,,2019-11-04,,Yes,S,CBD,Yes,,
Smoke and Toke,870 New Hope Rd,,Lawrenceville,GA,30046,US,https://smokeandtokenow.com/,6782269264,,2019-11-05,,Yes,H,CBD,,,
Starship Enterprises,4785 Sugarloaf Pkwy Ste 4,,Lawrenceville,GA,30044,US,http://www.shopstarship.com/,4702992853,,2019-07-07,2019-07-07,Yes,S,CBD,Yes,,
The Heated Coil Vape Shop,4955 Sugarloaf Pkwy Ste 120,,Lawrenceville,GA,30044,US,,7704178595,theheatedcoilga@gmail.com,2018-09-30,2019-11-07,Yes,V,CBD,,,
The Vaping Shack,4850 Sugarloaf Pkwy Ste 207,,Lawrenceville,GA,30044,US,http://www.thevapingshack.com/,6785851596,thevapingshack@gmail.com,2018-09-12,,,V,,,,
Tobacco Depot,3370 Sugarloaf Pkwy Ste B2,,Lawrenceville,GA,30044,US,,7702771127,,2019-12-06,2019-12-06,Yes,S,CBD,Yes,,
Vape Cabin,1956 Duluth Hwy Ste B106,,Lawrenceville,GA,30043,US,http://www.vapecabin.com,6787900242,service@vapecabin.com,2018-10-29,2018-10-29,Yes,V,CBD,,,
Vape Hub Smoke Shop,450 Hurricane Shoals Rd NW Ste 3,,Lawrenceville,GA,30046,US,,6783731618,,2020-12-13,,Yes,S,CBD,Yes,,
Xhale City,759 Braselton Hwy Ste B,,Lawrenceville,GA,30043,US,https://www.xhalecity.com/,6788783878,braseltonhwy@xhalecity.com,2018-11-17,,Yes,S,CBD,,,
Xhale City,2339 Lawrenceville Hwy,,Lawrenceville,GA,30044,US,https://www.xhalecity.com/,6786915437,info@xhalecity.com,2018-08-06,2019-12-12,Yes,S,CBD,,,
Your CBD Store,1030 Old Peachtree Rd NW #201,,Lawrenceville,GA,30043,US,https://cbdrx4u.com,7702991275,lawrencevillega@cbdrx4u.com,2020-12-07,,Yes,C,CBD,,,
Juana Vape,104 Century Rd Ste G,,Leesburg,GA,31763,US,,229496627,juanavapeinfo@gmail.com,2018-08-06,2019-12-26,Yes,V,CBD,,,
#1 Smoke Shop Vape and CBD,895 Indian Trail Rd NW,,Lilburn,GA,30047,US,,4703214820,,2018-12-27,,Yes,S,CBD,Yes,,
Just Smoke,4805 Lawrenceville Hwy Ste 404,,Lilburn,GA,30047,US,,6789240084,justsmokeatl@yahoo.com,2018-11-20,2018-11-20,,S,,,,
Pineapple Xpress Smoke Shop,888 Pleasant Hill Rd Ste G,,Lilburn,GA,30047,US,,4044548983,,2019-11-22,,Yes,S,CBD,,,
Smokes Etc.,529 Indian Trail Lilburn Rd Ste 3,,Lilburn,GA,30047,US,,6788133821,ousainou.touray@gmail.com,2022-01-27,2022-01-27,Yes,S,CBD,,,
Vape Ape ATL,510 Pleasant Hill Rd Unit H,,Lilburn,GA,30047,US,,6785854899,vapeapeatl@gmail.com,2020-12-12,,Yes,S,CBD,,,
Wild Impulse Smoke Shop,4180 Lawrenceville Hwy,,Lilburn,GA,30047,US,,7703812881,,2018-11-08,,,S,,,,
Marley's Emporium,236 Thornton Rd Ste 4,,Lithia Springs,GA,30122,US,,7707459790,marleysemporium@ymail.com,2019-11-04,,,S,,Yes,,
Xhale City,639 Thornton Rd Ste 102,,Lithia Springs,GA,30122,US,https://www.xhalecity.com/,7707021863,info@xhalecity.com,2018-08-06,2019-12-12,Yes,S,CBD,,,
Love.CBD Lithonia,2410 Dekalb Medical Pkwy Ste B,,Lithonia,GA,30058,US,https://www.loverelaxcbd.com/,4703595106,love.cbd@loverelaxcbd.com,2021-03-19,,Yes,C,CBD,,,
Paradise Island Smoke Shop,3316 Snapfinger Rd Ste F,,Lithonia,GA,30038,US,http://www.pismokeshop.com,7709878420,info@pismokeshop.com,2018-11-01,,Yes,S,CBD,,,
Purely CBD,7300 Stonecrest Concourse Ste 200,,Lithonia,GA,30058,US,https://www.purelycbd.net/,6787121518,lithonia@thepurelycbd.com,2020-11-06,,Yes,C,CBD,,,
Got CBD? Store,205 Stanley K Tanger Blvd,,Locust Grove,GA,30248,US,https://www.gotcbdstore.com/,6788144525,gotcbdstore.info@gmail.com,2021-01-13,,Yes,C,CBD,,,
Greenwood Farm CBD Dispensary,4550 Lawrenceville Rd,,Loganville,GA,30052,US,https://greenwoodfarmcbd.com/,4704483000,contactus@greenwoodfarmcbd.com,2021-01-18,,Yes,C,CBD,,,
Ragin Vapors Loganville,4665 Atlanta Hwy Ste 700,,Loganville,GA,30052,US,http://raginvapors.com/,7705546699,corey@raginvapors.com,2016-10-19,2019-01-13,,V,,,,
Xhale City,4132 Atlanta Hwy #104,,Loganville,GA,30052,US,https://www.xhalecity.com/,7705595732,info@xhalecity.com,2018-08-06,2019-09-03,Yes,S,CBD,,,
"Your CBD Store - Loganville, GA",4611 Lawrenceville Rd,,Loganville,GA,30052,US,https://cbdrx4u.com/,6786915935,loganvillega@cbdrx4u.com,2019-09-12,2019-09-12,Yes,C,CBD,,,
Papa Chet's Attic,657 W Liberty St,,Lyons,GA,30436,US,https://www.facebook.com/papachetsattic/,9122930650,clpsenior@yahoo.com,2020-07-15,,Yes,H,CBD,,,
CBD American Shaman,4875  Floyd Rd Sw,,Mableton,GA,30126,US,,6785565995,curtison24s@aol.com,2020-03-15,,Yes,C,CBD,,,
The ATL Smoke Shop,302 Veterans Memorial Hwy SW Ste 144,,Mableton,GA,30126,US,https://the-atl-smoke-shop.business.site/,6784038334,,2022-02-14,2022-02-14,Yes,S,CBD,,,
Cali's Smoke Shop,3199 Mercer University Dr,,Macon,GA,31204,US,,4782543590,calismokeshop6@gmail.com,2018-07-24,2019-07-30,Yes,S,CBD,Yes,,
Genie Smoke Shop,6394 Zebulon Rd Ste 103,,Macon,GA,31220,US,,4782596656,mjkmjkmjk666@gmail.com,2022-01-02,2022-01-02,Yes,S,CBD,Yes,,
New Hope Herbal,352 Cotton Ave,,Macon,GA,31201,US,https://www.newhopeherbal.com/,4783057562,newhopeherbal@gmail.com,2021-02-28,,Yes,C,CBD,,,
Si-Ya Smoke Shop,1572 Forest Hill Rd,,Macon,GA,31210,US,,4784059929,,2020-02-16,2020-02-16,Yes,S,CBD,Yes,,
Stormy's Vapor Cellar - Downtown Macon,415 Cherry St,,Macon,GA,31201,US,http://stormysvaporcellar.com,4782547077,stormysvaporcellar@yahoo.com,2018-08-06,2020-01-01,Yes,V,CBD,,,
Stormy's Vapor Cellar - Northside,4010 Northside Dr,,Macon,GA,31210,US,http://stormysvaporcellar.com/,4782384768,stormysvaporcellar@yahoo.com,2018-08-06,2020-01-01,Yes,V,CBD,,,
VaporTrail,6394 Zebulon Rd,,Macon,GA,31220,US,,4782385114,info@maconvaportrail.com,2018-08-06,2020-01-09,Yes,V,CBD,,,
"Your CBD Store - Macon, GA",5005 Riverside Dr Ste E,,Macon,GA,31210,US,https://cbdrx4u.com/,4783455386,cbd3507@gmail.com,2019-09-12,2019-09-12,Yes,C,CBD,,,
Alyna Express Vape CBD & Pizza Shop,1756 Hwy 11 South,,Mansfield,GA,30055,US,https://alyna-express-pizza.business.site/,7705545171,alynaexpress@yahoo.com,2020-11-17,,Yes,S,CBD,Yes,,
Carbon Smoke and Vape Shop,2543 Bells Ferry Rd #600,,Marietta,GA,30066,US,http://www.carbonsmokevapeshop.com,6785677176,,2018-10-15,,Yes,S,CBD,Yes,,
CBD Plus Wellness - East Cobb,2520 E Piedmont Rd Ste 114,,Marietta,GA,30062,US,http://www.cbdpluswellness.com/,7706274672,,2020-06-27,,Yes,C,CBD,Yes,,
Cloud 7 Smoke and Vape,2565 Delk Rd #100,,Marietta,GA,30067,US,https://cloud-7-smoke-and-vape.business.site/,6786953042,,2022-05-11,2022-05-11,,S,,,,
Cloud 9 Smoke & Vape Co - Marietta,2468 Windy Hill Rd SE #100,,Marietta,GA,30067,US,http://cloud9smokeco.com,6785407961,cloud9smokeco@gmail.com,2018-08-06,2019-10-22,Yes,S,CBD,Yes,,
Discount Smoke & Vape,1260 Powers Ferry Rd SE Ste C,,Marietta,GA,30067,US,,7709809800,,2019-10-19,,Yes,S,CBD,,,
Infusion CBD Smoke Shop,1422 Roswell Rd Ste A-2,,Marietta,GA,30062,US,,6789034163,,2021-02-11,,Yes,C,CBD,,,
It's All Guci Smoke Shop,2995 Johnson Ferry Rd Ste 250,,Marietta,GA,30062,US,http://www.vaporizersmarietta.com/,7709922060,gucismokeshopseth@gmail.com,2018-12-30,,Yes,S,CBD,Yes,,
Marietta Vape Bar,1011 S Marietta Pkwy SE Ste 3,,Marietta,GA,30060,US,https://myvapebar.com/,6784031146,sales@myvapebar.com,2018-08-06,2019-12-29,Yes,V,CBD,,,
Mary Jane's CBD Dispensary,2909 Austell Rd SW Ste 112,,Marietta,GA,30008,US,https://mjcbdd.com/pages/top-tobacco-cbd-vape-shop-in-marietta-ga,7706727180,info@mjcbd.com,2022-04-04,2022-04-04,Yes,C,CBD,,,
Peachtree Vapor & CBD Marietta,2650 Dallas Hwy Ste 230,,Marietta,GA,30064,US,https://peachtreevapor.com/,6785038990,info@peachtreevapors.com,2021-02-12,,Yes,V,CBD,,,
Sam's Paradise Vape & CBD - Marietta,2200 Roswell Rd Ste 140,,Marietta,GA,30062,US,,4048267305,,2019-04-01,,Yes,V,CBD,,,
Tastee-Vape,2635 Sandy Plains Rd Ste 104,,Marietta,GA,30066,US,http://www.tastee-vape.com/,6783240913,contact@tastee-vape.com,2018-09-30,,Yes,V,CBD,,,
Team Vape,680 Powder Springs St Ste 130,,Marietta,GA,30064,US,,6785592281,,2019-05-20,,,V,,,,
The CBD Joint,801 Church St,,Marietta,GA,30060,US,https://thecbdjointcollective.com/,6789326912,thecbdjointcollective@gmail.com,2020-08-27,,Yes,C,CBD,,,
The Pipeline,967 South Marietta Pkwy SE,,Marietta,GA,30060,US,https://www.thepipelinestores.com/,4049931811,,2018-08-06,2019-12-01,Yes,H,CBD,Yes,,
Xhale City,3205 Canton Rd Ste 137,,Marietta,GA,30066,US,https://www.xhalecity.com/,6783247185,info@xhalecity.com,2018-08-06,2019-12-12,Yes,S,CBD,,,
Xhale City,2580 Windy Hill Rd SE Ste 200,,Marietta,GA,30067,US,https://www.xhalecity.com/,6786957834,info@xhalecity.com,2018-08-06,2019-12-12,Yes,S,CBD,,,
"Your CBD Store - Marietta, GA",2365 Powder Springs Rd SW Ste 1215,,Marietta,GA,30064,US,https://cbdrx4u.com/find-us/georgia/marietta,7706274601,,2021-06-03,2021-06-03,Yes,C,CBD,,,
Augusta Kratom & CBD,337 S Belair Rd,,Martinez,GA,30907,US,https://augustakratom.com/,7068147987,,2019-12-04,,Yes,C,CBD,Yes,,
CBD Central,4074 Washington Rd,,Martinez,GA,30907,US,,7622227465,,2020-11-24,,Yes,C,CBD,,,
"Your CBD Store - Augusta, GA",4015 Washington Rd Ste B,,Martinez,GA,30907,US,https://cbdrx4u.com/,7068695773,augusta@cbdrx4u.com,2019-09-12,2019-09-12,Yes,C,CBD,,,
Atlanta Vapor McDonough,1611 GA-20,,McDonough,GA,30253,US,https://www.atlantavapor.com/,4707811130,,2014-09-13,2019-01-27,,V,,,,
CBD Wellness,1499 GA-20,,McDonough,GA,30253,US,https://www.cbdwellnessmcd.com/,4708781400,cbdwellnessmcd@gmail.com,2020-12-03,,Yes,C,CBD,,,
Habits Smoke Shop,910 Hwy 81 E,,McDonough,GA,30252,US,https://habitsx.com/,6785831293,habitzx@gmail.com,2018-10-18,2019-02-18,Yes,S,CBD,Yes,,
Lets Vape,1707 GA-42 N,,McDonough,GA,30252,US,https://letsvapega.com/,6788144781,letsvapeinfo@gmail.com,2020-07-26,2020-07-26,Yes,S,CBD,,,
Xhale City,1977 Jonesboro Rd,,McDonough,GA,30253,US,https://www.xhalecity.com/,4704880355,info@xhalecity.com,2018-11-18,2020-07-26,Yes,S,CBD,Yes,,
"Your CBD Store - McDonough, GA",580 Macon St,,McDonough,GA,30253,US,https://cbdrx4u.com/,6787827108,mcdonough317@cbdrx4u.com,2019-09-12,2019-09-12,Yes,C,CBD,,,
King Of Smoke,1835 N Columbia St,,Milledgeville,GA,31061,US,http://kingofsmokellc.com,4782951511,sav.kingofsmoke@gmail.com,2018-11-01,,Yes,S,CBD,Yes,,
Pipe Dreams,1686 N Columbia St Bldg B,,Milledgeville,GA,31061,US,https://pipedreamssmoke.shop/,4782953898,,2019-05-07,2019-05-07,Yes,S,CBD,Yes,,
Stormy's Vapor Cellar - Milledgeville,2601 N Columbia St,,Milledgeville,GA,31061,US,http://stormysvaporcellar.com/,4784513006,stormysvaporcellar@yahoo.com,2018-08-06,2020-01-01,Yes,V,CBD,,,
Delta Farmacy,3355 GA-9 N Ste B,,Milton,GA,30004,US,https://www.deltafarmacyga.com,6789206767,deltainclouds@gmail.com,2021-09-16,2021-09-16,Yes,C,CBD,,,
Purely CBD,500 Great Oaks Dr Ste 5,,Monroe,GA,30655,US,https://www.purelycbd.net/,6786356171,monroe@thepurelycbd.com,2020-11-06,,Yes,C,CBD,,,
Steamhouse Vapors & CBD,500 Great Oaks Dr Ste 5,,Monroe,GA,30655,US,http://www.steamhouse-vapors.com/,4043972926,steamhousevapes@gmail.com,2019-10-20,,Yes,V,CBD,,,
The Tobacco Store - Chevron,544 Mt Vernon Rd NW,,Monroe,GA,30655,US,,7702672455,,2020-04-24,,,T,,,,
Juicy Vapes Morrow,6681 Jonesboro Rd Ste 117,,Morrow,GA,30260,US,http://juicyvapesatl.com/,6784896556,,2019-12-18,,,V,,,,
Your CBD Store,1446 Mt Zion Rd Unit C,,Morrow,GA,30260,US,https://cbdrx4u.com,16784892392,morrow660@cbdrx4u.com,2020-12-07,,Yes,C,CBD,,,
Alibaba Smoke & Hookah Shop,2401 S Main St,,Moultrie,GA,31768,US,,2296685584,,2019-07-16,,,S,,,,
The Vaperz Den #2,5120 Thompson Bridge Rd Unit D,,Murrayville,GA,30564,US,https://www.thevaperzden.com/,7062002861,wheatley@thevaperzden.com,2019-11-01,2019-11-01,Yes,V,CBD,Yes,,
Atlanta Vapor,19 Millard Farmer Industrial Blvd Ste D,,Newnan,GA,30263,US,https://www.atlantavapor.com/,7704009354,admin@atlantavapor.com,2018-03-03,2019-01-25,,V,,,,
Atlanta Vapor - Sharpsburg,3079 GA-34,,Newnan,GA,30265,US,https://www.atlantavapor.com/,7707559170,admin@atlantavapor.com,2022-02-10,2022-02-10,Yes,V,CBD,,,
Blue Dream,244 Bullsboro Dr Ste C,,Newnan,GA,30263,US,https://www.bluedreamsmokeshop.com/,6785529370,hfbluedream@gmail.com,2022-02-14,2022-02-14,Yes,S,CBD,,,
The Vaper Shop,144 Temple Avenue,,Newnan,GA,30263,US,http://www.thevapershop.com/,6788508088,info@thevapershop.com,2018-09-12,,,V,,,,
The Vapor Depot 155,534 Bullsboro Dr,,Newnan,GA,30265,US,http://thevapordepot155.com/,7707557977,vapordepot155@gmail.com,2018-03-03,2019-01-25,,V,,,,
Tobacco Shop 34,2710 GA-34 Ste G,,Newnan,GA,30265,US,http://www.tobaccoshop34.com/,7706839990,tobaccoshop34@gmail.com,2020-03-11,,Yes,S,CBD,Yes,,
Vapor Fog Newnan,44 Bullsboro Dr Ste F,,Newnan,GA,30263,US,http://www.vaporfog.net,4704141437,support@vaporfog.net,2019-09-07,,Yes,V,CBD,,,
Xhale City,3219 GA-34,,Newnan,GA,30265,US,https://www.xhalecity.com,7707559432,info@xhalecity.com,2020-07-26,,Yes,S,CBD,Yes,,
"Your CBD Store - Newnan, GA",49 Newnan Station Dr Ste D,,Newnan,GA,30265,US,https://cbdrx4u.com/,6786736161,cbd3507@gmail.com,2019-09-12,2019-09-12,Yes,C,CBD,,,
Bene CBD Wholesale & Retail,5284 Jimmy Carter Blvd,,Norcross,GA,30093,US,https://www.benecbdus.com/,6786228272,,2020-11-19,,Yes,C,CBD,Yes,,
Blowing Clouds,3375 Holcomb Bridge Rd Ste C,,Norcross,GA,30092,US,,6787204249,,2018-10-14,2019-06-13,Yes,S,CBD,Yes,,
Burn Smoke Shop,6073 Peachtree Pkwy,,Norcross,GA,30092,US,,7702099588,,2020-07-24,,,S,,,,
CBD Plus USA,5770 Peachtree Industrial Blvd Ste 108,,Norcross,GA,30071,US,https://cbdplususa.com,6787225526,,2020-11-29,,Yes,C,CBD,,,
CBD Pros Norcross,5770 Peachtree Industrial Blvd Ste 108,,Norcross,GA,30071,US,https://cbdprosusa.com/,4705452752,,2020-11-29,,Yes,C,CBD,,,
Free Smoke Vape & Smoke Shop,5476 Jimmy Carter Blvd Unit 104,,Norcross,GA,30093,US,https://freesmokevapeshop.com/,4703952752,info@freesmokevapeshop.com,2019-11-06,2020-05-01,Yes,S,CBD,Yes,,
Free Smoke Vape and Smoke Shop,1925 Indian Trail Lilburn Rd NW Ste C,,Norcross,GA,30071,US,https://freesmokevapeshop.com/,6786913652,info@freesmokevapeshop.com,2019-11-06,2021-06-08,Yes,V,CBD,Yes,,
Pipe Dreams Smoke And Vape Shop,4790 Peachtree Industrial Blvd #104,,Norcross,GA,30071,US,https://pipedreamssmoke.shop/,4705451000,,2020-07-26,,Yes,S,CBD,Yes,,
U-Mart Smoke Shop n Vape,4151 Jimmy Carter Blvd,,Norcross,GA,30093,US,https://u-mart-smoke-shop-n-vape.business.site/,6787908954,,2020-01-30,2020-01-30,Yes,S,CBD,Yes,,
Southern Vapes,250 Doc Darbyshire Rd Ste 2,,Norman Park,GA,31771,US,,2299856408,,2019-11-28,,Yes,V,CBD,,,
Xhale City,3885 Mundy Mill Rd Ste 103,,Oakwood,GA,30566,US,https://www.xhalecity.com/,4708926700,mundymill@xhalecity.com,2018-11-17,,Yes,S,CBD,,,
HighLife Vape & Smoke Shop,3076 Hwy 81,,Oxford,GA,30054,US,,4703641230,,2019-11-26,,Yes,S,CBD,Yes,,
ATL Smoke & Vape,2581 GA-54 Ste A1,,Peachtree City,GA,30269,US,,7708921565,,2022-02-10,2022-02-10,Yes,S,CBD,Yes,,
Atlanta Vapor,2842 GA-54,,Peachtree City,GA,30269,US,https://www.atlantavapor.com/,6783672613,,2014-08-26,2019-02-08,,V,,,,
CBD Superstore - Peachtree City,1988 GA-54 Ste B,,Peachtree City,GA,30269,US,https://cbdsuperstoreatl.com/,6785450644,fayettecbdstore@gmail.com,2020-12-01,,Yes,C,CBD,,,
"Cloud 9 Smoke, Vape, & Hookah Co.",2100 GA-54 Ste 103,,Peachtree City,GA,30269,US,https://cloud9smokeco.com/,6788846482,info@cloud9smokeco.com,2022-03-08,2022-03-08,Yes,S,CBD,,,
World Of Tobacco,1117 Crosstown Ct,,Peachtree City,GA,30269,US,,6788465623,worldoftobacco1@gmail.com,2019-09-17,,Yes,S,CBD,Yes,,
Your CBD Store,2707 Hwy 54 W #12,,Peachtree City,GA,30269,US,https://cbdrx4u.com,7707038451,peachtreecity657@cbdrx4u.com,2020-12-06,,Yes,C,CBD,,,
Whispers Vapor,740 Main St,,Perry,GA,31069,US,http://whispersvapor.com/,4782443054,whispersvapor1@gmail.com,2018-09-30,,Yes,V,CBD,,,
Blackbeard Vapor,1215 US-80,,Pooler,GA,31322,US,https://www.blackbeardvapor.com/,9123482045,blackbeardvapor@centurylink.net,2018-08-06,2020-01-11,Yes,V,CBD,,,
City Vape,801 Pooler Pkwy Ste 104,,Pooler,GA,31322,US,https://www.cityvapestore.com,9129881184,rick@cityvapestore.com,2020-02-26,2020-02-27,Yes,V,CBD,,,
Tobacco Palace,1014 US-80 E #400,,Pooler,GA,31322,US,,9129881275,,2020-07-10,,Yes,S,CBD,Yes,,
Vapor Trails,1105 Hwy 80 E Ste C,,Pooler,GA,31322,US,https://www.vaportrailspooler.com/,9123482092,kraft.vaportrails@gmail.com,2018-09-30,,Yes,V,CBD,,,
Juice Guys Vapor Lounge,7306 GA-21 Ste 205,,Port Wentworth,GA,31407,US,https://www.juiceguysdistro.com/,9122003107,juiceguys13@gmail.com,2019-12-23,,,V,,,,
Blackbeard Vapor,10175 Ford Ave,,Richmond Hill,GA,31324,US,http://www.blackbeardvapor.com/,9124599990,blackbeardvapor@centurylink.net,2014-08-26,2019-05-04,Yes,V,CBD,,,
CBD Express,3745 US-17 Ste 400,,Richmond Hill,GA,31324,US,http://www.cbdexpressus.com,9124455128,richmondhill@cbdexpressus.com,2020-04-29,2020-05-29,Yes,C,CBD,,,
The Vape Loft - Richmond Hill,3741 US-17 S Unit 100,,Richmond Hill,GA,31324,US,https://www.facebook.com/thevapeloftrh,2058731148,vlrichmondhill@gmail.com,2018-08-06,2020-01-02,,V,,,,
"Your CBD Store - Richmond Hill, GA",9701 Ford Ave Ste K-104,,Richmond Hill,GA,31324,US,https://cbdrx4u.com/,9124590569,rhill425@cbdrx4u.com,2019-09-12,2019-09-12,Yes,C,CBD,,,
Foghouse Vapors,6028 GA-21,,Rincon,GA,31326,US,,9122393956,foghousevapors@gmail.com,2015-05-09,2019-11-02,Yes,V,CBD,,,
"Your CBD Store - Rincon, GA",135 Goshen Rd Ste 109,,Rincon,GA,31326,US,https://cbdrx4u.com/,9124292528,cbd3507@gmail.com,2019-09-12,2019-09-12,Yes,C,CBD,,,
AMS Medical Supply & CBD,5432 Battlefield Pkwy,,Ringgold,GA,30736,US,https://www.amsmedicalsupplyandcbd.com/,7069521009,charris@amsaccess.com,2020-11-17,2020-11-17,Yes,O,CBD,,,
Signature Vapors,6739 US-41,,Ringgold,GA,30736,US,http://signaturevapors.business.site/,7069653775,,2020-02-16,,Yes,V,CBD,,,
Hookah & Tobacco,7490 Old National Hwy Ste 1200,,Riverdale,GA,30296,US,,7709070333,hookahntobacco@yahoo.com,2019-12-03,2019-12-03,,S,,,,
Smoke and Vape,6380 GA-85 Ste C,,Riverdale,GA,30274,US,,7708925912,,2019-11-05,,Yes,S,CBD,Yes,,
Smoke Shop & Beverage,2709 Chattanooga Rd #E,,Rocky Face,GA,30740,US,,7062772333,,2020-02-26,,,T,,,,
Alpha Smoke,1107 Turner McCall Blvd,,Rome,GA,30161,US,http://www.alphasmokellc.com/,7708462321,alphasmokellc@hotmail.com,2018-09-17,2021-07-19,Yes,S,CBD,Yes,,
Mountain Oak Vapors of Rome GA,207 Turner McCall Blvd,,Rome,GA,30165,US,http://www.niagarafallsvapeshop.com,7062377722,administrator@mountainoakvapors.com,2018-08-06,2019-12-29,Yes,V,CBD,,,
Summit Mist Vapors,522 Broad St,,Rome,GA,30161,US,,7066222433,summitmistvapors@gmail.com,2018-08-06,2020-01-02,,V,,,,
Tobacco For Less,3729 Martha Berry Hwy,,Rome,GA,30165,US,,7062349099,,2020-07-05,,Yes,T,CBD,,,
Vapor Craft,1850 Redmond Cir Ste 400,,Rome,GA,30165,US,https://shopvaporcraft.com/,7062376923,shop@thevaporcraft.com,2018-08-09,2020-02-04,Yes,V,CBD,,,
Your CBD Store,1600 Shorter Ave NW Ste B,,Rome,GA,30165,US,https://cbdrx4u.com,7063149485,,2020-12-06,,Yes,C,CBD,,,
Bell's Smoke Shop,115 Chickamauga Ave #G,,Rossville,GA,30741,US,,7067606822,,2019-07-22,2022-02-10,Yes,S,CBD,Yes,,
Budz Tobacco,2184 Cloud Springs Rd,,Rossville,GA,30741,US,,7069568106,,2019-07-29,,,T,,Yes,,
Bee's Smoke Shop,4706 Woodstock Rd Ste 103,,Roswell,GA,30075,US,,7708372056,beessmokeshop@yahoo.com,2018-12-30,,,S,,,,
Big Bang Vape Co.,2300 Holcomb Bridge Rd Ste 401,,Roswell,GA,30076,US,https://bigbangvapeshops.com/,7705381406,service@bigbangvapeco.com,2018-01-21,2019-01-22,,V,,,,
Blue Rat Smoke Shop Roswell,1000 Marietta Hwy #400,,Roswell,GA,30075,US,,7706766026,,2019-07-22,2019-07-22,Yes,S,CBD,Yes,,
Nirvana Smoke Shop,915 Woodstock Rd Ste 100,,Roswell,GA,30075,US,http://www.nirvanaroswell.com,6783731598,nirvanaroswell1@gmail.com,2019-11-18,,Yes,S,CBD,Yes,,
Nuleaf #1,4750 Alabama Rd NE Ste 116,,Roswell,GA,30075,US,https://www.nuleafone.com/,4046326111,nuleaf@nuleafone.com,2021-02-22,,Yes,C,CBD,,,
Rising Cloud Smokeshop,11235 Alpharetta Hwy Ste 134,,Roswell,GA,30076,US,https://www.risingcloudvape.com/,6786915350,customerservice@risingcloudvape.com,2021-01-23,2021-01-23,Yes,S,CBD,,,
VapeZone,10751 Alpharetta Hwy,,Roswell,GA,30076,US,http://vapezone1.com/,4702233745,vapezone1@gmail.com,2018-09-21,,,V,,,,
Xhale City,1007 Alpharetta St,,Roswell,GA,30075,US,https://www.xhalecity.com/,7705458485,roswell@xhalecity.com,2018-11-17,,Yes,S,CBD,,,
"Your CBD Store - Roswell, GA",555 S Atlanta St Ste A200,,Roswell,GA,30075,US,https://cbdrx4u.com/,4045496766,roswellga@cbdrx4u.com,2019-09-12,2019-09-12,Yes,C,CBD,,,
Cloud Nine Vapors,974 Church St,,Royston,GA,30662,US,http://cloudninevapors.net,7064104591,cloudninevapelounge@gmail.com,2018-06-22,2019-07-02,Yes,V,CBD,Yes,,
Sam's Paradise,8349 Roswell Rd,,Sandy Springs,GA,30350,US,https://samsparadisevape.com/,4044376886,spv8349@gmail.com,2018-08-06,2020-01-01,Yes,V,CBD,Yes,,
Xhale City,6427 Roswell Rd Ste A,,Sandy Springs,GA,30328,US,https://www.xhalecity.com/,4045002582,info@xhalecity.com,2018-08-06,2019-12-12,Yes,S,CBD,,,
Your CBD Store,5975 Roswell Rd Ste E-355,,Sandy Springs,GA,30328,US,https://cbdrx4u.com/find-us/georgia/sandy-springs,4703551103,sandysprings620@cbdrx4u.com,2021-06-03,2021-08-14,Yes,C,CBD,,,
Hemp Leaf CBD Supply Co.,822 E Derenne Ave,,Savannah,GA,31405,US,https://hempleafsupply.co/,9127773725,hempleafcbdsupplyco@gmail.com,2021-01-26,,Yes,C,CBD,,,
Joker's Novelties,111 W Derenne Ave,,Savannah,GA,31405,US,,9123520709,,2019-12-21,,,O,,,,
Living Vapor 2,4700 US-80 E Unit B,,Savannah,GA,31410,US,,9122013404,,2018-09-20,,,V,,,,
Mary Jane's CBD & Vape Shop,302 W Victory Dr,,Savannah,GA,31405,US,https://mjcbdvape.com/,9123497666,shane@maryjanessmokeshop.com,2018-09-18,2018-12-21,Yes,V,CBD,,,
Planet 3 Smoke Shop,1702 Abercorn St,,Savannah,GA,31401,US,https://www.planetthree.com/,9122367772,,2018-12-21,2018-12-21,,H,,Yes,,
Smoke City,48 W Montgomery Cross Rd Ste 103,,Savannah,GA,31406,US,http://www.mysmokecity.com,9129202255,,2018-11-18,,Yes,S,CBD,Yes,,
Southeast Vapes,205 Johnny Mercer Blvd Ste D,,Savannah,GA,31410,US,https://www.southeastvapes.com/,9127123590,southeastvapes@gmail.com,2018-08-06,2020-01-01,Yes,V,CBD,,,
Sunset Novelties,9307 Abercorn St,,Savannah,GA,31419,US,http://sunsetnovelties.com/,9129615455,,2018-12-30,,Yes,H,CBD,,,
The Tobacco Shop,492 Jimmy Deloach Pkwy Ste 101,,Savannah,GA,31322,US,,9123497134,,2019-11-01,,Yes,S,CBD,,,
The Vape Loft - Abercorn,11155 Abercorn St,,Savannah,GA,31419,US,,9125081617,,2019-11-01,,,V,,,,
Tobacco Palace of Savannah,139 E Montgomery Cross Rd,,Savannah,GA,31406,US,http://tobacco-palace-of-savannah.business.site/,9123352825,,2020-07-10,,Yes,T,CBD,Yes,,
Vapors Smoke Shop,7303 Abercorn St,,Savannah,GA,31406,US,,9127773754,,2018-08-09,2020-02-04,Yes,S,CBD,,,
Vapors Smoke Shop,14045 Abercorn St,,Savannah,GA,31419,US,,9124010689,,2018-08-06,2019-12-11,Yes,S,CBD,,,
Vapor Fog,3441 GA-34 E Ste G,,Sharpsburg,GA,30277,US,,6788770675,vaporfogfayetteville@gmail.com,2014-09-30,2019-01-29,,V,,,,
Discount Smoke & Tobacco,2387 S Cobb Dr SE #B,,Smyrna,GA,30080,US,,7703191230,,2019-10-23,,Yes,S,CBD,Yes,,
Nimbus Smoke And Vape,2517 Spring Rd SE Ste 103,,Smyrna,GA,30080,US,https://www.smokenimbus.com,7708743044,support@smokenimbus.com,2022-01-07,2022-01-07,Yes,S,CBD,Yes,,
One Luv Smoke n Vape,579 Concord Road SE Ste 200,,Smyrna,GA,30082,US,https://www.oneluvsmokenvape.com/,6782936212,oneluvsmokenvape@gmail.com,2018-08-06,2019-06-19,Yes,S,CBD,Yes,,
One Luv Smoke n Vape,4924 S Cobb Dr SE Ste J,,Smyrna,GA,30080,US,https://www.oneluvsmokenvape.com,6782935335,oneluvsmokenvape@gmail.com,2018-08-06,2019-10-30,Yes,S,CBD,Yes,,
Smoke Shop,2585 Spring Rd SE,,Smyrna,GA,30080,US,,7709891223,,2020-02-24,2020-02-24,,S,,,,
This That & The Other,2335 Cobb Pkwy,,Smyrna,GA,30080,US,https://shopthisthatandtheother.webs.com/,7709848801,,2018-11-08,2019-11-04,Yes,S,CBD,Yes,,
Vape Atlanta,4499 S Cobb Dr Ste F,,Smyrna,GA,30080,US,https://vapeatlanta.com/,4045665757,,2022-01-25,2022-01-25,Yes,V,CBD,,,
Vape Pkwy & CBD,2620 Cobb Pkwy SE #G,,Smyrna,GA,30080,US,https://vapepkwy.com/,6784248273,retail@vapepkwy.com,2018-08-06,2020-01-05,Yes,V,CBD,,,
"Your CBD Store - Smyrna, GA",2460 Cobb Pkwy SE,,Smyrna,GA,30080,US,https://cbdrx4u.com/,7706931266,cbd3507@gmail.com,2019-09-12,2020-01-26,Yes,C,CBD,,,
American Legends E Liquid/Rolling Rock Vapor,2115 E Main St Ste E,,Snellville,GA,30078,US,http://www.americanlegendseliquid.com/,4705145598,support@americanlegendseliquid.com,2016-08-16,2019-03-08,Yes,V,CBD,,,
Beyondd Vapes & Smoke Shop,4017 Annistown Rd Ste D,,Snellville,GA,30039,US,https://beyondd-vapes-smoke-shop.business.site/,4703652876,,2019-11-22,,Yes,S,CBD,,,
Inhale Smoke Shop & Lounge,2189 Scenic Hwy S Ste H,,Snellville,GA,30078,US,http://www.inhalesmokeshopandlounge.com/,7706484021,inhale.smoke01@gmail.com,2020-07-08,,Yes,S,CBD,,,
Just Smoke,2277 Main St E Ste C,,Snellville,GA,30078,US,,6786913718,,2019-12-23,,,S,,,,
Just Smoke,3725 Stone Mountain Hwy Ste F,,Snellville,GA,30039,US,,6786203155,justsmokeatl@yahoo.com,2018-11-04,,,S,,,,
"My CBD Organics Store - Snellville, GA",1830 Scenic Hwy Ste 160,,Snellville,GA,30078,US,https://mycbdorganics.com/,6783021650,dmenard@mycbdorganics.com,2021-03-09,,Yes,C,CBD,,,
Omar's Smoke Shop,4002 Stone Mountain Hwy #540,,Snellville,GA,30039,US,,4702753622,,2020-01-31,,Yes,S,CBD,Yes,,
The Vaping Shack & CBD,1977 Scenic Hwy N Ste F,,Snellville,GA,30078,US,http://www.thevapingshack.com/,4702823185,,2019-11-01,2019-11-01,Yes,V,CBD,,,
The Hemp Park,5737 Old National Hwy Ste 400B,,South Fulton,GA,30349,US,https://thehempparks.com,4702599801,,2020-12-16,2021-08-30,Yes,C,CBD,,,
Hemp Leaf CBD Supply Co.,2104 Osborne Rd,,St Marys,GA,31558,US,https://hempleafsupply.co/,9126730003,hempleafcbdsupplyco@gmail.com,2021-01-26,,Yes,C,CBD,,,
Patriot Vapor Lounge,916 Kings Bay Rd Ste A,,St Marys,GA,31558,US,http://www.patriotvaporlounge.com/,9124393653,patriotvaporsga@gmail.com,2019-05-07,,,V,,,,
Tobacco Palace,1833 Osborne Rd,,St Marys,GA,31558,US,https://stmarystobaccoshop.com/,9124004376,,2020-12-09,,Yes,S,CBD,Yes,,
Tobacco Planet,2718 Osborne Rd,,St Marys,GA,31558,US,,9125765567,,2020-06-12,,Yes,T,CBD,Yes,,
A Smokin Place,1200 Brampton Ave,,Statesboro,GA,30458,US,http://www.asmokinplace.com/,9122253003,asmokinplace@yahoo.com,2018-10-25,,Yes,S,CBD,,,
Boro Vapors,17 Lester Rd,,Statesboro,GA,30458,US,https://borovapors.com/,9122439154,,2019-07-28,,,V,,,,
Discount Beverage & Tobacco,1285 Northside Dr E,,Statesboro,GA,30458,US,http://www.statesborotobacco.com/,9124890241,,2019-10-07,2019-10-07,,T,,,,
Foghouse Vapors - Statesboro,1525 Fair Rd Ste 101,,Statesboro,GA,30458,US,,9124812784,foghousevapors@gmail.com,2019-11-02,2019-11-02,Yes,V,CBD,,,
Reece's Pieces SmokeSpot,406 Fair Rd #6,,Statesboro,GA,30458,US,,9128714449,,2020-02-08,,,H,,,,
Smoke Crave,200 Lanier Dr Ste 4,,Statesboro,GA,30458,US,https://smoke-crave-llc.business.site/,9122439323,smokecravega@gmail.com,2021-01-10,,Yes,S,CBD,,,
The Smoke Haven,15 College Plaza,,Statesboro,GA,30458,US,http://www.thesmokehaven.com/,9122122123,info@thesmokehaven.com,2019-10-31,,Yes,S,CBD,,,
A G Cigars At Eagles Landing,918 Eagles Landing Pkwy,,Stockbridge,GA,30281,US,http://agcigars.com/,7705077312,agcigars@bellsouth.net,2019-07-14,,,T,,,,
Atlanta Vapor Stockbridge,7348 Davidson Pkwy S,,Stockbridge,GA,30281,US,https://www.atlantavapor.com/,6785190627,,2019-07-19,,,V,,,,
Living Vapor,1481 Hudson Bridge Rd Ste G,,Stockbridge,GA,30281,US,http://www.livingvapor.com/,6787826900,livingvapor@yahoo.com,2018-09-20,,Yes,V,CBD,Yes,,
Love.CBD Stockbridge,31 GA-138 Ste 260,,Stockbridge,GA,30281,US,https://www.lovecbdstockbridge.com/,6785865484,love.cbd@loverelaxcbd.com,2021-03-19,,Yes,C,CBD,,,
Rolling Rock Vapor,4705 N Henry Blvd,,Stockbridge,GA,30281,US,https://www.rollingrockvapor.com/,6788345969,rollingrockvapor@gmail.com,2015-02-06,2020-02-11,Yes,V,CBD,,,
Sam's Paradise Vape & Smoke,5222 N Henry Blvd Ste G,,Stockbridge,GA,30281,US,https://samsparadisevape.com,40450039833,,2021-01-13,,Yes,S,CBD,,,
Smoke City,630 Fairview Rd,,Stockbridge,GA,30281,US,,7705067696,,2020-02-17,,Yes,S,CBD,Yes,,
"Your CBD Store - Stockbridge, GA",1520 Hudson Bridge Rd,,Stockbridge,GA,30281,US,https://cbdrx4u.com/find-us/georgia/stockbridge,6788293616,stockbridge205@cbdrx4u.com,2019-09-12,2019-09-12,Yes,C,CBD,,,
The Connoisseur Smoke Shop,4766 Redan Rd Ste 2,,Stone Mountain,GA,30088,US,http://the-connoisseur-smoke-shop.business.site/,4043308272,,2019-10-29,,,S,,,,
The Rose & Hemp,963 Main St,,Stone Mountain,GA,30083,US,https://theroseandhemp.com/,6784047679,help@theroseandhemp.com,2020-12-09,,Yes,C,CBD,,,
Vapor Max,5226 US-78,,Stone Mountain,GA,30087,US,,6786915238,,2018-09-19,,,V,,,,
Great Vape and CBD,5192 Nelson Brogdon Blvd Ste 700,,Sugar Hill,GA,30518,US,https://mygreatvape.com/,4703265588,mygreatvape@gmail.com,2019-09-25,,Yes,V,CBD,,,
Level Minds CBD,3550 Lawrenceville-Suwanee Rd Ste 108,,Suwanee,GA,30024,US,https://levelmindscbd.com/,6787652228,info@levelmindscbd.com,2021-03-08,,Yes,C,CBD,,,
Peachtree Vapor Johns Creek,3455 Peachtree Pkwy Ste 210,,Suwanee,GA,30024,US,https://peachtreevapor.com/,6783419472,info@peachtreevapor.com,2018-09-30,2019-09-10,Yes,V,CBD,,,
Suwanee Smoke Shop,3033 Lawrenceville-Suwanee Rd,,Suwanee,GA,30024,US,http://www.suwaneesmokeshop.com/,7709450907,suwaneesmokeshop@gmail.com,2019-10-23,,Yes,S,CBD,Yes,,
Viral Vapes Suwanee & CBD Suwanee,3370 Lawrenceville-Suwanee Rd,,Suwanee,GA,30024,US,http://viralvapes.com/,6787652775,v.ventura20@gmail.com,2019-09-28,,Yes,V,CBD,,,
Smoke City,1102 E Jackson St,,Thomasville,GA,31792,US,https://smoke-city-smoke-shop.business.site/,2292366102,smokecityga@gmail.com,2021-01-10,,Yes,S,CBD,Yes,,
South Georgia Vapor,1963 GA-122,,Thomasville,GA,31757,US,,2292361210,,2018-08-06,2019-10-17,,V,,,,
VapeBoss,13035 US-319 N Unit B,,Thomasville,GA,31757,US,https://www.vapebossonline.com/,2292360123,info@vapebossonline.com,2014-08-28,2019-01-26,Yes,V,CBD,,,
Your CBD Store,1464 Washington Rd Ste F,,Thomson,GA,30824,US,https://cbdrx4u.com,7063610327,thomson664@cbdrx4u.com,2020-12-05,,Yes,C,CBD,,,
Little Hippie Chick,334 Main St S,,Tifton,GA,31794,US,https://www.littlehippiechick.com/,2292565694,niki@lhchick.com,2021-03-18,,Yes,O,CBD,,,
Tifton Tobacco & Vapor,1878 US-82 W,,Tifton,GA,31793,US,,,,2021-10-09,2021-10-09,Yes,S,CBD,,,
Vaping Easy Tifton,169 S Virginia Ave,,Tifton,GA,31794,US,http://www.vapingeasy.com,2294721088,,2019-02-19,,Yes,V,CBD,Yes,,
Juice Junction,602 Big A Rd Ste 100,,Toccoa,GA,30577,US,,7062973855,juicejunction@yahoo.com,2018-08-06,2019-12-26,Yes,V,CBD,,,
The Vapory,12386 Main St #A,,Trenton,GA,30752,US,http://onlythevapory.com/,7066578273,donnamcelhaney@yahoo.com,2019-10-03,,Yes,V,CBD,,,
"Trenton Tobacco, Beer, Vapor & Kratom",12056 S Main St,,Trenton,GA,30752,US,,7066574546,,2020-01-16,,Yes,T,CBD,Yes,,
Vapin' Hankins,13961 US-27,,Trion,GA,30753,US,,7067347464,vapin_hankins@windstream.net,2019-08-11,2019-08-11,,V,,,,
Cali Kulture,2090 Tucker Industrial Rd Ste A2,,Tucker,GA,30084,US,https://www.calikulture.shop/,4049883513,sbopticalmkt@gmail.com,2020-01-07,2020-07-07,Yes,V,CBD,,,
Just Smoke,4294 Chamblee Tucker Rd,,Tucker,GA,30084,US,,7704149128,,2018-12-02,2019-12-23,Yes,S,CBD,Yes,,
Pipes N' Lights,4121 Lawrenceville Hwy,,Tucker,GA,30084,US,https://www.pipesandlights.com/,6783280440,pipesnlightsup@gmail.com,2019-06-11,2020-03-26,Yes,H,CBD,,,
Puff 'N' Stuff Cigars,3315 Fern Dr,,Tucker,GA,30084,US,http://puffnstuffcigars.com/,7709089388,,2020-02-05,,,T,,,,
Smoke Out,4309 Hugh Howell Rd,,Tucker,GA,30084,US,,4702756997,smokeouttucker@gmail.com,2018-11-18,2021-06-19,Yes,S,CBD,,,
Xhale City,3145 Tucker Norcross Rd Ste 120,,Tucker,GA,30084,US,https://www.xhalecity.com/,6783957309,tucker@xhalecity.com,2018-11-18,2018-11-18,Yes,S,CBD,Yes,,
Atlanta Vapor,994 Tyrone Rd Ste E,,Tyrone,GA,30290,US,https://www.atlantavapor.com/,6783692477,admin@atlantavapor.com,2018-03-03,2019-01-24,,V,,,,
404 Smoke Shop #2,4733 Jonesboro Rd Ste 115,,Union City,GA,30291,US,https://www.404smokeshop.com/,7707033533,404smokeshop@gmail.com,2019-07-13,,Yes,S,CBD,,,
Alpha Smoke Shop,2015 N Ashley St,,Valdosta,GA,31602,US,http://www.alphasmokellc.com/,2293168466,alphasmokellc@hotmail.com,2019-07-17,,Yes,S,CBD,Yes,,
An Even Greater Divide,2035 N Ashley St,,Valdosta,GA,31602,US,http://www.aegdi.com/,2292445992,,2018-08-06,2019-08-01,Yes,S,CBD,,,
ML's Vape Shop,2807 N Ashley St,,Valdosta,GA,31602,US,,2294697008,,2019-05-03,,,V,,,,
V-Town Vapors,1835 Norman Dr Ste B,,Valdosta,GA,31601,US,https://vtownvapors.com/,2295394266,service@vtownvapors.com,2019-04-28,,,V,,,,
"Your CBD Store - Valdosta, GA",1810 Plum St Ste G,,Valdosta,GA,31601,US,https://cbdrx4u.com/,2293338262,valdosta421@cbdrx4u.com,2019-09-12,2019-09-12,Yes,C,CBD,,,
Smoke Cave,106 McIntosh St,,Vidalia,GA,30474,US,,9124033315,smokecavellc@gmail.com,2019-09-10,,Yes,S,CBD,Yes,,
Vivacious Vapes/CBD Shop,3107 E 1st St,,Vidalia,GA,30474,US,https://vivaciousvapes.com/,9125857472,vivaciousvapes@gmail.com,2019-09-28,,Yes,V,CBD,,,
Angry Dragon Vapors,664 W Bankhead Hwy Ste 3D,,Villa Rica,GA,30180,US,https://www.angrydragonvapors.com/,7707653883,,2016-08-09,2019-03-08,Yes,V,CBD,,,
"ATL Smoke, Vape & Craft Beer #2",125 Commons Way Ste 105,,Villa Rica,GA,30180,US,,6789413757,,2020-11-18,,Yes,S,CBD,Yes,,
Buy Sell Trade Vape Shop,2430 Mirror Lake Blvd,,Villa Rica,GA,30180,US,,4708006021,,2020-11-21,,Yes,V,CBD,,,
Lionz Vape & Tobacco,118 Hwy 61 Connector Ste D,,Villa Rica,GA,30180,US,,7704621177,lionzvapetobacco@gmail.com,2020-01-12,,Yes,V,CBD,,,
"Your CBD Store - Villa Rica, GA",596 GA-61 Ste B,,Villa Rica,GA,30180,US,https://cbdrx4u.com/,6789413700,cbd3507@gmail.com,2019-09-12,2019-09-12,Yes,C,CBD,,,
CBD Shoppe,4088 Watson Blvd Ste 300,,Warner Robins,GA,31093,US,https://www.thecbdshoppewr.com/,4783331450,thecbdshoppe1@gmail.com,2020-12-01,,Yes,C,CBD,,,
CBD Wellness,158 S Houston Lake Rd #12,,Warner Robins,GA,31088,US,https://midgacbdwellness.com/,4783331732,midgacbdwellness@yahoo.com,2020-12-03,,Yes,C,CBD,,,
Cloud City Vapor & E-Cig,1506 Russell Pkwy,,Warner Robins,GA,31088,US,,4783025151,,2019-04-01,2019-04-01,,V,,,,
Electric Cloudz,115 Russell Pkwy Ste 1150,,Warner Robins,GA,31088,US,,4782734110,contactus@electriccloudz.com,2018-10-21,2019-04-01,Yes,V,CBD,,,
Hempster CBD,4800 Russell Pkwy,,Warner Robins,GA,31088,US,https://hempster-cbd.business.site/,4783331918,hempstercc@yahoo.com,2021-01-29,,Yes,C,CBD,,,
Jus One More Smoke Shop,1238 S Houston Lake Rd,,Warner Robins,GA,31088,US,http://jus-one-more-smoke-shop.business.site/,4789880555,,2018-08-06,2019-10-06,Yes,S,CBD,,,
Smokeshop Cigars & Hookah Outlet,1204 Russell Pkwy Ste 110,,Warner Robins,GA,31088,US,http://cigarsandhookah.com/,4782256846,contact@cigarsandhookah.com,2019-08-15,2019-08-15,Yes,S,CBD,Yes,,
Stormy's Vapor Cellar - Booth Rd,494 Booth Rd,,Warner Robins,GA,31088,US,http://stormysvaporcellar.com/,4782361200,stormysvaporcellar@yahoo.com,2018-08-06,2020-01-01,Yes,V,CBD,,,
Stormy's Vapor Cellar - Watson Blvd,4027 Watson Blvd #160,,Warner Robins,GA,31093,US,http://stormysvaporcellar.com/,4783336433,stormysvaporcellar@yahoo.com,2018-08-06,2020-01-01,Yes,V,CBD,,,
The Tiki Hut Vapes,340 Corder Rd Ste B,,Warner Robins,GA,31088,US,,4782252882,tikihutvapes@gmail.com,2018-09-30,,Yes,V,CBD,,,
Warner Robins CBD and Wellness by 5 Star Nutrition,133 Margie Dr,,Warner Robins,GA,31093,US,https://5starnutritionusa.com/,4789530155,connorstanley35@gmail.com,2020-12-12,,Yes,O,CBD,,,
Southern Fog Vapes,506 S City Blvd,,Waycross,GA,31501,US,,9123378273,,2018-08-09,2020-02-04,Yes,V,CBD,,,
Quik Mart Smoke Shop,38 Patrick Mill Rd,,Winder,GA,30680,US,,,,2020-07-26,,,T,,,,
Smoke & Vape Shop,174 W May St Ste 105,,Winder,GA,30680,US,http://smoke-vape-shop.business.site/,6789635892,,2020-02-17,2020-02-17,Yes,S,CBD,Yes,,
"Smoke Stars Vape, Smoke, CBD, Kratom Shop",111 E May St #60,,Winder,GA,30680,US,https://smokestarswinder.business.site/,6789757329,smokestarscommerce@gmail.com,2021-01-10,2021-07-23,Yes,S,CBD,Yes,,
Rana's Tobacco And Smoke Shop,11011 Millarden Rd,,Woodbury,GA,30293,US,http://ranas-tobacco-and-smoke-shop.business.site/,7065536007,,2019-12-13,2019-12-13,Yes,S,CBD,Yes,,
CBD American Shaman of Woodstock,9999 GA-92 Ste 150,,Woodstock,GA,30188,US,https://cbdamericanshaman.com/,8336454673,cbd@cbdwoodstock.com,2019-11-11,,Yes,C,CBD,,,
Cloud 9 Smoke & Vape Co.,9999 GA-92,,Woodstock,GA,30188,US,http://cloud9smokeco.com,6785032170,cloud9smokeco@gmail.com,2018-10-20,2019-08-26,Yes,S,CBD,,,
Galaxy Trading of Woodstock,9820 GA-92 Ste D,,Woodstock,GA,30189,US,http://www.shopstarship.com/,7709284105,,2019-11-13,,Yes,S,CBD,Yes,,
Good CBD Shop - Woodstock,9425 GA-92 Ste 124,,Woodstock,GA,30188,US,https://www.goodcbdshop.com/,6784942261,help@goodcbdshop.com,2019-09-25,2019-09-25,Yes,C,CBD,,,
Ole 5 Vapor,5335 Old Hwy 5 #103,,Woodstock,GA,30188,US,https://ole-5-vapor.business.site/,4047838884,,2020-01-31,,,V,,,,
Sam's Paradise,14865 GA-92 Ste 5,,Woodstock,GA,30188,US,https://samsparadisevape.com/,4047862233,samsparadisevape2@gmail.com,2018-08-06,2020-01-01,Yes,V,CBD,Yes,,
"This, That & The Other",8525 GA-92 #100,,Woodstock,GA,30189,US,https://shopthisthatandtheother.webs.com/,6784945004,,2018-11-01,2019-11-04,Yes,S,CBD,Yes,,
VapeRite Woodstock,9425 GA-92 Ste 124,,Woodstock,GA,30188,US,https://www.vaperite.com/,6784942261,help@vaperite.com,2018-09-30,2019-08-09,Yes,V,CBD,,,
Xhale City,9745 GA-92 #C,,Woodstock,GA,30188,US,https://www.xhalecity.com/,7707261951,woodstock@xhalecity.com,2018-11-17,,Yes,S,CBD,,,
"Your CBD Store - Towne Lake, GA",2340 Towne Lake Pkwy Ste 120-B,,Woodstock,GA,30189,US,https://cbdrx4u.com/,7706273512,townelake@cbdrx4u.com,2019-09-12,2019-09-12,Yes,C,CBD,,,