Shop Name,Address 1,Address 2,City,State/Province,Zip/Postcode,Country,Website,Phone,Email,Added,Updated,CBD,Biz Type,MJ,Kratom,Buyer name,Title
Vaping Js,7967 Alexandria Pike,,Alexandria,KY,41001,US,,8596358274,vapingjs@gmail.com,2015-03-01,12/26/2018,Yes,V,CBD,,,
Bear Vapor,2228 Greenup Ave,,Ashland,KY,41101,US,,6063933093,,2019-09-28,2/10/2022,,V,,,,
District 4 Vapor,1700 29th St,,Ashland,KY,41101,US,https://district4vapor.com/,6062622029,sales@district4vapor.com,2016-06-16,4/7/2019,,V,,,,
Prying Eye Vapes,2124 13th St,,Ashland,KY,41101,US,,6063271735,service.pryingeyevape@gmail.com,2021-02-08,,,V,,,,
Select a Vapor,423 Diederich Blvd,,Ashland,KY,41101,US,https://www.madvapes.com/,8476873475,guestservice@amvholdings.com,2018-08-06,1/1/2020,Yes,V,CBD,,,
Smokin Toms Discount Tobacco,12484 US-60,,Ashland,KY,41102,US,,6069284100,,2020-02-01,,Yes,S,CBD,,,
Vapor Evolutions,8124 US-60,,Ashland,KY,41102,US,,6069284151,,2018-08-06,1/7/2020,,V,,,,
Vapor World,1606 Greenup Ave,,Ashland,KY,41101,US,,,,2014-09-30,1/26/2019,,V,,,,
"Your CBD Store - Ashland, KY",2116 13th St,,Ashland,KY,41101,US,https://cbdrx4u.com/,6063933339,cbd3507@gmail.com,2019-09-13,9/13/2019,Yes,C,CBD,,,
Alley Cat Vapors 3,104 Cumberland Ave,,Barbourville,KY,40906,US,,6066272283,,2020-11-17,,Yes,V,CBD,,,
Bo's Smoke Shop,700 Bloomfield Rd #A,,Bardstown,KY,40004,US,http://www.bos-smokeshop.com/,5023484880,,2019-07-27,,,T,,,,
Bourbon City Vapes,610 Bloomfield Rd,,Bardstown,KY,40004,US,,5023488170,bcvapes@yahoo.com,2018-06-14,6/26/2019,Yes,V,CBD,,,
Cannabis Phrog,213 Culpepper St,,Bardstown,KY,40004,US,https://cannabisphrog.com,5023316006,cannabisphrog@gmail.com,2020-11-22,,Yes,C,CBD,,,
Beaver Dam Liquors,1091 N Main St,,Beaver Dam,KY,42320,US,,2702742337,,2020-11-19,,Yes,O,CBD,,,
Bo's Smoke Shop,1395 N Main St,,Beaver Dam,KY,42320,US,http://www.bos-smokeshop.com/,2702740840,,2019-07-27,,,T,,,,
Vapor 55,1856 N Main St,,Beaver Dam,KY,42320,US,http://www.vapor55.com/,2702742500,myvapor55@aol.com,2018-10-10,9/28/2019,Yes,V,CBD,,,
Kentucky Botanical Co.,406 Fairfield Ave,,Bellevue,KY,41073,US,http://www.kybotanicalco.com,8597390240,sales@kybotanicalco.com,2019-12-04,,Yes,C,CBD,,,
Miracle Kratom,56 Donnermeyer Dr,,Bellevue,KY,41073,US,https://buykratompowders.com/,8599168238,info@buykratompowders.com,2021-03-13,,Yes,O,CBD,,,
Benton Vapor Emporium,801 Main St,,Benton,KY,42025,US,,2703870098,kyvaporemporium@gmail.com,2014-09-21,4/6/2019,,V,,,,
Discount Tobacco City & Lottery,325 Main St,,Benton,KY,42025,US,,2705270110,,2019-10-10,,Yes,T,CBD,,,
Sub Ohm Vapor,88A Commerce Blvd,,Benton,KY,42025,US,,2702277520,,2020-04-14,,,V,,,,
MT Vapors,340 Mini Mall Dr,,Berea,KY,40403,US,https://www.mtvapors.org/,8595753392,mtvapors1@gmail.com,2018-08-16,2/12/2020,Yes,V,CBD,,,
S&L Vapors,304 Richmond Rd N Ste 3,,Berea,KY,40403,US,,8599855353,2012slvapors@gmail.com,2018-08-16,2/13/2020,Yes,V,CBD,,,
Tobacco Barn Desert Sun,103 Clay Dr,,Berea,KY,40403,US,,8599867183,,2019-11-05,,,S,,,,
ECig Source,160 River Place Ave,,Bowling Green,KY,42101,US,http://www.ecigsourceonline.com/,2709042291,ecigsource@att.net,2018-08-06,1/13/2020,Yes,V,CBD,,,
eCig Source,760 Campbell Ln Ste 105,,Bowling Green,KY,42101,US,http://ecigsourceonline.com/,2704951608,ecigsource@att.net,2018-10-18,4/27/2019,Yes,V,CBD,,,
Green Earth Stones Metaphysical Shop,"1701 US-31 W Bypass, #B",,Bowling Green,KY,42101,US,https://www.greenearthstones.com/,2704954101,contact@greenearthstones.com,2020-07-03,,Yes,O,CBD,,,
MAXX Electronic Cigarettes - Bowling Green,2740 Scottsville Rd,,Bowling Green,KY,42104,US,http://www.maxxecigs.com/,2707964060,,2019-05-03,,,V,,,,
Prince Hookah Lounge,116 Old Morgantown Rd,,Bowling Green,KY,42101,US,,2707460107,,2019-01-12,,,L,,,,
Remedy Vapor,1440 Campbell Ln Ste 500,,Bowling Green,KY,42101,US,https://remedyvapor.com/,2709969092,remedyvaporbg@gmail.com,2018-08-06,1/1/2020,Yes,V,CBD,,,
Saffire Vapor,2710 Nashville Rd #117,,Bowling Green,KY,42101,US,https://saffirevapor.com/,2707838375,customerservice@saffirevapor.com,2018-08-06,1/1/2020,Yes,V,CBD,,,
Smoke in Glass,2736 Scottsville Rd,,Bowling Green,KY,42104,US,http://bgmrsmokeky.business.site/,2709044679,,2020-02-18,,Yes,S,CBD,Yes,,
Tobacco America,710 Morgantown Rd,,Bowling Green,KY,42101,US,,2708428990,,2019-12-06,,Yes,T,CBD,,,
Vette City Vapes,1239 US-31 W Bypass,,Bowling Green,KY,42101,US,http://www.vettecityvapes.com/,2705990707,sales@vettecityvapes.com,2018-08-06,9/29/2019,Yes,V,CBD,,,
DETS Vape Lounge,301 Bypass Rd Ste C,,Brandenburg,KY,40108,US,,2704225007,vapeon@dets.com,2015-09-10,4/7/2019,,V,,,,
Stogie Annie's,4308 KY-146,,Buckner,KY,40010,US,https://stogie-annies.com/,5022650182,stogieannies@gmail.com,2021-08-12,,Yes,T,CBD,,,
Sissy's Smoke Shop,239 N Main St,,Burkesville,KY,42717,US,,2708641500,,2020-02-16,,Yes,S,CBD,Yes,,
Bo's Smoke Shop,607 E Broadway St,,Campbellsville,KY,42718,US,http://www.bos-smokeshop.com/,2704650630,,2019-07-27,,,T,,,,
Central Kentucky Vapor,400 Campbellsville Bypass Ste 2E,,Campbellsville,KY,42718,US,http://www.centralkentuckyvapor.com/,2704053088,centralkentuckyvapor@yahoo.com,2014-08-28,3/25/2019,,V,,,,
Modfathers Vapor,116 Central Shopping Center,,Campbellsville,KY,42718,US,,2704054295,,2019-01-23,1/11/2020,,V,,,,
White Trash Customs,608 W Main St Ste A,,Campbellsville,KY,42718,US,,2704699035,,2019-06-27,6/27/2019,Yes,C,CBD,,,
Dunn's Discount Tobacco Inc,155 KY-15,,Campton,KY,41301,US,,6066687065,,2019-10-09,,,T,,,,
Blue Wolf Vape Shop,101 5th St,,Carrollton,KY,41008,US,http://www.bluewolfvape.com/,5026620145,bluewolfvape@gmail.com,2016-08-08,3/3/2019,,V,,,,
First & Last Tobacco,300 35th St,,Catlettsburg,KY,41129,US,http://www.discount-cigarettes.org/,6067396134,customerservice@discountcigarettes.com,2019-11-06,7/25/2020,Yes,T,CBD,,,
Quick Tobacco #3,211 35th St,,Catlettsburg,KY,41129,US,http://quicktobacco3.business.site/,6067390305,,2020-01-12,,Yes,T,CBD,,,
Modern Farm Concepts,540 Wilson Childress Rd,,Cave City,KY,42127,US,http://www.modernfarmconcepts.com,2706121749,modernfarmconcepts@gmail.com,2020-05-27,3/12/2021,Yes,O,CBD,,,
Kick Ash Vape 2,129 E Broad St,,Central City,KY,42330,US,,2707572122,,2020-01-28,,,V,,,,
Fast Lane Discount Tobacco,3841 N Mayo Trail,,Coal Run Village,KY,41501,US,,6064370157,,2018-08-06,9/16/2019,Yes,T,CBD,,,
Bluegrass Vape - Cold Spring,4135 Alexandria Pike Ste 208,,Cold Spring,KY,41076,US,http://www.bluegrassvape.com/,8594412500,info@bluegrassvape.com,2014-09-19,3/24/2019,,V,,,,
Club Vape - Cold Spring,50 Martha Layne Collins Blvd,,Cold Spring,KY,41076,US,http://www.clubvapeshop.com/,8595258273,clubvapeshop@gmail.com,2019-04-07,4/7/2019,,V,,,,
Hippie At Heart,511 Main St Ste D,,Corbin,KY,40701,US,https://hippieatheartlondo.wixsite.com/hippieatheartonmain,6062613684,hippie.at.heart.on.main@gmail.com,2018-12-28,12/28/2018,Yes,H,CBD,Yes,,
Jakes Vapes,800 W Cumberland Gap Pkwy,,Corbin,KY,40759,US,https://jakes-vapes.business.site/,6066205177,jacob_buttery@outlook.com,2017-07-22,1/29/2019,Yes,V,CBD,,,
Magic Vapor Shop,727 Cumberland Gap Pkwy Ste B,,Corbin,KY,40701,US,https://www.magicvaporshop.com/,6065281144,websales@magicvaporshop.com,2018-09-30,12/3/2019,Yes,V,CBD,,,
Pipe Dreams For The Sophisticated Smoker,3419 Cumberland Falls Rd,,Corbin,KY,40701,US,,6065158641,the_original_dragonslayer@yahoo.com,2020-12-03,,Yes,H,CBD,Yes,,
Vapor Fox,1403 Cumberland Falls Hwy,,Corbin,KY,40701,US,,6062153052,,2019-08-11,,,V,,,,
Pipe Dreams,716 Main St,,Covington,KY,41011,US,,8599827202,,2019-01-11,1/11/2019,Yes,H,CBD,,,
Save-On-Cigs,670 W 3rd St,,Covington,KY,41011,US,https://save-on-cigs.business.site/,8595819066,,2020-02-15,,,S,,,,
Smokie Joe's Tobacco,3826 Winston Ave,,Covington,KY,41015,US,,8594312506,,2018-11-21,,,S,,,,
The CBD Lounge,802 Scott Blvd #2F,,Covington,KY,41011,US,https://thecbdloungeky.com/,9375804284,ucannab@gmail.com,2020-12-21,,Yes,C,CBD,,,
The Glass Monkey,38 W Pike St,,Covington,KY,41011,US,https://www.theglassmonkeycovington.com/,8593602888,theglassmonkey38@gmail.com,2018-08-06,12/1/2019,Yes,H,CBD,,,
"Your CBD Store - Crescent Springs, KY",2526 Hazelwood Dr,,Crescent Springs,KY,41017,US,https://cbdrx4u.com/,8593310444,crescentspringsky@cbdrx4u.com,2019-09-13,9/13/2019,Yes,C,CBD,,,
Cynthiana Vapor,219 S Walnut St,,Cynthiana,KY,41031,US,,8592983090,,2019-09-02,9/2/2019,Yes,V,CBD,,,
Rocky Ridge Hemp Company,571 KY-36 West,,Cynthiana,KY,41031,US,https://www.rockyridgehempco.com/,8595881289,jason@rockyridgehemp.com,2021-01-22,,Yes,C,CBD,,,
Bo's Smoke Shop,1714 Perryville Rd #500,,Danville,KY,40422,US,http://www.bos-smokeshop.com/,8599360014,,2019-07-27,,,T,,,,
CBD Etc,1322 Hustonville Rd,,Danville,KY,40422,US,https://cbdetc.net/,8593792156,brandy@cbdetc.net,2020-11-24,,Yes,C,CBD,Yes,,
Dream Chaser Tattoo's Vapes and CBD,710 S 4th St,,Danville,KY,40422,US,http://dreamchasertattoo.com/,8593297747,dreamchasertat2@gmail.com,2020-12-25,,Yes,O,CBD,,,
Vapor Vision,1406 Hustonville Rd,,Danville,KY,40422,US,,8592095001,vapovision@att.net,2018-08-16,2/13/2020,Yes,V,CBD,,,
Bluegrass Vape - Dry Ridge,61 Broadway St,,Dry Ridge,KY,41035,US,http://www.bluegrassvape.com/,8599039864,info@bluegrassvape.com,2018-06-14,3/24/2019,Yes,V,CBD,,,
AJ Smoke Shop,534 W Dixie Ave,,Elizabethtown,KY,42701,US,,2707370498,,2019-07-16,5/15/2021,Yes,S,CBD,,,
CBD American Shaman - Elizabethtown,133 Towne Dr,,Elizabethtown,KY,42701,US,https://cbdamericanshaman.com/,2702348995,,2019-11-11,,Yes,C,CBD,,,
Crown Smoke Shop & Cigar Lounge,4507 N Dixie Hwy,,Elizabethtown,KY,42701,US,,2705063275,,2019-09-02,9/3/2019,Yes,S,CBD,,,
Derb E Cigs,2101 N Dixie Hwy Ste 108,,Elizabethtown,KY,42701,US,http://derbecigs.com/,2705063193,sales@derbecigs.com,2018-08-16,8/12/2019,Yes,V,CBD,,,
J C's Smoke Shop,611 W Poplar St,,Elizabethtown,KY,42701,US,,2709000356,,2019-12-18,,Yes,S,CBD,Yes,,
Saffire Vapor,1511 Ring Rd #100,,Elizabethtown,KY,42701,US,https://saffirevapor.com,2709001547,customerservice@saffirevapor.com,2018-08-06,1/1/2020,Yes,V,CBD,,,
Vapor Lab,2030 N Dixie Hwy Ste 100,,Elizabethtown,KY,42701,US,https://myvaporlab.com/,2707690500,sales@premiumejuiceusa.com,2018-09-30,1/8/2020,,V,,,,
Galaxy Vapors,4416 Dixie Hwy,,Erlanger,KY,41018,US,,8599166133,galaxyvapors12@gmail.com,2019-09-12,9/12/2019,Yes,V,CBD,,,
Purely CBD,3176 Dixie Hwy,,Erlanger,KY,41018,US,https://www.purelycbd.net/,8593602898,nky@thepurelycbd.com,2020-11-06,,Yes,C,CBD,,,
Las Vapor,1201 Argillite Rd Ste B,,Flatwoods,KY,41139,US,,6063882838,info@vaporaisor.com,2019-12-31,,Yes,V,CBD,,,
That Vape Shop,2135 Argillite Rd Ste K,,Flatwoods,KY,41139,US,,6068368273,,2016-02-17,1/8/2019,Yes,V,CBD,,,
AVAIL Vapor - Florence,6805 Houston Rd Ste 500,,Florence,KY,41042,US,https://www.availvapor.com/,8595341685,custservice@availvapor.com,2018-08-06,6/18/2019,Yes,V,CBD,,,
Club Vape,8137 Mall Rd,,Florence,KY,41042,US,http://www.clubvapeshop.com/,8595258273,clubvapeshop@gmail.com,2014-09-25,4/7/2019,Yes,V,CBD,,,
Discount Tobacco Mart and Vaping,7960 US-42,,Florence,KY,41042,US,http://discounttobaccomartky.com/,8593717833,discounttobaccomart@fuse.net,2018-08-06,9/16/2019,,S,,,,
Galaxy Vapors,1624 Burlington Pike,,Florence,KY,41042,US,,8598693008,galaxyvapors12@gmail.com,2015-05-02,4/16/2019,Yes,V,CBD,,,
Haven Tobacco Accessories,8864 Bankers St,,Florence,KY,41042,US,,8596472777,,2019-01-13,,Yes,S,CBD,,,
Kentucky Botanical Co.,266 Main Street Suite A,,Florence,KY,41042,US,http://www.kybotanicalco.com,,sales@kybotanicalco.com,2019-12-04,,Yes,C,CBD,,,
Monster Vapors LLC,232 Mt Zion Rd,,Florence,KY,41042,US,,8598690592,popsof71217@gmail.com,2019-12-30,,,V,,,,
"Your CBD Store - Florence, KY",7953 Mall Rd,,Florence,KY,41042,US,https://cbdrx4u.com,8592821251,florence503@cbdrx4u.com,2020-07-22,,Yes,C,CBD,,,
Buzz,90 Alexandria Pike Ste 12,,Fort Thomas,KY,41075,US,,8593601217,,2020-11-21,,Yes,L,CBD,,,
Dripwells Vapors,3487 Valley Plaza Pkwy,,Fort Wright,KY,41017,US,http://www.vapeshopinfortwrightky.com/,8592793779,,2016-06-01,4/7/2019,Yes,V,CBD,,,
Capital Vape,112 Brighton Park Blvd,,Frankfort,KY,40601,US,,5023522733,,2019-07-31,,,V,,,,
Discount Tobacco Depot,863 E Main St,,Frankfort,KY,40601,US,,5023522465,,2019-11-06,,,T,,,,
Discount Tobacco Store,671 E Main St,,Frankfort,KY,40601,US,,5022235116,,2019-10-06,,,T,,,,
Frankfort Electronic Cigarettes,847 Louisville Rd,,Frankfort,KY,40601,US,,5022239939,,2018-08-06,12/22/2019,Yes,V,CBD,,,
Herbal Awakening,101 Woodhill Ln,,Frankfort,KY,40601,US,,5023820883,,2018-08-06,12/3/2018,Yes,S,CBD,,,
Smoker Friendly,956 Louisville Rd,,Frankfort,KY,40601,US,,5022264165,,2020-03-06,,Yes,S,CBD,,,
Smokin D's Vapor & CBD Shop,140 Versailles Rd Ste B,,Frankfort,KY,40601,US,,5026992566,smokindsvapor@icloud.com,2019-03-18,1/5/2021,Yes,V,CBD,,,
Dream Land Tobacco,520 N Main St,,Franklin,KY,42134,US,,2702533300,,2021-01-07,,Yes,S,CBD,Yes,,
Kratom Barrel,6430 Nashville Rd,,Franklin,KY,42134,US,,2702533732,,2018-10-31,,Yes,H,CBD,Yes,,
"Lottoland Lottery, Tobacco & Herbal Kratom Outlet",3765 Nashville Rd,,Franklin,KY,42134,US,https://lottoland.mycloveronline.com/,2705867281,lottolandky@gmail.com,2018-12-03,12/3/2018,Yes,S,CBD,Yes,,
Lucky Lotto,6110 Nashville Rd,,Franklin,KY,42134,US,http://theluckylotto.com/,2705860941,,2019-01-13,,Yes,S,CBD,Yes,,
Vette City Vapes Franklin,418 N Main St,,Franklin,KY,42134,US,,2708132518,,2019-12-09,12/9/2019,Yes,V,CBD,,,
Blowing Vapors - Georgetown,104 Lawson Dr Ste 103,,Georgetown,KY,40324,US,,5026030431,,2014-11-04,3/24/2019,Yes,V,CBD,,,
Kentucky Greenleaf,126 Amerson Way #B,,Georgetown,KY,40324,US,https://www.cbdstoregeorgetown.com/,5026424375,gary@ky-greenleaf.com,2019-10-29,10/29/2019,Yes,C,CBD,,,
Magic Vapor Shop,1002 S Broadway Ste 22,,Georgetown,KY,40324,US,https://www.magicvaporshop.com/,5026030461,contact.us@magicvaporshop.com,2018-08-06,12/29/2019,,V,,,,
D & J Vapors,108 Ensminger Rd,,Glasgow,KY,42141,US,http://dandjvapor.com/,2706292005,dandjvapor@gmail.com,2019-09-02,9/2/2019,,V,,,,
Remedy Vapor,230 S L Rogers Wells Blvd,,Glasgow,KY,42141,US,https://remedyvapor.com/,2705764282,contact@remedyvapor.com,2014-10-08,6/17/2021,Yes,V,CBD,,,
Up In Smoke,105 Columbia Ave,,Glasgow,KY,42141,US,http://www.upinsmokeinc.com/,2706292346,uisincglasgow@gmail.com,2019-10-18,,Yes,S,CBD,Yes,,
Vortex Vaporz,521 Happy Valley Rd,,Glasgow,KY,42141,US,,2706295060,,2015-05-02,1/28/2019,Yes,V,CBD,Yes,,
Smoker Friendly Express Mart,505 E Main St,,Grayson,KY,41143,US,,6064745872,,2021-08-04,,,S,,,,
The Eastern Kentucky Hemp Company,123 E Main St,,Grayson,KY,41143,US,https://www.d8dabs.com/,6065477492,support@ekyhemp.com,2020-12-18,,Yes,C,CBD,,,
TKO Vape Shop,131 S Carol Malone Blvd #V,,Grayson,KY,41143,US,,6063159355,tkovapeshop@gmail.com,2020-12-15,,Yes,V,CBD,,,
Harlan Vapors,421 S Main St,,Harlan,KY,40815,US,,6066215044,harlanvapors@mail.com,2018-08-06,12/24/2019,Yes,V,CBD,,,
Harned Tobacco Shack,2948 US-60,,Harned,KY,40144,US,,2705802101,,2019-12-02,12/2/2019,,T,,,,
Vapor Works,641 Beaumont Plaza,,Harrodsburg,KY,40330,US,,8596056235,,2018-09-25,,,V,,,,
J C's Cigarette Outlet,112 Cross St N,,Hawesville,KY,42348,US,,2709279870,,2019-12-18,12/18/2019,,T,,Yes,,
Mile Marker 5 CBD,9290 KY-69,,Hawesville,KY,42348,US,https://www.milemarker5cbd.com/,9048387276,nefarms@outlook.com,2021-03-13,,Yes,C,CBD,,,
CLM Discount Tobacco,208 Kentucky Blvd #80,,Hazard,KY,41701,US,,6064351940,,2020-07-25,7/25/2020,Yes,S,CBD,Yes,,
Fastlane Discount Tobacco Outlet,373 Main St,,Hazard,KY,41701,US,,6064366883,,2019-11-28,11/28/2019,,T,,,,
Lucky Vapes,2425 N Main St #101,,Hazard,KY,41701,US,https://www.luckyvapesstore.com/,6064394088,,2021-03-18,,Yes,V,CBD,,,
McKenzie's Exotic Gifts,159 Mill Br Rd,,Hazard,KY,41701,US,,6063782265,,2020-01-08,,,O,,,,
Vapor Max,311 Morton Blvd Ste C,,Hazard,KY,41701,US,,6064358273,,2018-08-16,2/13/2020,,V,,,,
Club Vape,2993 N Bend Rd,,Hebron,KY,41048,US,http://www.clubvapeshop.com/,8595258273,clubvapeshop@gmail.com,2018-06-25,4/7/2019,,V,,,,
eCig Source,1030 N Green St,,Henderson,KY,42420,US,http://ecigsourceonline.com/,2708264400,ecigsource.54@gmail.com,2018-10-21,4/27/2019,Yes,V,CBD,,,
Henderson Hemp Company,120 N Elm St,,Henderson,KY,42420,US,http://hendersonhempcompany.com/,2707480005,henderson.hemp.co@gmail.com,2020-02-03,,Yes,C,CBD,,,
Kelly's Tobacco & Food Mart,1036 Washington St,,Henderson,KY,42420,US,,2708274946,,2019-12-24,,,T,,,,
Newts Tobacco Mart,302 US-41,,Henderson,KY,42420,US,,2708278201,newtstobacco@yahoo.com,2020-01-28,,Yes,S,CBD,Yes,,
Nice Guy Vapors,2539 US-41 N Ste C,,Henderson,KY,42420,US,http://niceguyvapors.com/,2708544431,nigeguyvapors@gmail.com,2018-08-06,2/26/2021,Yes,V,CBD,,,
Nice Guy Vapors South,425 S Green St Ste D,,Henderson,KY,42420,US,http://niceguyvapors.com/,2708544310,ncieguyvapors@gmail.com,2018-08-06,12/30/2019,Yes,V,CBD,,,
TNT Vape Shop,513 Barret Blvd,,Henderson,KY,42420,US,,2709038293,,2019-11-07,11/7/2019,,V,,,,
eCig Source,2916 Fort Campbell Blvd Unit D,,Hopkinsville,KY,42240,US,https://ecigsourceonline.com/,2708864210,ecigsource@att.net,2018-10-21,11/11/2018,,V,,,,
Liquor King,2815 Fort Campbell Blvd,,Hopkinsville,KY,42240,US,,2706321081,,2021-03-18,,,T,,,,
Saffire Vapor,4137 Fort Campbell Blvd,,Hopkinsville,KY,42240,US,https://saffirevapor.com/,2708866009,customerservice@saffirevapor.com,2018-08-06,1/1/2020,Yes,V,CBD,,,
The Vapers Lounge,4192 Fort Campbell Blvd,,Hopkinsville,KY,42240,US,https://www.thevapersloungehopkinsville.com/,2708742122,thevapersloungemurray@gmail.com,2022-02-07,2/7/2022,Yes,V,CBD,Yes,,
WildCat Smoke Shop,2707 Fort Campbell Blvd,,Hopkinsville,KY,42240,US,,2706321320,aallen7950@gmail.com,2018-10-28,3/14/2020,Yes,S,CBD,Yes,,
D & J Vapors,115 S Dixie St,,Horse Cave,KY,42749,US,http://dandjvapor.com/,2707861005,dandjvapor@gmail.com,2019-09-02,9/2/2019,,V,,,,
Wanderland,393 Richmond Rd,,Irvine,KY,40336,US,,8593391041,,2018-10-29,10/29/2018,Yes,H,CBD,,,
Smokin Hot Vape,357 KY-15 South,,Jackson,KY,41339,US,,6062729066,herblist2002@yahoo.com,2021-06-27,,Yes,H,CBD,,,
One Love Hemp Dispensary,3223 Ruckriegel Pkwy,,Jeffersontown,KY,40299,US,https://www.onelovehempdispensary.com/,5023652068,onelovehempdispensary@gmail.com,2022-03-07,3/7/2022,Yes,C,CBD,,,
Juice Box La Grange,1000 Cherrywood Dr Ste 400,,La Grange,KY,40031,US,https://jbvapor.com/,5022650005,juiceboxlagrange@gmail.com,2019-12-23,,,V,,,,
Smoker Friendly,311 S 1st St,,La Grange,KY,40031,US,,5022227188,,2020-03-06,3/6/2020,Yes,S,CBD,Yes,,
Bo's Smoke Shop,1073 Corporate Dr,,Lawrenceburg,KY,40342,US,http://www.bos-smokeshop.com/,5028590715,,2019-07-27,,,T,,,,
Cannabis Phrog,142 S Main St,,Lawrenceburg,KY,40342,US,https://cannabisphrog.com/,5025983399,cannabisphrog@gmail.com,2020-11-22,,Yes,C,CBD,,,
JD Vapor,96 Plaza Dr,,Lawrenceburg,KY,40342,US,,5026046055,jacque1172002@yahoo.com,2020-07-24,,Yes,V,CBD,,,
Bo's Smoke Shop,709 E Main St #2,,Lebanon,KY,40033,US,http://www.bos-smokeshop.com/,2706993704,,2019-07-27,,Yes,T,CBD,,,
3 Guys Vape & Tobacco,115 N Locust Hill Dr Ste 117,,Lexington,KY,40509,US,,8593090535,,2022-02-09,2/9/2022,Yes,S,CBD,,,
723 Vapor,1301 Winchester Rd Ste 37,,Lexington,KY,40505,US,https://723vapor.com/,8595540425,,2022-02-10,2/15/2022,,V,,,,
723 Vapor,2909 Richmond Rd Ste 60,,Lexington,KY,40509,US,https://723vapor.com/,8595540425,tonyf@723vapor.com,2014-08-26,2/15/2022,,V,,,,
723 Vapor,2809 N Hurstbourne Pkwy Ste 101,,Lexington,KY,40223,US,https://723vapor.com/,5027853744,info@723vapor.com,2017-10-11,4/27/2019,,V,,,,
723 Vapor,125 E Reynolds Rd Ste 180,,Lexington,KY,40517,US,https://723vapor.com/,8595540425,info@723vapor.com,2018-06-07,6/21/2019,,V,,,,
723 Vapor North,124 Towne Center Dr Ste 116,,Lexington,KY,40511,US,https://723vapor.com/,8595540425,tonyf@723vapor.com,2017-10-11,1/30/2020,,V,,,,
AltSmoke,3090 Helmsdale Pl Ste 230,,Lexington,KY,40509,US,https://altsmoke.com/,8595235913,,2018-08-06,1/11/2020,Yes,V,CBD,,,
AltSmoke,148 W Tiverton Way #150,,Lexington,KY,40503,US,https://altsmoke.com/,8592710336,,2014-08-26,3/12/2019,Yes,V,CBD,,,
Amz Tobacco Zone,873 N Broadway,,Lexington,KY,40508,US,,8593680788,,2019-07-18,,,T,,,,
Avail Vapor - South Farm,4097 Nichols Park Dr Ste 118,,Lexington,KY,40503,US,https://www.availvapor.com/,8599715937,custservice@availvapor.com,2016-05-04,6/18/2019,Yes,V,CBD,,,
Bluegrass Hemp Oil,190 Lexington Green Cir,,Lexington,KY,40503,US,https://www.bluegrasshempoil.com/,8599633550,info@bluegrasshempoil.com,2020-11-21,,Yes,C,CBD,,,
CBD American Shaman - Lexington,3615 Nicholasville Rd Ste F-604,,Lexington,KY,40503,US,https://cbdamericanshaman.com/,8599715350,mikenorris@rtrlexington.com,2019-11-11,,Yes,C,CBD,,,
CBD Time,2309 Woodhill Dr,,Lexington,KY,40509,US,https://www.cbdtime.store/,8593356447,cbdtime.luckymojo@gmail.com,2020-12-02,,Yes,C,CBD,,,
Hemp XR & CBD,1060 Chinoe Rd #140,,Lexington,KY,40502,US,https://hemp-xr.com,8593034017,hempxr@gmail.com,2021-01-27,1/27/2021,Yes,C,CBD,Yes,,
Magic Vapor Shop,3094 Richmond Rd #150,,Lexington,KY,40509,US,https://www.magicvaporshop.com/,8594698916,contact.us@magicvaporshop.com,2018-08-06,12/29/2019,,V,,,,
Precision Vapor,132 Southland Dr #1C,,Lexington,KY,40503,US,http://www.precisionvapor.com/,8595398167,,2018-08-06,12/31/2019,Yes,V,CBD,,,
Prince Smoke Shop,559 S Limestone,,Lexington,KY,40508,US,https://prince-smoke-shop.business.site/,8592859949,,2020-02-05,,Yes,S,CBD,,,
Purple Haze,635 E New Cir Rd,,Lexington,KY,40505,US,http://purplehazecircleroadky.com/,8593898992,purplehazelexington@gmail.com,2018-08-06,11/2/2019,Yes,S,CBD,Yes,,
Purple Haze LEX,1236 Versailles Rd,,Lexington,KY,40508,US,http://purplehazeky.com/,8592251111,purplehazelexington@gmail.com,2018-12-03,,Yes,H,CBD,Yes,,
Smoke n More,3130 Pimlico Pkwy,,Lexington,KY,40517,US,,8592992004,,2020-01-03,,,T,,,,
The Botany Bay,1757 Alexandria Dr,,Lexington,KY,40504,US,https://www.thebotanybay.net,8592254367,info@thebotanybay.net,2019-01-13,12/21/2020,Yes,H,CBD,Yes,,
The Botany Bay,2350 Woodhill Dr Ste 144,,Lexington,KY,40509,US,https://www.thebotanybay.net,8595234350,info@thebotanybay.net,2020-12-21,,Yes,H,CBD,Yes,,
The Head Shed #3,1997 Harrodsburg Rd,,Lexington,KY,40503,US,,8592601369,badashstuff@gmail.com,2019-10-30,10/30/2019,Yes,S,CBD,Yes,,
Wireless N Vapor Citi,393 Waller Ave Ste 3,,Lexington,KY,40504,US,,8593811853,,2019-06-07,,,V,,,,
Alchemist Vape Shop,119 Childers Dr,,London,KY,40741,US,https://www.alchemistvapeshop.com/,6062311793,info@alchemistvapeshop.com,2016-08-16,1/13/2019,Yes,V,CBD,,,
CBD Hemp Dispensary,909 S Laurel Rd Ste 2,,London,KY,40744,US,https://cbdhemp-dispensary.com/,6066278181,cbdhempdispensary@gmail.com,2020-11-25,,Yes,C,CBD,,,
Hometown Hemp,1750 KY-192 W Ste 3,,London,KY,40741,US,https://hometownhemp.com/,6066575392,info@hometownhemp.com,2021-02-07,,Yes,C,CBD,,,
London Smoke Shop,507 Minton Dr,,London,KY,40741,US,,6066572368,,2019-12-30,,,S,,,,
Magic Vapor Shop,595 KY-192,,London,KY,40741,US,https://www.magicvaporshop.com/,6068771234,websales@magicvaporshop.com,2018-09-30,,,V,,,,
Vapor Max London,1789 N Laurel Rd,,London,KY,40741,US,,6068432997,,2019-10-09,,,V,,,,
Smitty's Carryout and Tobacco,4676 KY-2565,,Louisa,KY,41230,US,,6068260287,smittyscarryout@gmx.com,2021-08-03,8/3/2021,Yes,S,CBD,,,
5 Brothers Grocery & Smokeshop,1159 S 4th St,,Louisville,KY,40203,US,,5029198483,,2021-08-10,,,O,,,,
502 Hemp Wellness Center,201 Moser Rd,,Louisville,KY,40223,US,https://502hemp.com,5026547100,info@502hemp.com,2020-11-15,,Yes,C,CBD,,,
A & A Smoker's Outlet,5909 Terry Rd,,Louisville,KY,40216,US,,5024098423,,2020-07-25,,Yes,S,CBD,,,
Ali Baba Liquor & Smoke,1481 S 7th St,,Louisville,KY,40208,US,,5027095365,alibabasmokeshop1@yahoo.com,2019-07-16,,,S,,,,
AltSmoke,10426 Shelbyville Rd,,Louisville,KY,40223,US,https://altsmoke.com/,5022530930,,2014-08-26,3/12/2019,Yes,V,CBD,,,
Bombay International,1591 Bardstown Rd,,Louisville,KY,40205,US,,5024732077,,2020-07-24,,Yes,H,CBD,,,
CBD Hemp Oil,8129 New La Grange Rd #300,,Louisville,KY,40222,US,https://cbdhempoilky.com/,5029158995,info@cbdhempoilky.com,2020-11-25,,Yes,C,CBD,,,
Cloud 9 Smoke Shop,12907 Factory Ln Ste K,,Louisville,KY,40245,US,,5026905394,cloud9smokeshop1@yahoo.com,2020-03-24,,Yes,S,CBD,Yes,,
Cool Breeze Vapor,4120 Outer Loop,,Louisville,KY,40219,US,https://www.coolbreezevapor.com/,5029644484,autorecovery1@yahoo.com,2014-08-28,4/7/2019,Yes,V,CBD,,,
Cool Breeze Vapor,5715 Bardstown Rd,,Louisville,KY,40219,US,https://www.coolbreezevapor.com/,5023846405,coolbreezevapor@gmail.com,2014-08-28,4/7/2019,Yes,V,CBD,,,
Cox's Smoker's Outlet,9200 Westport Rd,,Louisville,KY,40242,US,https://coxslouisville.com/,5023261284,,2018-10-31,,Yes,S,CBD,,,
Cox's Smoker's Outlet,2928 Hikes Ln,,Louisville,KY,40218,US,https://coxslouisville.com/,5024588905,,2018-10-31,,,S,,,,
Cox's Smoker's Outlet Auburndale South,5514 New Cut Rd,,Louisville,KY,40214,US,http://www.coxssmokeoutlet.com/,5023687588,,2019-09-30,9/30/2019,Yes,S,CBD,,,
Cox's Smokers Outlet Downtown,346 E Lee St,,Louisville,KY,40208,US,https://coxslouisville.com/,5026372991,,2019-09-02,9/2/2019,Yes,S,CBD,,,
Cox's Spirit Shoppe and Smoker's Outlet,296 N Hubbards Ln,,Louisville,KY,40207,US,https://coxslouisville.com/,5028975289,,2018-10-31,7/20/2019,Yes,T,CBD,,,
Cox's Spirit Shoppe and Smoker's Outlet,12610 Shelbyville Rd,,Louisville,KY,40243,US,https://coxslouisville.com/,5022531387,,2018-10-31,,Yes,S,CBD,,,
Cox's Spirit Shoppe and Smoker's Outlet,3920 Ruckriegel Pkwy,,Louisville,KY,40299,US,https://coxslouisville.com/,5024099411,,2018-10-31,5/3/2019,,T,,,,
Cox's Spirit Shoppe and Smoker's Outlet PRP,8094 Dixie Hwy,,Louisville,KY,40258,US,https://coxslouisville.com/,5029957161,mfisk@coxssmokers.com,2019-10-01,,Yes,T,CBD,,,
Cox's Spirit Shoppe and Smokers Outlet,8000 Blue Lick Rd,,Louisville,KY,40219,US,http://www.coxssmokeoutlet.com/,5029623938,mfisk@coxssmokers.com,2019-09-03,,Yes,T,CBD,,,
Cox's Spirit Shoppe and Smokers Outlet Fern Creek,4780 Bardstown Rd,,Louisville,KY,40218,US,http://www.coxssmokeoutlet.com/,5026710232,,2019-09-03,,Yes,T,CBD,,,
Coxs Spirit Shoppe and Smoker's Outlet,2803 Patti Ln,,Louisville,KY,40299,US,https://coxslouisville.com/,5024913270,,2018-10-31,5/3/2019,,T,,,,
Derb E Cigs,9909 Taylorsville Rd,,Louisville,KY,40299,US,http://derbecigs.com/,5026904240,sales@derbecigs.com,2018-08-16,10/21/2018,Yes,V,CBD,,,
Derb E Cigs,3519 Poplar Level Rd,,Louisville,KY,40213,US,http://derbecigs.com/,5023653039,sales@derbecigs.com,2018-08-16,10/21/2018,Yes,V,CBD,,,
Derb E Cigs,11517 Shelbyville Rd,,Louisville,KY,40243,US,http://derbecigs.com/,5027493650,sales@derbecigs.com,2018-08-16,10/21/2018,Yes,V,CBD,,,
Derb E Cigs,5702 Outer Loop,,Louisville,KY,40219,US,http://derbecigs.com/,5026907797,sales@derbecigs.com,2018-08-16,10/21/2018,Yes,V,CBD,,,
Discount Smokes,6434 N Preston Hwy Ste 3,,Louisville,KY,40229,US,,5029550425,smokes@twc.com,2019-01-03,,Yes,S,CBD,Yes,,
Electric Ladyland,2325 Bardstown Rd,,Louisville,KY,40205,US,http://electricladylandlouisville.com/,5024584259,,2018-08-06,9/16/2019,Yes,H,CBD,Yes,,
Germantown Smoke & Craft,1036 Goss Ave,,Louisville,KY,40217,US,,5029150801,,2021-08-11,8/11/2021,Yes,S,CBD,,,
Gold Door Hemp And More,4202 Poplar Level Rd,,Louisville,KY,40213,US,https://www.golddoorhemp.com/,5028735639,golddoorhemp@gmail.com,2021-01-13,,Yes,C,CBD,,,
Green Remedy,4104 Bishop Ln,,Louisville,KY,40218,US,http://www.greenremedy.com,5023848375,social@greenremedy.com,2020-07-03,,Yes,C,CBD,,,
Happy Smoker,6306 Bardstown Rd,,Louisville,KY,40291,US,https://www.happysmokerky.com/,5023330804,happysmoker6306@gmail.com,2021-08-11,,Yes,S,CBD,,,
Hemp Wellness Farm,2304 Hurstbourne Village Dr Ste 1000,,Louisville,KY,40299,US,http://www.hempwellnessfarm.com,5024994747,info@hempwellnessfarm.com,2020-07-05,,Yes,C,CBD,,,
Jada Smoke Shop,802 W Kenwood Dr,,Louisville,KY,40214,US,,5023684994,,2019-12-25,,,T,,,,
Jimmy's Smoke Shop,2204 Heather Ln,,Louisville,KY,40218,US,,5024797990,,2019-12-21,,,T,,,,
Juice Box Vapor Company,2612 Chamberlain Lane,,Louisville,KY,40245,US,https://www.juiceboxvape.com/,5023848301,juiceboxvaporcompany@gmail.com,2018-09-30,,,V,,,,
Juicen It Up Vape Shop,10914 Dixie Hwy,,Louisville,KY,40272,US,,5022905994,,2018-08-06,12/26/2019,Yes,V,CBD,,,
Kentucky Gold CBD,8001 Bardstown Rd,,Louisville,KY,40291,US,https://www.kentuckygoldcbd.com/,5028174945,kellyannsalmon@aol.com,2021-02-22,,Yes,C,CBD,,,
Kure CBD & Vape - Dixie,8021 Dixie Hwy Ste 104,,Louisville,KY,40258,US,https://www.kurevapes.com/pages/kure-cbd-and-vape-louisville-ky-dixie,5029352322,social@kuresociety.com,2021-08-12,,Yes,C,CBD,,,
Kure CBD and Vape - Louisville,5615 Bardstown Rd,,Louisville,KY,40291,US,https://www.kurevapes.com/,5022396299,social@kuresociety.com,2021-08-12,,Yes,C,CBD,,,
KY Hemp & Vape Hub,1589 Bardstown Rd,,Louisville,KY,40205,US,,5024732077,kyhempvapehub@gmail.com,2021-08-11,,Yes,C,CBD,,,
Magic Vapes E-Cigs,132 Outer Loop Ste 100,,Louisville,KY,40214,US,http://www.magicvapesonline.com/,5022878917,magicvapesecigs@gmail.com,2018-09-08,3/18/2020,,V,,,,
Natural Mystic,1581 Bardstown Rd,,Louisville,KY,40205,US,http://www.naturalmysticlouisville.biz,5024564533,naturalmystic1581@gmail.com,2019-01-10,,,H,,Yes,,
New Age Gifts,7908 Preston Hwy,,Louisville,KY,40219,US,,5029682934,scottgray0316@yahoo.com,2020-01-27,1/27/2020,Yes,H,CBD,Yes,,
One Love Hemp Dispensary,1908 Bardstown Rd,,Louisville,KY,40299,US,https://www.onelovehempdispensary.com/,8125576550,onelovehempdispensary@gmail.com,2018-11-02,3/7/2022,Yes,C,CBD,,,
Popular Smoke & Vape,3022 S 3rd St,,Louisville,KY,40208,US,http://popular-smoke-vape.business.site/,5022903016,popularsmokeandvape@gmail.com,2020-02-03,,,S,,,,
Puff Puff Pass,1072 Bardstown Rd,,Louisville,KY,40204,US,,5024099208,,2018-08-06,11/1/2019,Yes,S,CBD,Yes,,
Saffire Vapor,6661 Dixie Hwy #2,,Louisville,KY,40258,US,https://saffirevapor.com/,5022906419,customerservice@saffirevapor.com,2018-08-06,1/1/2020,Yes,V,CBD,,,
Shop Today 2 Smoke Shop,1850 S Hurstbourne Pkwy Ste 162,,Louisville,KY,40220,US,http://shoptoday2smokeshop.com/,5024096669,atozgifts@yahoo.com,2019-11-09,11/9/2019,Yes,S,CBD,Yes,,
Shop Today Smoke Shop,3038 Hunsinger Ln,,Louisville,KY,40220,US,http://www.shoptoday1smokeshop.com/,5024516161,,2019-11-09,,Yes,S,CBD,Yes,,
Smokers Dream Smoke Shop,1577 Bardstown Rd,,Louisville,KY,40205,US,,5024545558,,2018-11-25,11/25/2018,Yes,S,CBD,Yes,,
Smokers Heaven,5330 S 3rd St #101,,Louisville,KY,40214,US,,5023759999,,2020-03-12,,,T,,,,
Stop N Go Smokes & Liquor,427 E Warnock St,,Louisville,KY,40217,US,,5026354844,,2021-08-12,,,S,,,,
The 7 Leaf CBD and Hemp Market,104 Cannons Ln,,Louisville,KY,40206,US,https://the7leaf.com/,5023651755,info@the7leaf.com,2020-12-22,,Yes,C,CBD,,,
Third Smoking Shop,3945 S 3rd St,,Louisville,KY,40214,US,,5023840709,,2019-11-04,,Yes,S,CBD,Yes,,
Total CBD Shop,2425 Bardstown Rd,,Louisville,KY,40205,US,https://totalcbdshop.com,5024098677,info@totalcbdshop.com,2020-12-09,,Yes,C,CBD,,,
Trippy's Smoke Shop,8209 Shelbyville Rd,,Louisville,KY,40243,US,,5027494032,trippysshelpyville@gmail.com,2019-11-18,8/11/2021,Yes,S,CBD,Yes,,
Up-N-Smoke,3337 Newburg Rd,,Louisville,KY,40218,US,https://upnsmokeonline.com/,5024581575,support@upnsmokeonline.com,2018-08-06,12/11/2019,Yes,S,CBD,Yes,,
Up-N-Smoke,10021 Dixie Hwy,,Louisville,KY,40272,US,https://upnsmokeonline.com/,5029336003,support@upnsmokeonline.com,2018-11-23,,Yes,S,CBD,Yes,,
Valley Liquors Express and Smoke,5427 Valley Station Rd,,Louisville,KY,40272,US,,5027135243,,2021-08-12,,,O,,,,
Vapor Lab,6712 Outer Loop,,Louisville,KY,40228,US,https://myvaporlab.com/,5029684999,,2018-08-06,1/8/2020,,V,,,,
Vapor Lab,2727 S Hurstbourne Pkwy,,Louisville,KY,40220,US,https://myvaporlab.com/,5026547731,,2018-08-06,1/8/2020,,V,,,,
Vapor Lab,3119 S 2nd St Ste 200,,Louisville,KY,40208,US,https://myvaporlab.com/,5023843992,,2018-08-06,1/8/2020,,V,,,,
Vapor Lab,608 Lyndon Ln,,Louisville,KY,40222,US,https://myvaporlab.com/,5026322010,,2020-01-08,1/8/2020,Yes,V,CBD,,,
VIP Smoke Shop & Gifts,519 S 3rd St,,Louisville,KY,40202,US,,5022902602,vipsmokeshop007@gmail.com,2019-09-23,,,S,,,,
Zara Smokeshop,1143 Bardstown Rd,,Louisville,KY,40204,US,,5023653635,,2019-08-20,,,S,,,,
Kentucky Botanical Co.,311 Elm St,,Ludlow,KY,41016,US,http://www.kybotanicalco.com,8597391117,sales@kybotanicalco.com,2019-12-04,,Yes,C,CBD,,,
eCig Source,50 Pritchett Ave,,Madisonville,KY,42431,US,https://ecigsourceonline.com/,2708218162,,2019-10-23,,,V,,,,
K T's Smoke Shop,1450 Chelsa Dr,,Madisonville,KY,42431,US,,2708241042,,2019-12-23,,,T,,,,
The Eastern Kentucky Hemp Company,614 E Arch St Ste C,,Madisonville,KY,42431,US,https://www.d8dabs.com/,2704522005,support@ekyhemp.com,2021-11-27,11/27/2021,Yes,C,CBD,,,
West Center Discount Tobacco,225 W Center St,,Madisonville,KY,42431,US,,2708210061,,2019-09-22,,,T,,,,
Marion Discount Tobacco,115 Sturgis Rd,,Marion,KY,42064,US,,2709650055,,2020-01-07,,,S,,,,
The Boondock Vape Shop,1408 Cuba Rd,,Mayfield,KY,42066,US,https://theboondockvapeshop.com/,2707270921,,2020-12-21,,Yes,V,CBD,,,
Acela CBD,1125 Progress Way,,Maysville,KY,41056,US,https://acelacbd.com/,6067590411,info@acelabiomed.com,2020-11-16,11/16/2020,Yes,C,CBD,,,
Pit Stop Tobacco,1231 US-68,,Maysville,KY,41056,US,,6065647585,,2020-01-12,,,T,,,,
Vapor Rizing,1122 US-68,,Maysville,KY,41056,US,,6065648273,vaporrizing2015@gmail.com,2018-09-30,10/7/2019,Yes,V,CBD,,,
Discount Tobacco & More,1505 US-25E,,Middlesboro,KY,40965,US,https://discount-tobacco-more.business.site/,6062486396,,2019-11-05,,Yes,T,CBD,Yes,,
Magic City Vapor,210 W Lothberry Ave,,Middlesboro,KY,40965,US,,6062429908,magiccityvapor@gmail.com,2019-05-02,,Yes,V,CBD,,,
Vapor Fox,1475 US-25E Ste 1,,Middlesboro,KY,40965,US,https://vapor-fox.business.site/,6062488360,,2019-06-01,6/1/2019,Yes,V,CBD,,,
Total CBD Shop,11414 Shelbyville Rd,,Middletown,KY,40243,US,https://totalcbdshop.com/,5025370192,info@outfit.com,2020-12-09,,Yes,C,CBD,,,
Bluegrass Hemp Oil - Midway,230 N Gratz St,,Midway,KY,40347,US,https://www.bluegrasshempoil.com/,8599633550,info@bluegrasshempoil.com,2020-11-21,,Yes,C,CBD,,,
Vapor Pit,187 Cumberland Crossing,,Monticello,KY,42633,US,http://www.vaporpitky.com/,6063964893,vaporpit@yahoo.com,2019-10-07,,,V,,,,
B Street Vapor Morehead,312 Pinecrest Dr,,Morehead,KY,40351,US,,6064623882,,2019-07-21,7/21/2019,Yes,V,CBD,,,
Smoker Friendly Express Mart,702 E Main St,,Morehead,KY,40351,US,,6067800103,,2020-07-05,,Yes,T,CBD,,,
Vapor Evolutions,237 Flemingsburg Road,,Morehead,KY,40351,US,,6067804256,,2018-08-06,1/7/2020,Yes,V,CBD,,,
K T's Smoke Shop,211 N Morgan St,,Morganfield,KY,42437,US,,2703893825,,2019-12-23,4/23/2021,Yes,S,CBD,Yes,,
Bo's Smoke Shop,220 W G L Smith St,,Morgantown,KY,42261,US,http://www.bos-smokeshop.com/,2705262744,,2019-07-27,7/27/2019,,T,,,,
B Street Vapor Mount Sterling,211 Young Ln,,Mount Sterling,KY,40353,US,,8595203747,b.streetvapor@gmail.com,2018-09-29,,,V,,,,
Cox's Spirit Shoppe and Smoker's Outlet,316 N Bardstown Rd,,Mt Washington,KY,40047,US,http://coxslouisville.com,5025387435,coxs010@gmail.com,2020-06-26,,Yes,T,CBD,,,
Discount Tobacco Center,1324 Main St,,Munfordville,KY,42765,US,,2705241452,,2019-10-10,,Yes,T,CBD,,,
Terrapin Station,920 S 12 St,,Murray,KY,42071,US,,2707538926,,2018-11-14,,,H,,,,
The Vapers Lounge,1550 Lowes Dr Ste C,,Murray,KY,42071,US,http://thevapersloungemurray.com/,2707613254,vaperslounge@yahoo.com,2019-11-01,,Yes,V,CBD,,,
Elevated Vaporz,738 Monmouth St,,Newport,KY,41071,US,https://www.elevatedvaporznewport.com/,8593607287,,2019-04-11,,,V,,,,
King Vapors Shop & Lounge,1707 Monmouth St,,Newport,KY,41071,US,http://king-vapors-shop-and-lounge.business.site/,8593603615,,2019-12-26,,Yes,V,CBD,,,
Scarlet Vape and Smoke Shop,937 Monmouth St,,Newport,KY,41071,US,http://www.scarletsmokeshop.com/,8594150709,newport@scarletsmokeshop.com,2020-01-03,,Yes,S,CBD,Yes,,
Dwell CBD,173 E Brannon Rd,,Nicholasville,KY,40356,US,https://dwellcbd.com/,8595545011,support@dwellcbd.com,2020-12-25,,Yes,C,CBD,,,
Jessamine Wake And Vape,904 1/2 S Main St,,Nicholasville,KY,40356,US,,8593546007,,2018-01-19,1/21/2019,Yes,V,CBD,,,
KY CBD Farmacy,1800 Danville Loop 1 Rd,,Nicholasville,KY,40356,US,https://kycbdfarmacy.com/,8593297038,kycbdfarmacy@gmail.com,2021-03-01,,Yes,C,CBD,,,
Magic Vapor Shop,340 E Brannon Rd,,Nicholasville,KY,40356,US,https://www.magicvaporshop.com/,8596879549,websales@magicvaporshop.com,2018-09-30,1/6/2020,Yes,V,CBD,,,
Vapor Vision Of Nicholasville,1020 N Main St,,Nicholasville,KY,40356,US,,8592413213,,2019-10-03,,Yes,V,CBD,,,
Smoke Dreams,204 Segler Dr,,Oak Grove,KY,42262,US,,2706975089,,2020-07-24,,Yes,S,CBD,Yes,,
Smoke Paradise,15708 Fort Campbell Blvd,,Oak Grove,KY,42262,US,,2706975030,,2021-01-06,,Yes,S,CBD,,,
Toybox Videos & Stuff,15960 Fort Campbell Blvd,,Oak Grove,KY,42262,US,,2704391249,,2019-01-14,,Yes,S,CBD,Yes,,
Bluegrass Cannaceuticals LLC,1567 Old Preston Hwy N,,Okolona,KY,40229,US,https://www.bluegrasscannaceuticals.com/,5022771079,bluegrasscannaceuticals@yahoo.com,2020-11-21,11/21/2020,Yes,C,CBD,,,
Bo's Smoke Shop,5971 US-60,,Owensboro,KY,42303,US,http://www.bos-smokeshop.com/,2706846588,,2019-07-27,,,T,,,,
eCig Source,2601 W Parrish Ave,,Owensboro,KY,42301,US,http://www.ecigsourceonline.com/,2707130291,,2018-08-06,1/13/2020,Yes,V,CBD,,,
eCig Source,3120 KY-54,,Owensboro,KY,42303,US,http://ecigsourceonline.com/,2706919922,ecigsource.54@gmail.com,2018-10-21,4/27/2019,Yes,V,CBD,,,
eCig Source,426 Salem Drive #100,,Owensboro,KY,42303,US,http://www.ecigsourceonline.com/,2706910053,ecigsource@att.net,2018-10-18,4/27/2019,Yes,V,CBD,,,
Horizon CBD,3830 KY-54 #101,,Owensboro,KY,42303,US,https://www.horizoncbd.com/,2704784102,sales@horizoncbd.com,2021-02-07,,Yes,C,CBD,,,
Smokers Heaven,3600 Frederica St,,Owensboro,KY,42301,US,,2706836622,,2020-03-12,,Yes,S,CBD,Yes,,
This-N-That,1323 Bosley Rd Ste D,,Owensboro,KY,42301,US,https://tntvapejuice.com/,2704785005,thisandthatofowensboro@gmail.com,2019-05-22,,Yes,V,CBD,,,
Tobacco Road,1366 Carter Rd,,Owensboro,KY,42301,US,,2706880417,,2020-06-16,,,T,,,,
Vapor 55,3811 KY-54 #101,,Owensboro,KY,42303,US,https://www.vapor55.com/,2702318144,sales@vapor55.com,2018-08-06,9/28/2019,Yes,V,CBD,,,
Vapor 55,1650 Starlite Dr Ste G,,Owensboro,KY,42301,US,https://www.vapor55.com/,2706846770,myvapor55@aol.com,2018-09-30,11/13/2018,,V,,,,
Vapurz,3601 Frederica St,,Owensboro,KY,42301,US,https://www.owensborovapors.com/,2709267666,vapurzz@gmail.com,2019-09-29,9/29/2019,Yes,V,CBD,,,
Chuckin Clouds Vape Shop,1001 Mayfield Paducah Rd,,Paducah,KY,42003,US,,2705577325,,2018-08-06,1/12/2020,Yes,V,CBD,Yes,,
Cigarettes For Less,5408 Cairo Rd,,Paducah,KY,42001,US,,2704422703,,2019-09-20,9/20/2019,,T,,,,
Cloud 9 Paducah,3709 Clarks River Rd Ste C,,Paducah,KY,42003,US,https://cloud9paducahllc.com/,2702012777,dclinton@cloud9paducah.com,2020-12-02,12/2/2020,Yes,S,CBD,,,
Feelin Groovy,2627 H C Mathis Dr,,Paducah,KY,42001,US,http://www.feelingroovyky.com/,2709331874,danepuff@gmail.com,2019-11-29,11/29/2019,Yes,H,CBD,Yes,,
Feelin Groovy Southside,3049 Irvin Cobb Dr,,Paducah,KY,42003,US,http://www.feelingroovy2ky.com/,2704155892,danepuff@gmail.com,2019-11-29,,Yes,H,CBD,Yes,,
Kentucky Tobacco Outlet,3821 Hinkleville Rd,,Paducah,KY,42001,US,,2705755462,kentuckytobacco@yahoo.com,2019-12-25,,Yes,T,CBD,,,
Vision Vapors,4793 Village Square Dr Ste 190,,Paducah,KY,42001,US,,2707093301,,2022-01-18,1/18/2022,Yes,V,CBD,,,
606 Hemp,216 Main St,,Paintsville,KY,41240,US,https://606hemp.net/,6063721111,hemp606@yahoo.com,2020-11-15,,Yes,C,CBD,,,
Fast Lane Discount Tobacco,501 N Mayo Trl #B,,Paintsville,KY,41240,US,,6067880100,,2019-11-03,11/3/2019,,T,,,,
"Mountain Vapors - Paintsville, Ky",869 US-23,,Paintsville,KY,41240,US,http://www.mountainvapors.org/,6062978273,mvapors@outlook.com,2018-08-06,12/30/2019,Yes,V,CBD,,,
Blowing Vapors Paris,1828 S Main St,,Paris,KY,40361,US,,8593404212,,2018-08-06,1/11/2020,Yes,V,CBD,,,
F & J Unique Gifts,7053 Zebulon Hwy,,Pikeville,KY,41501,US,,6066315900,,2020-07-25,,,H,,,,
Hemp Oil Solutions,4840 Zebulon Hwy,,Pikeville,KY,41501,US,,6066372261,customerservice@hempoilsolutions.org,2021-01-27,,Yes,C,CBD,,,
Hideaway Novelties Smoke & Vape Store #2,5750 N Mayo Trail,,Pikeville,KY,41501,US,https://www.hideawaynovelties.com/,8598068030,,2021-02-01,,Yes,S,CBD,,,
Hideaway Novelties Smoke And Vape,8030 US-23 S Unit B,,Pikeville,KY,41501,US,https://www.hideawaynovelties.com/,6062051810,hideawaynovelties@gmail.com,2020-07-25,2/1/2021,Yes,S,CBD,,,
"Mountain Vapors - Pikeville, Ky",233 Cassidy Blvd #3,,Pikeville,KY,41501,US,http://www.mountainvapors.org/,6067668273,mvapors@outlook.com,2018-08-06,12/30/2019,Yes,V,CBD,,,
The Anxious Hippy,107 N Walnut St Ste 500,,Pineville,KY,40977,US,https://theanxioushippy.com/,6063378922,theanxioushippy@gmail.com,2020-12-22,,Yes,C,CBD,,,
Bluegrass Vapor Company,726 US-23 S Bldg 2 Ste 1,,Prestonsburg,KY,41653,US,http://www.subtanksupply.com/,6068748000,bluegrassvapor@gmail.com,2017-12-05,1/30/2020,Yes,V,CBD,,,
Brown Bag Remedies,274 W Court St,,Prestonsburg,KY,41653,US,https://brown-bag-remedies.business.site/,6063674171,brownbagremediesllc@gmail.com,2020-06-22,,Yes,C,CBD,,,
Grey Area CBD,101 Village Dr,,Prestonsburg,KY,41653,US,,6062634078,greyarea606@outlook.com,2021-01-18,,Yes,C,CBD,,,
Kickin' Ash,128 N Lake Dr,,Prestonsburg,KY,41653,US,,6062634582,kickinashinky@gmail.com,2018-08-06,12/27/2019,Yes,V,CBD,,,
Princeton Smoke Shop,217 N Harrison St,,Princeton,KY,42445,US,,2709639064,,2020-02-05,,,S,,,,
CBD Pure Hemp Oil,9535 US-42,,Prospect,KY,40059,US,https://cbdpurehempoilky.com/,5026181222,contact@cbdpurehempoilky.com,2020-11-29,,Yes,C,CBD,,,
Bluegrass Vapor Vault,1960 N Dixie Blvd Ste 101,,Radcliff,KY,40160,US,http://www.bluegrassvaporvault.com/,2708724121,rdean9181@gmail.com,2016-08-24,3/24/2019,Yes,V,CBD,,,
Eagle Smoke Shop,528 B N Dixie Blvd #B,,Radcliff,KY,40160,US,,2707489661,eaglesmokeshop2020@gmail.com,2022-04-19,4/19/2022,Yes,S,CBD,Yes,,
Jades of Green,849 N Dixie Blvd,,Radcliff,KY,40160,US,https://jadesofgreen.info/,5023846677,jadesofgreen5160@yahoo.com,2022-02-07,2/7/2022,Yes,C,CBD,,,
R & B Smoke Shop,317 Elm Rd,,Radcliff,KY,40160,US,,2704016903,,2019-12-03,8/27/2020,,S,,,,
Abundant Hope Naturals,972 Commercial Dr,,Richmond,KY,40475,US,https://www.abundanthope.com/,8593536767,info@abundanthope.com,2020-11-16,,Yes,C,CBD,,,
Big Hill Smokes,635 Big Hill Ave,,Richmond,KY,40475,US,,8596268585,,2019-07-24,,,T,,,,
Lextown Vapor,100 Bayview Dr,,Richmond,KY,40475,US,,8594087108,,2018-08-06,12/28/2019,Yes,V,CBD,,,
Rich City Vapors,620 Big Hill Ave Ste 1,,Richmond,KY,40475,US,,8596237420,info@richcityvapors.com,2018-08-06,1/1/2020,,V,,,,
The Botany Bay,980 Commercial Dr,,Richmond,KY,40475,US,https://www.thebotanybay.net,8596234367,info@thebotanybay.net,2019-01-13,,Yes,H,CBD,Yes,,
Vapor Stix,114 Big Hill Ave,,Richmond,KY,40475,US,http://www.vaporstix.net/,8596237553,vaporstix.net@gmail.com,2018-08-06,1/8/2020,Yes,V,CBD,,,
"Cloud Maker Vapor, LLC",2461 US-127 #3,,Russell Springs,KY,42642,US,,2708667990,,2018-06-25,7/5/2019,Yes,V,CBD,,,
Twisted Vapors,581 E 4th St,,Russellville,KY,42276,US,,2707721539,,2015-12-13,1/6/2019,Yes,V,CBD,,,
Fast Lane Discount Tobacco,683 Mountain Pkwy,,Salyersville,KY,41465,US,,6063498017,,2018-08-06,9/16/2019,,T,,,,
The Mystic Travelers Emporium,1224 Old Gallatin Rd Unit B,,Scottsville,KY,42164,US,https://themystictravelersemporium.com/,2702398273,allencountyvapes@gmail.com,2022-03-17,3/17/2022,Yes,S,CBD,Yes,,
Cox's Smoker's Outlet,1980 Midland Trl,,Shelbyville,KY,40065,US,https://coxslouisville.com/,5026337001,,2018-10-31,,Yes,S,CBD,,,
Cox's Spirit Shoppe and Smoker's Outlet - Shelbyville,45 Breighton Blvd,,Shelbyville,KY,40065,US,https://coxslouisville.com/,5028442206,,2018-10-31,9/2/2019,,S,,,,
Fast Lane Discount Tobacco,225 Boone Station Rd,,Shelbyville,KY,40065,US,,5026471925,,2018-08-06,9/16/2019,,T,,,,
Venture Vapors,622 Frankfort Rd,,Shelbyville,KY,40065,US,,5025135111,venturevapors@gmail.com,2019-06-05,,,V,,,,
Up-N-Smoke,100 Lawrence Lane Ste 101,,Shepherdsville,KY,40165,US,https://upnsmokeonline.com/,5029212969,support@upnsmokeonline.com,2018-11-24,11/24/2018,Yes,S,CBD,Yes,,
Vapor Lab,187 Adam Shepherd Pkwy Ste 12,,Shepherdsville,KY,40165,US,https://myvaporlab.com/,5025310233,,2020-01-08,1/8/2020,,V,,,,
Derb E Cigs,4638 Dixie Hwy,,Shively,KY,40216,US,http://derbecigs.com/,5027082781,sales@derbecigs.com,2018-08-16,10/21/2018,Yes,V,CBD,,,
Magic Vapor Shop,2835 N Old US-27 Ste 196,,Somerset,KY,42501,US,https://www.magicvaporshop.com/,6066776789,contact.mvs@magicvaporshop.com,2018-09-30,12/11/2021,Yes,V,CBD,,,
Pro Vapor,55 Slate Branch Rd Ste 2,,Somerset,KY,42503,US,http://provaporky.com/,6064165360,,2020-02-05,,Yes,V,CBD,,,
Smoky's Pipe Dreams,6320 US-27 Bldg A,,Somerset,KY,42503,US,https://www.smokeyspipedreams.com/,6065615555,smokeyspipedreamsky@gmail.com,2019-01-06,2/3/2020,Yes,H,CBD,Yes,,
Somerset Discount Tobacco,2070 S US-27 #A,,Somerset,KY,42501,US,https://somerset-discount-tobacco.business.site/,6066780662,,2020-03-27,,Yes,S,CBD,,,
Vapor Pit,370 S US-27 Ste 15,,Somerset,KY,42501,US,http://www.vaporpitky.com/,6064510024,vaporpit@yahoo.com,2014-08-27,3/21/2019,Yes,V,CBD,,,
Smiley Smokes,7813 Beulah Church Rd Unit 107,,Spring Mill,KY,40228,US,https://smileysmokesky.com/,5022907662,smileysmokes7813@gmail.com,2021-08-12,8/12/2021,Yes,S,CBD,,,
Smoke Signal,5520 Fern Valley Rd,,Spring Mill,KY,40228,US,https://smokesignalky.com/,5023651124,smokesignal5520@gmail.com,2021-08-12,,Yes,S,CBD,Yes,,
Behind Closed Doors,17 N Troy Ave,,Stanford,KY,40484,US,,,little_blueeyes82@yahoo.com,2018-12-17,7/22/2019,Yes,H,CBD,Yes,,
Vivid Vapor Shop,436 N Main St,,Stanton,KY,40380,US,,6066125226,,2019-09-28,,,V,,,,
Club Vape - Taylor Mill,5066 Old Taylor Mill Rd,,Taylor Mill,KY,41015,US,http://www.clubvapeshop.com/,8595258273,clubvapeshop@gmail.com,2018-06-25,7/5/2019,,V,,,,
Cox's Smoker's Outlet,117 Settlers Center Rd,,Taylorsville,KY,40071,US,https://coxslouisville.com/,5024772168,,2018-10-31,,Yes,S,CBD,,,
Capital Vape,91 Crossfield Dr,,Versailles,KY,40383,US,https://mrsalt-e.com/,8592144590,brian@chrystaldistribution.com,2019-07-31,7/31/2019,,V,,,,
Smokin D's Vapor & CBD Shop,161 Yellow Jacket Dr Ste 7,,Versailles,KY,40383,US,,8592144290,smokindsvapor@icloud.com,2020-03-21,3/21/2020,Yes,V,CBD,,,
Stop & Go Discount Tobacco,437 Lexington Rd,,Versailles,KY,40383,US,http://stop-go-discount-tobacco-tobacco-shop.business.site/,8598730458,stopandgotobacco@yahoo.com,2019-11-27,,Yes,S,CBD,,,
Warfield Tobacco,249 Riverfront Rd,,Warfield,KY,41267,US,,6063950103,,2020-07-25,,Yes,T,CBD,,,
Tasty Vapes Vape Shop,35 Wheeler St,,West Liberty,KY,41472,US,,6062020462,,2018-08-06,9/29/2019,Yes,V,CBD,,,
Vapor Drive,102 Whitesburg Plaza Rd,,Whitesburg,KY,41858,US,,6065365060,,2019-10-13,,Yes,V,CBD,,,
Smoky's Pipe Dreams,425 US-27,,Whitley City,KY,42653,US,,6008753002,swgcorp@yahoo.com,2019-01-06,,Yes,H,CBD,Yes,,
Vapor Max,125 Walmart Way Ste 4,,Williamsburg,KY,40769,US,,6065498273,,2015-01-19,12/25/2018,Yes,V,CBD,,,
Bluegrass Discount Tobacco,1218 N Main St Ste C,,Williamstown,KY,41097,US,https://www.bluegrasstobacco.com/,8598240969,customerservice@bluegrasstobacco.com,2022-02-03,2/3/2022,Yes,T,CBD,,,
Kentucky Botanical Co.,137 N Main St,,Williamstown,KY,41097,US,http://www.kybotanicalco.com,8598239223,sales@kybotanicalco.com,2019-12-04,,Yes,C,CBD,,,
Astro Vape,740 Bypass Rd Ste 7,,Winchester,KY,40391,US,http://www.astrovapeky.com/,8596445021,,2014-09-19,3/12/2019,Yes,V,CBD,,,
Discount Tobacco,124 Shoppers Village Dr,,Winchester,KY,40391,US,,8597370704,,2019-09-17,,,T,,,,
Magic Vapor Shop,1926 Bypass Rd,,Winchester,KY,40391,US,https://www.magicvaporshop.com/,8593854054,contact.us@magicvaporshop.com,2018-08-06,12/29/2019,Yes,V,CBD,,,
North Main Discount Tobacco,409 N Main St,,Winchester,KY,40391,US,,8597456925,,2020-01-29,,,T,,,,