Shop Name,Address 1,Address 2,City,State/Province,Zip/Postcode,Country,Website,Phone,Email,Added,Updated,CBD,Biz Type,MJ,Kratom,Buyer name,Title
Smokers Host Discount Tobacco,1405 N Park Ave,,Alexandria,IN,46001,US,http://www.kocolene.com/,7657247949,,2020-03-12,,Yes,T,CBD,,,
Chief's Discount Tobacco,2625 Columbus Ave,,Anderson,IN,46016,US,,,,2019-08-05,,Yes,S,CBD,,,
Discount Tobacco,3814 Columbus Ave,,Anderson,IN,46013,US,,7656499390,,2019-10-04,,,T,,,,
Get Right Smoke Shop,524 S Scatterfield Rd,,Anderson,IN,46012,US,https://getrightanderson.com,7659993234,getrightsmokeshopllc@gmail.com,2022-03-29,3/29/2022,Yes,S,CBD,,,
Hoosier Vapes,1417 E 53rd St,,Anderson,IN,46013,US,https://www.hoosiervapes.com/,7652745044,,2014-08-29,1/28/2019,Yes,V,CBD,,,
Low Bob's Discount Tobacco,1035 S Scatterfield Rd # 4,,Anderson,IN,46016,US,http://www.lowbob.com,7653564524,marketing@lowbob.com,2018-08-06,11/12/2018,Yes,S,CBD,,,
Low Bob's Discount Tobacco,1305 E 53rd St,,Anderson,IN,46013,US,http://www.lowbob.com,7656421503,marketing@lowbob.com,2018-08-06,10/16/2019,Yes,S,CBD,,,
Still Chillin,2121 Ohio Ave,,Anderson,IN,46016,US,https://still-chillin.business.site/,7656067468,,2018-11-18,,Yes,H,CBD,,,
Stone Age Smokeshop,2213 S Scatterfield Rd Ste 2,,Anderson,IN,46016,US,,7653564197,stoneagesmokeshop@gmail.com,2018-11-04,,Yes,H,CBD,,,
Tobacco Central,923 W Cross St,,Anderson,IN,46011,US,,7656839706,,2018-08-06,6/11/2019,Yes,T,CBD,,,
Vapor Madness,4742 S Scatterfield Rd,,Anderson,IN,46013,US,https://vapormadness.cloud/,7656448273,vapormadnessindy@gmail.com,2018-08-06,1/8/2020,Yes,V,CBD,,,
Vintage Vapors,2407 Broadway St,,Anderson,IN,46012,US,,7653564865,,2022-03-25,3/25/2022,,V,,,,
Angola Tobacco Shop,2998 N Wayne St,,Angola,IN,46703,US,,2606659142,,2018-06-04,10/13/2018,,T,,,,
Low Bob's Discount Tobacco,1801 N Wayne St Ste 108,,Angola,IN,46703,US,http://www.lowbob.com,2606651778,marketing@lowbob.com,2018-08-06,10/16/2019,Yes,S,CBD,,,
Vape & Smoke Angola,1400 N Wayne St,,Angola,IN,46703,US,https://www.vapensmoke.com/,2603194042,vapensmokemedia@gmail.com,2018-08-06,4/15/2020,Yes,S,CBD,,,
Attica Vapors,101 N Perry St,,Attica,IN,47918,US,,7655857161,,2017-04-27,1/17/2019,,V,,,,
Cravin Vapes Auburn,630 N Grandstaff Dr,,Auburn,IN,46706,US,http://www.cravinvapes.com,2606388273,auburn@cravinvapes.com,2018-06-25,7/5/2019,Yes,V,CBD,,,
Low Bob's Discount Tobacco,1003 W 7th St #B,,Auburn,IN,46706,US,http://www.lowbob.com,2609278804,marketing@lowbob.com,2018-08-06,10/16/2019,Yes,S,CBD,,,
Hippie Bobs,325 2nd St,,Aurora,IN,47001,US,,8126550712,,2018-12-08,,Yes,H,CBD,,,
Smoker Friendly,378 W Main St,,Austin,IN,47102,US,,8127944560,,2020-03-06,,Yes,S,CBD,,,
Hoosier Vapor,1092 N Avon Ave,,Avon,IN,46123,US,http://hoosiervapor.com/,3177425061,hoosiervapor@live.com,2016-07-21,12/9/2019,Yes,V,CBD,,,
Humanity Health CBD,10242 E US-36,,Avon,IN,46123,US,https://humanityhealthcbd.com/,3176724364,humanityhealthcbd@gmail.com,2020-06-05,6/5/2020,Yes,C,CBD,,,
MAXX Electronic Cigarettes,5201 US-36 Ste 305,,Avon,IN,46123,US,http://www.maxxecigs.com/,3172726299,maxxavon@gmail.com,2020-01-06,,Yes,V,CBD,,,
Sir Vapes-A-Lot,10232 E US-36,,Avon,IN,46123,US,http://www.sirvapesalotindy.com/,3173841932,sirvapesalot1@gmail.com,2018-08-06,1/1/2020,,V,,,,
Xpress Tobacco Outlet,9655 US-36 Ste G,,Avon,IN,46123,US,,3176025737,xpress.tobacco@gmail.com,2022-02-25,2/25/2022,Yes,S,CBD,,,
Studio Vapes,200 Cross County Pkwy,,Batesville,IN,47006,US,https://www.studiovapes.com/,8129339941,studiovapes@gmail.com,2018-08-09,2/2/2020,,V,,,,
Hope's Organics,3293 16th St,,Bedford,IN,47421,US,https://www.hopesorganics.com/,8124130313,info@hopesorganics.com,2021-02-07,8/17/2021,Yes,C,CBD,,,
"Smoke Shack, Inc.",1424 L St,,Bedford,IN,47421,US,http://www.smokeshackinc.com/,8122752730,smokeshackinc@gmail.com,2018-08-06,11/16/2019,Yes,T,CBD,,,
Smoker Friendly,2613 16th St,,Bedford,IN,47421,US,,8122779281,,2020-03-06,3/6/2020,Yes,T,CBD,,,
Xxel Vapes,1133 16th St,,Bedford,IN,47421,US,,8127970070,xxelvape@gmail.com,2022-02-02,2/2/2022,Yes,V,CBD,,,
Vapor This!,418 Main St,,Beech Grove,IN,46107,US,,3179852897,vaporthisecigs@yahoo.com,2018-08-06,1/8/2020,Yes,V,CBD,,,
420 Bloomington,208 S Dunn St,,Bloomington,IN,47408,US,http://420bloomington.com/,8123339420,,2018-08-06,7/31/2019,Yes,H,CBD,,,
420 Bloomington,4019 W 3rd St,,Bloomington,IN,47403,US,http://420bloomington.com/,8123238273,,2018-08-08,7/13/2019,,S,,,,
B-town Botanicals Hydroponics And CBD,339 E Winslow Rd,,Bloomington,IN,47401,US,https://www.btownbotanicals.com/,8128220755,jesse@btownbotanicals.com,2020-06-19,,Yes,O,CBD,,,
Bell Family Dispensary,1000 N Walnut St Ste D,,Bloomington,IN,47404,US,http://www.wesellhemp.com,8123328444,mail@wesellhep.com,2018-11-02,12/15/2019,Yes,C,CBD,,,
Bloomington Smoke Time,421 E 3rd St Ste 4,,Bloomington,IN,47401,US,,8126502545,smoketime421@gmail.com,2021-08-10,8/10/2021,Yes,S,CBD,,,
Hope's Organics,122 E 6th St,,Bloomington,IN,47404,US,https://www.hopesorganics.com/,,info@hopesorganics.com,2021-02-07,2/7/2021,Yes,C,CBD,,,
Indy Smoke Time,107 N Dunn St,,Bloomington,IN,47408,US,,8126682190,,2021-08-12,8/12/2021,Yes,S,CBD,,,
Kure CBD & Vape - East,421 E 3rd St #1,,Bloomington,IN,47401,US,https://www.kurevapes.com/pages/kure-cbd-and-vape-bloomington-in-3rd-st-1,8123694880,social@kuresociety.com,2021-07-31,7/31/2021,Yes,C,CBD,,,
Kure CBD & Vape - West,4021 W 3rd St Ste 2,,Bloomington,IN,47404,US,https://www.kurevapes.com/pages/kure-cbd-and-vape-bloomington-in-3rd-st-2,8123362099,social@kuresociety.com,2021-07-31,,Yes,C,CBD,,,
Low Bob's Discount Tobacco,4602 W Richland Plaza Dr #1,,Bloomington,IN,47405,US,http://www.lowbob.com,8123000680,marketing@lowbob.com,2018-08-06,10/16/2019,Yes,S,CBD,,,
Smoke N Lotto,2920 S Leonard Springs Rd,,Bloomington,IN,47403,US,,8128257379,smokenlotto2920@gmail.com,2019-12-31,12/31/2019,Yes,S,CBD,,,
Smoker Friendly,5440 S Old State Rd 37 #A,,Bloomington,IN,47401,US,,8128249889,,2020-03-07,,Yes,T,CBD,,,
Stimline Variety,901 S Walnut St,,Bloomington,IN,47401,US,http://www.stimlinevariety.com/,8123331123,,2020-04-08,,Yes,S,CBD,,,
Stimline Variety Smoke Shop,3084 W 3rd St,,Bloomington,IN,47403,US,http://stimlinevariety.com/,8123330884,,2020-04-08,,Yes,S,CBD,,,
The Green Nursery Inc.,615 N Fairview St,,Bloomington,IN,47404,US,https://thegreennursery.com/,8126799945,scott@thegreennursery.com,2019-09-10,,Yes,C,CBD,,,
Vape Rush,2980 E 3rd St,,Bloomington,IN,47401,US,,8122198070,sales@vaperushgear.com,2019-05-31,,,V,,,,
Volta Glass Studio,405 W 6th St,,Bloomington,IN,47404,US,https://www.voltaglassstudio.com/,8123304191,info@voltaglassstudio.com,2018-11-24,,,H,,,,
Wild Side Smoke Shop,109 W 7th St,,Bloomington,IN,47404,US,,8128222160,,2018-11-06,,Yes,S,CBD,,,
Cravinvapes,600 N Main St,,Bluffton,IN,46714,US,http://www.cravinvapes.com,2606106000,,2019-06-10,,Yes,V,CBD,,,
Vapor Bank,202 W Locust St,,Boonville,IN,47601,US,http://www.vaporbank.com/,8126411986,info@vaporbank.com,2018-08-06,1/7/2020,Yes,V,CBD,,,
Brookville Tobacco & Vape,656 Main St Unit B,,Brookville,IN,47012,US,,7655471066,jesaniv2011@gmail.com,2022-03-14,3/14/2022,Yes,S,CBD,,,
Main Street Vapor Shop,205 E Main St Ste D,,Brownsburg,IN,46112,US,https://www.mainstreetvaporshop.com/,3177097030,mainstreetvaporshop@gmail.com,2018-08-06,12/29/2019,Yes,V,CBD,,,
The Trend,208 E Main St,,Brownsburg,IN,46112,US,https://the-trend-inc.square.site/,3174324436,thetrend317@gmail.com,2020-07-19,,Yes,C,CBD,,,
Ideal eCigs,301 W Main St,,Cambridge City,IN,47327,US,http://idealecigs.com/,9376833683,sales@idealecigs.com,2018-08-06,12/25/2019,Yes,V,CBD,,,
Low Bob's Discount Tobacco,202 E Main St,,Cambridge City,IN,47327,US,http://www.lowbob.com,7653348148,marketing@lowbob.com,2018-08-06,10/16/2019,Yes,S,CBD,,,
Juicy J's Vapory,7102 Kentucky Ave,,Camby,IN,46113,US,,3178565852,juicyjsvapory@gmail.com,2018-08-06,12/26/2019,Yes,V,CBD,,,
CBD American Shaman Indy,482 E Carmel Dr,,Carmel,IN,46032,US,https://cbdamericanshaman.com/,3177952942,gvspina@gmail.com,2019-11-11,,Yes,C,CBD,,,
Owlslee CBD,2810 E 116th St Ste 120,,Carmel,IN,46033,US,https://owlsleecbd.com/,3172501265,crystal@owlsleehealth.com,2020-07-15,,Yes,C,CBD,,,
Vape and Wellness,2271 Pointe Pkwy #130B,,Carmel,IN,46032,US,https://vapeandwellness.com,3177666458,,2020-12-12,,Yes,V,CBD,,,
Vapor Trails,711 S Rangeline Rd,,Carmel,IN,46032,US,,3178468700,,2018-08-06,1/8/2020,Yes,V,CBD,,,
Xpress Tobacco Outlet,622 S Rangeline Rd Unit B,,Carmel,IN,46032,US,,3178442840,patelchetan79@gmail.com,2018-12-28,,,S,,,,
"Your CBD Store - Carmel, IN",255 E Carmel Dr Ste C,,Carmel,IN,46032,US,https://cbdrx4u.com/,3173760134,carmelin@cbdrx4u.com,2019-09-12,9/12/2019,Yes,C,CBD,,,
Copper Leaf Organics - CBD Store,13530 Morse St,,Cedar Lake,IN,46303,US,https://www.copperleaforganics.com/,2196296346,copperleaforganics@yahoo.com,2020-12-02,,Yes,C,CBD,,,
Sweettooth New Age Head Shop,10101 W 133rd Ave Ste 4,,Cedar Lake,IN,46303,US,,2192406295,sweettoothcbd@gmail.com,2020-12-25,,Yes,H,CBD,,,
J C's Cigarette Outlet,1053 Market St #3,,Charlestown,IN,47111,US,,8122565005,,2019-12-14,,,T,,,,
Cigarette Discount Outlet,560 Indian Boundary Rd #3,,Chesterton,IN,46304,US,http://cdotobacconist.com/,2193959798,cdotobacconist@yahoo.com,2019-08-22,8/22/2019,,S,,,,
Duneland Eliquid LLC,1050 Broadway Ste 6,,Chesterton,IN,46304,US,,2197289144,dunelandeliquid@gmail.com,2017-05-03,9/30/2018,,V,,,,
Red Carpet Smoke Shop,1457 Broadway,,Chesterton,IN,46304,US,,2197281738,redcarpetsmoke@gmail.com,2020-02-08,,,S,,,,
Derb E Cigs,1440 Veterans Pkwy,,Clarksville,IN,47129,US,http://derbecigs.com/,8127250547,sales@derbecigs.com,2018-10-21,10/21/2018,Yes,V,CBD,,,
JC's Smoke Shop,711 E Lewis and Clark Pkwy,,Clarksville,IN,47129,US,,8122824450,,2019-12-03,,,S,,,,
Mike's Computer Solutions & Vapor Shop,9105 Crawfordsville Rd,,Clermont,IN,46234,US,,3172973380,mcs46234@yahoo.com,2018-08-06,12/29/2019,,V,,,,
CravinVapes - Columbia City,426 W Plaza Dr,,Columbia City,IN,46725,US,http://cravinvapes.com/,2602131377,columbiacity@cravinvapes.com,2017-12-16,4/7/2019,Yes,V,CBD,,,
Low Bob's Discount Tobacco,204 Frontage Rd,,Columbia City,IN,46725,US,http://www.lowbob.com,2602444440,marketing@lowbob.com,2018-08-06,10/16/2019,Yes,S,CBD,,,
Doobys,1861 State St,,Columbus,IN,47201,US,,8126573270,doobysmokeshop@gmail.com,2021-10-28,,Yes,V,CBD,,,
Karma Columbus,1645 N National Rd,,Columbus,IN,47201,US,,8123782100,karmarecords@hotmail.com,2018-11-28,11/28/2018,Yes,V,CBD,,,
Smoker Friendly,1911 State St,,Columbus,IN,47201,US,,8123759716,,2020-03-07,,,T,,,,
Smoker Friendly,2650 Eastbrook Plaza,,Columbus,IN,47203,US,,8123767084,,2020-03-07,,Yes,S,CBD,,,
Hipnodelic,301 W 6th St,,Connersville,IN,47331,US,https://www.hipnodelic.com,7658211064,amber@hipnodelic.com,2021-09-03,9/3/2021,Yes,H,CBD,,,
Low Bobs Discount Tobacco,200 E 30th St,,Connersville,IN,47331,US,http://www.lowbob.com/,7658253256,marketing@lowbob.com,2018-08-09,5/22/2019,Yes,S,CBD,,,
Smokers Host Discount Tobacco,3150 Western Ave,,Connersville,IN,47331,US,,7658279700,,2018-08-06,12/1/2019,,T,,,,
D&W Vapors,1973 Gardner Ln NW,,Corydon,IN,47112,US,https://dwvapors.us/,8127055197,dwvapors@gmail.com,2018-08-06,1/12/2020,Yes,V,CBD,,,
Shifter's Vapors - Corydon,104 S Capitol Ave,,Corydon,IN,47112,US,,8127341211,,2018-08-06,1/1/2020,,V,,,,
Smokey's Discount Tobacco,1933 IN-337,,Corydon,IN,47112,US,,8127381907,,2020-03-19,,Yes,S,CBD,,,
KC Vapor Studio,1556 S Washington St,,Crawfordsville,IN,47933,US,,7653072363,,2019-04-28,,Yes,V,CBD,,,
Low Bob's Discount Tobacco,1803 Indianapolis Rd,,Crawfordsville,IN,47933,US,http://www.lowbob.com/,7653649253,,2020-03-08,,Yes,S,CBD,,,
Blackbird Hemp,449 E Summit St Ste B,,Crown Point,IN,46307,US,https://blackbirdhemp.com/,2192264154,cphealthsollutionsllc@gmail.com,2020-11-21,,Yes,C,CBD,,,
Cotton & Coils Vape Shop,105 S Court St,,Crown Point,IN,46307,US,,2193108104,cottonandcoilsvapeshop@gmail.com,2016-05-05,4/7/2019,Yes,V,CBD,,,
Smoke Shop,1115 N Main St,,Crown Point,IN,46307,US,,2196611994,,2020-02-23,,,T,,,,
Smoke Shop,9131 E 109th Ave,,Crown Point,IN,46307,US,,2196629575,,2020-02-26,,Yes,S,CBD,,,
Tobacco Island,866 N Superior Dr,,Crown Point,IN,46307,US,https://www.tobaccoislandinc.com/,2192132270,tobaccoislandinc@gmail.com,2021-01-27,1/27/2021,Yes,S,CBD,,,
Willy's CBD Works,1508 N Main St #B2,,Crown Point,IN,46307,US,,2193089998,,2019-02-04,,Yes,V,CBD,,,
Low Bob's Discount Tobacco,52 E Main St,,Danville,IN,46122,US,http://www.lowbob.com,3177184870,marketing@lowbob.com,2018-08-06,10/16/2019,Yes,S,CBD,,,
Juice 'N Vape,654 N 13th St,,Decatur,IN,46733,US,http://www.juicenvape.com/,2607242103,sales@juicenvape.com,2014-09-25,1/26/2019,Yes,V,CBD,,,
Vape & Smoke Defiance,830 N Clinton St,,Defiance,IN,43512,US,https://www.vapensmoke.com/,8448901769,info@vapensmoke.com,2018-08-06,4/15/2020,Yes,S,CBD,,,
Smoke Shop,432 N Halleck St a,,DeMotte,IN,46310,US,,2199876099,,2020-02-25,,,T,,,,
Cotton & Coils Vape Shop,827 Joliet St,,Dyer,IN,46311,US,,2195152049,,2018-09-30,,Yes,V,CBD,,,
Dyer Smokes And More,879 Joliet Rd,,Dyer,IN,46311,US,,2193190826,dyersmokes@yahoo.com,2021-10-03,10/3/2021,Yes,S,CBD,,,
Hart Street Smoke Shop,1950 Hart St,,Dyer,IN,46311,US,,2193226664,,2018-08-06,9/22/2019,,S,,,,
"Level Up Vape, Hookah & CBD",202 Joliet St,,Dyer,IN,46311,US,https://levelupvapeshop.com/,2194407324,,2019-07-02,7/2/2019,Yes,S,CBD,,,
Rollers,710 Joliet St,,Dyer,IN,46311,US,,2198059600,rollersgallery@gmail.com,2020-02-11,,Yes,S,CBD,,,
Smoke Shop V,37 Joliet St,,Dyer,IN,46311,US,,2198641206,,2020-02-28,,,S,,,,
Smokers Host Discount Tobacco,8797 US-31,,Edinburgh,IN,46124,US,http://www.kocolene.com/,8125262721,,2020-03-13,,,S,,,,
Ecig-Works Elkhart,1532 Cassopolis St Ste D,,Elkhart,IN,46514,US,https://www.ecig-works.com/,5746075068,juicemafia@gmail.com,2018-08-06,1/13/2020,Yes,V,CBD,,,
Elkhart Smoke Shop,2721 Emerson Dr,,Elkhart,IN,46514,US,,5742646363,,2018-08-06,9/16/2019,,S,,,,
Khahan's Americana,522 S Main St,,Elkhart,IN,46516,US,,5743224173,accounts@khahan.com,2018-10-17,,Yes,V,CBD,,,
Low Bob's Discount Tobacco,1122 W Bristol St,,Elkhart,IN,46514,US,http://www.lowbob.com,5742620626,marketing@lowbob.com,2018-08-06,10/16/2019,Yes,S,CBD,,,
Low Bob's Discount Tobacco,1501 S Nappanee St Ste 4,,Elkhart,IN,46516,US,http://www.lowbob.com,5742945700,marketing@lowbob.com,2018-08-06,10/16/2019,Yes,S,CBD,,,
Low Bob's Discount Tobacco,51523 IN-19,,Elkhart,IN,46514,US,http://www.lowbob.com,5742068680,marketing@lowbob.com,2018-08-06,10/16/2019,Yes,S,CBD,,,
Low Bob's Discount Tobacco,1234 Johnson St Ste J,,Elkhart,IN,46514,US,http://www.lowbob.com,5742660250,marketing@lowbob.com,2018-08-06,10/16/2019,Yes,S,CBD,,,
Toke Smokes,2545 Prairie St,,Elkhart,IN,46517,US,,5748491856,topsmokes@yahoo.com,2020-06-28,6/28/2020,Yes,S,CBD,,,
Vape & Smoke Elkhart,51495 IN-19,,Elkhart,IN,46514,US,https://www.vapensmoke.com/,5742060620,info@vapensmoke.com,2018-08-06,11/13/2018,,V,,,,
Bobby V's Discount Tobacco,7453 IN-28,,Elwood,IN,46036,US,,7655520741,bobvlntn@yahoo.com,2018-10-14,7/27/2019,Yes,S,CBD,,,
A2Z Smoke & Vape,1930 N Green River Rd,,Evansville,IN,47715,US,https://www.a2zsmokeshopevansville.com/,8129093009,customerservice@ampcorporate.com,2021-12-01,12/1/2021,,S,,,,
Boudoir Noir's Exotica,4605 Washington Ave,,Evansville,IN,47715,US,https://boudoirnoir.com/,8124017399,,2018-11-05,,,H,,,,
Cool Breeze Vapor,1118 N First Ave,,Evansville,IN,47710,US,https://www.coolbreezevapor.com/,8129093367,coolbreezevapor@yahoo.com,2018-08-06,1/12/2020,Yes,V,CBD,,,
Cool Breeze Vapor,2401 Washington Ave,,Evansville,IN,47714,US,https://www.coolbreezevapor.com/,8124778273,coolbreezevapor@yahoo.com,2014-08-28,4/7/2019,Yes,V,CBD,,,
Cool Breeze Vapor,5225 Pearl Dr,,Evansville,IN,47713,US,https://www.coolbreezevapor.com/,8124010899,coolbreezevapor@yahoo.com,2014-08-28,4/7/2019,Yes,V,CBD,,,
Crush Vapor & Smoke Shop,215 N Stockwell Rd,,Evansville,IN,47715,US,http://crushvapes.com/,8126025995,,2018-08-06,9/8/2019,Yes,H,CBD,,,
Hippie Chick Products,2568 Waterbridge Way,,Evansville,IN,47710,US,https://hippiechicknaturalproducts.com/,8122052830,myhippiechick@gmail.com,2021-02-04,,Yes,C,CBD,,,
Kelly's Food & Smoke Shop,3012 Covert Ave Ste D,,Evansville,IN,47714,US,http://kellyssmokeshop.com/,8124772325,,2018-08-06,10/8/2019,Yes,S,CBD,,,
Marina Pointe Tobacco Outlet,1827 Waterworks Rd,,Evansville,IN,47713,US,,8124227665,,2020-01-06,1/6/2020,Yes,T,CBD,,,
Nitros,801 N Main St,,Evansville,IN,47711,US,http://nitros.business.site/,8124012400,,2020-01-29,,,S,,,,
Northpoint Tobacco,415 E Tennessee St,,Evansville,IN,47711,US,,8124222667,,2020-01-29,,Yes,S,CBD,,,
Puff N Stuff Vapor,2163 E Morgan Ave,,Evansville,IN,47711,US,https://puffnstuffvapor.com/,8124912277,,2018-08-06,12/31/2019,Yes,V,CBD,,,
Sam's Food Market & Smoke Shop,900 W Columbia St,,Evansville,IN,47710,US,,8124220700,,2019-07-03,,,S,,,,
TKO Vapor,777 S Green River Rd Ste 2,,Evansville,IN,47715,US,http://tkovapor.com/,5053284828,,2018-08-06,1/4/2020,Yes,V,CBD,,,
Vapor Bank,861 S Green River Rd,,Evansville,IN,47715,US,https://www.vaporbank.com/,8129634718,info@vaporbank.com,2018-08-06,1/7/2020,Yes,V,CBD,,,
Vapor Bank,516 W Mill Rd,,Evansville,IN,47710,US,https://www.vaporbank.com/,8123075074,info@vaporbank.com,2018-08-06,1/7/2020,Yes,V,CBD,,,
Wall's Organics,1901 S Weinbach Ave,,Evansville,IN,47714,US,https://wallsorganicsllc.com/,18122135880,,2020-12-11,,Yes,C,CBD,,,
Wall's Organics,2559 Stringtown Rd,,Evansville,IN,47711,US,https://wallsorganicsllc.com/,7205173571,,2020-12-11,,Yes,C,CBD,,,
Just Vapor,9239 E 141st St,,Fishers,IN,46038,US,http://www.justvapor365.com/,3179007933,modle@justvapor365.com,2018-09-24,,,V,,,,
Naturely CBD,9719 E 116th St Ste 420,,Fishers,IN,46037,US,https://www.naturelycbd.com,3178532420,info@naturelycbd.com,2022-04-06,4/6/2022,Yes,C,CBD,,,
Vape and Wellness,11519 Allisonville Rd,,Fishers,IN,46038,US,https://www.vapeandwellness.com/,3178271091,info@vapeandwellness.com,2020-12-12,,Yes,V,CBD,,,
Vapor Trails,8793 E 116th St,,Fishers,IN,46038,US,,3178638141,vaportrailsfishers@gmail.com,2018-08-06,1/8/2020,Yes,V,CBD,,,
20 Past 4 & More,2014 Broadway,,Fort Wayne,IN,46802,US,http://www.20past4andmore.com,2604224518,,2018-10-23,10/23/2018,Yes,S,CBD,,,
20 Past 4 and More,3500 N Clinton St,,Fort Wayne,IN,46805,US,http://www.20past4andmore.com,2604825959,,2018-10-23,10/23/2018,Yes,S,CBD,,,
Amazing Vapes,10372 Leo Rd,,Fort Wayne,IN,46825,US,http://fortwaynevapes.com/,2607555044,,2018-08-06,1/11/2020,Yes,V,CBD,,,
Amazing Vapes,2614 Maplecrest Rd,,Fort Wayne,IN,46815,US,http://fortwaynevapes.com/,2602456194,,2017-07-09,4/23/2019,Yes,V,CBD,,,
Amazing Vapes,6437 Bluffton Rd,,Fort Wayne,IN,46809,US,,2607550174,vapesamazing@gmail.com,2017-07-09,4/23/2019,Yes,V,CBD,,,
Amazing Vapes,5950 W Jefferson Blvd,,Fort Wayne,IN,46804,US,,2604444787,vapesamazing@gmail.com,2017-07-09,4/23/2019,Yes,V,CBD,,,
Amazing Vapes,3322 N Anthony Blvd,,Fort Wayne,IN,46805,US,http://fortwaynevapes.com/,2604442396,,2017-07-09,4/23/2019,Yes,V,CBD,,,
Amazing Vapes,9187 Lima Rd,,Fort Wayne,IN,46818,US,,2603876265,vapesamazing@gmail.com,2017-07-09,4/23/2019,Yes,V,CBD,,,
CBD Store of Fort Wayne,5808 W Jefferson Blvd,,Fort Wayne,IN,46804,US,https://cbdstoreoffortwayne.com/,2604596688,cbd@cbdstoreoffortwayne.com,2019-06-28,6/28/2019,Yes,C,CBD,,,
CBD Store of Fort Wayne,3518 N Clinton St,,Fort Wayne,IN,46805,US,https://cbdstoreoffortwayne.com,2604837575,cbd@cbdstoreoffortwayne.com,2020-12-01,,Yes,C,CBD,,,
Clear Choice CBD,4705 Illinois Rd Ste 118,,Fort Wayne,IN,46804,US,https://clearchoicecbdstore.com/,2604085821,info@clearchoicecbdstore.com,2020-06-25,,Yes,C,CBD,,,
Complete Health,4206 W Jefferson Blvd Ste C-2,,Fort Wayne,IN,46804,US,https://completehealthsupplements.com/,2603877670,,2020-12-15,12/15/2020,Yes,O,CBD,,,
Copper Canyon,3261 St Joe Center Rd,,Fort Wayne,IN,46835,US,https://www.coppercanyoncbd.com/,2603876002,coppercanyonstore@gmail.com,2020-06-25,,Yes,S,CBD,,,
CravinVapes,3818 Illinois Rd,,Fort Wayne,IN,46804,US,http://cravinvapes.com/,2604369901,,2018-08-06,1/12/2020,,V,,,,
CravinVapes,4516 Parnell Ave,,Fort Wayne,IN,46825,US,http://cravinvapes.com/,2602554218,,2018-08-06,1/12/2020,Yes,V,CBD,,,
CravinVapes - Fort Wayne,1516 N Wells St,,Fort Wayne,IN,46808,US,http://cravinvapes.com/,2604207342,sales@cravinvapes.com,2014-12-16,4/7/2019,Yes,V,CBD,,,
Epic Vapes - Fort Wayne,3120 St Joe Center Rd,,Fort Wayne,IN,46835,US,,2602408058,epicvapesforeverstjoe@gmail.com,2014-12-15,6/16/2021,Yes,V,CBD,,,
Epic Vapes Fort Wayne SW,6443 W Jefferson Blvd,,Fort Wayne,IN,46804,US,https://www.epicvapes.com/,2604085670,geisemj@gmail.com,2018-04-30,6/18/2019,Yes,V,CBD,,,
Heavy Hitterz,3615 N Clinton St,,Fort Wayne,IN,46805,US,,2602066122,,2018-11-05,11/5/2018,Yes,H,CBD,,,
Low Bob's Discount Tobacco,6104 Stellhorn Rd,,Fort Wayne,IN,46815,US,http://www.lowbob.com,2604920475,marketing@lowbob.com,2018-08-06,6/11/2019,Yes,S,CBD,,,
Low Bob's Discount Tobacco,6227 Bluffton Rd,,Fort Wayne,IN,46809,US,http://www.lowbob.com,2604784060,marketing@lowbob.com,2018-08-06,6/11/2019,Yes,S,CBD,,,
Low Bob's Discount Tobacco,1575 Goshen Rd Ste D,,Fort Wayne,IN,46808,US,http://www.lowbob.com,2604713662,marketing@lowbob.com,2018-08-06,10/16/2019,Yes,S,CBD,,,
Low Bob's Discount Tobacco,4420 Bluffton Rd,,Fort Wayne,IN,46809,US,http://www.lowbob.com,2604786553,marketing@lowbob.com,2018-08-06,10/16/2019,Yes,S,CBD,,,
Low Bob's Discount Tobacco,2545 W Jefferson Blvd,,Fort Wayne,IN,46802,US,http://www.lowbob.com,2604596773,marketing@lowbob.com,2018-08-06,10/16/2019,Yes,S,CBD,,,
Smokers Discount Tobacco,1118 Taylor St #A,,Fort Wayne,IN,46802,US,,2609690995,,2020-03-11,,,T,,,,
Tobacco Stop & Big Ash VIP Cigar Lounge,9111 Lima Rd,,Fort Wayne,IN,46818,US,,2604160636,,2020-03-09,1/20/2021,,T,,,,
Your CBD Store,3460 Stellhorn Rd Ste B,,Fort Wayne,IN,46815,US,https://cbdrx4u.com/find-us/indiana/fort-wayne,2607550545,fortwayne552@cbdrx4u.com,2021-06-04,,Yes,C,CBD,,,
Discount Tobacco,1955 E Wabash St,,Frankfort,IN,46041,US,,7656540469,,2019-10-02,,,T,,,,
Tobacco Plus,359 W Walnut St,,Frankfort,IN,46041,US,,7656548000,,2019-07-07,7/7/2019,,S,,,,
Choice CBD,154 N Morton St,,Franklin,IN,46131,US,,3174744794,choicecbd_indy@gmail.com,2020-12-02,,Yes,C,CBD,,,
Karma Vape,225 N Morton St,,Franklin,IN,46131,US,,3174946673,karmavape@outlook.com,2019-10-12,,Yes,V,CBD,,,
Smoker Friendly,1767 N Main St,,Franklin,IN,46131,US,,3173460902,,2020-03-07,,Yes,T,CBD,,,
State Line Tobacco Discount,6843 Old US-27 #B,,Fremont,IN,46737,US,,2608334748,,2021-08-19,8/19/2021,Yes,T,CBD,,,
Valley Cannabis Co.,627 S Maple St,,French Lick,IN,47432,US,https://www.vcchemp.com/,8129363102,valleycannabisgenetics@gmail.com,2020-12-12,,Yes,C,CBD,,,
CBD Wellness Club,4121 Cleveland St,,Gary,IN,46408,US,https://cbd-wellness-club.business.site/,2194138896,,2020-12-04,,Yes,C,CBD,,,
Puffys Smoke & Vape,5404 W 25th Ave,,Gary,IN,46406,US,,2198036714,,2018-08-06,11/1/2019,Yes,S,CBD,,,
HR Puff N Stuff,231 E Main St,,Gas City,IN,46933,US,,7656778380,,2019-11-20,,Yes,S,CBD,,,
CravinVapes,617 W Pike St,,Goshen,IN,46526,US,http://cravinvapes.com,5749718748,goshen@cravinvapes.com,2018-06-25,7/5/2019,Yes,V,CBD,,,
Ecig-Works Goshen,1920 Elkhart Rd,,Goshen,IN,46526,US,https://www.ecig-works.com/,5745351117,juicemafia@gmail.com,2018-10-16,10/16/2018,,V,,,,
Low Bob's Discount Tobacco,434 W Pike St,,Goshen,IN,46526,US,http://www.lowbob.com,5745345206,marketing@lowbob.com,2018-08-06,6/11/2019,Yes,S,CBD,,,
Low Bob's Discount Tobacco,12131 Adams Rd,,Granger,IN,46530,US,http://www.lowbob.com,5742711385,marketing@lowbob.com,2018-08-06,6/11/2019,Yes,S,CBD,,,
Smoker Friendly,1132 Indianapolis Rd,,Greencastle,IN,46135,US,,7653019037,,2020-03-07,,Yes,S,CBD,,,
Indy's Vape Escape,1929 Melody Ln,,Greenfield,IN,46140,US,https://indys-vape-escape.business.site/,3173189733,,2022-05-09,5/9/2022,,V,,,,
Low Bob's Discount Tobacco,1226 W Main St,,Greenfield,IN,46140,US,http://www.lowbob.com,3174625288,marketing@lowbob.com,2018-08-06,6/11/2019,Yes,S,CBD,,,
Smokers Host Discount Tobacco,1518 N State St,,Greenfield,IN,46140,US,http://www.kocolene.com/,3174679278,contact@kocolene.com,2020-03-12,3/12/2020,Yes,S,CBD,,,
Vapor Lock,125 S State St Ste A,,Greenfield,IN,46140,US,http://www.vaporlockecig.com/,3173189057,,2018-08-06,1/8/2020,Yes,V,CBD,,,
Hoosier E-Cig,1030 N Lincoln St Ste 1800,,Greensburg,IN,47240,US,http://www.hoosierecig.com/,8125604646,,2018-10-22,2/22/2019,Yes,V,CBD,,,
Low Bob's Discount Tobacco,1907 N Greensburg Crossing,,Greensburg,IN,47240,US,http://www.lowbob.com,8126626974,marketing@lowbob.com,2018-08-06,10/16/2019,Yes,S,CBD,,,
Smokers Host Discount Tobacco,601 W Main St Ste A,,Greensburg,IN,47240,US,http://www.kocolene.com/,8126634351,,2020-03-13,,Yes,T,CBD,,,
317 Vapers,1678 Stonegate Dr,,Greenwood,IN,46142,US,http://www.317vapers.com/,3178846917,317vapers@gmail.com,2018-09-08,3/12/2020,Yes,V,CBD,,,
CBD Health of Indiana,954 N IN-135,,Greenwood,IN,46142,US,https://cbdhealthofindiana.com,3178935131,cbdhealthofin@gmail.com,2020-11-25,,Yes,C,CBD,,,
Greenwood Discount Tobacco,713 Fry Rd,,Greenwood,IN,46142,US,,3178893639,,2019-11-06,,Yes,T,CBD,,,
Low Bob's Discount Tobacco,1295 N Bluff Rd,,Greenwood,IN,46142,US,http://www.lowbob.com,3178820174,marketing@lowbob.com,2018-08-06,6/11/2019,Yes,S,CBD,,,
Smokers Host Discount Tobacco,1026 US-31 S,,Greenwood,IN,46143,US,http://kocolene.com,3178899875,contact@kocolene.com,2020-03-12,,Yes,T,CBD,,,
Vapor Madness,200 S Emerson Ave Ste A,,Greenwood,IN,46143,US,http://vapormadness.cloud/,3178888273,vapormadnessgreenwood@gmail.com,2019-10-10,,Yes,V,CBD,,,
Cigs4less,27 Sibley St,,Hammond,IN,46320,US,,2199379600,,2022-03-22,3/22/2022,Yes,S,CBD,,,
K & D Smoke Shop,220 165th St,,Hammond,IN,46324,US,,2199373078,,2019-12-23,,,T,,,,
Low Bob's Discount Tobacco,4314 Calument Ave,,Hammond,IN,46320,US,http://www.lowbob.com,2198036480,marketing@lowbob.com,2018-08-06,6/11/2019,Yes,S,CBD,,,
New Age Tobacco,7233 Calumet Ave,,Hammond,IN,46324,US,http://newagetobacco.net/,2199311224,,2020-01-27,,Yes,H,CBD,,,
Oasis Smoke Shop,5535 State Line Ave,,Hammond,IN,46320,US,,2199374607,,2019-08-12,,Yes,S,CBD,,,
Smoke219,7451 Indianapolis Blvd,,Hammond,IN,46324,US,https://www.smoke219.com/,2192307330,219smoke@gmail.com,2018-09-15,8/30/2019,,S,,,,
The Spot,11001 Indianapolis Blvd,,Hammond,IN,46320,US,,2196595000,,2020-01-09,,Yes,S,CBD,,,
Smoker Friendly,241 W Main St,,Hanover,IN,47243,US,,8128662379,,2020-03-07,,,T,,,,
Low Bob's Discount Tobacco,224 N Walnut St,,Hartford City,IN,47348,US,http://www.lowbob.com,7653484480,marketing@lowbob.com,2018-08-06,6/11/2019,Yes,S,CBD,,,
Cotton & Coils,2976 E 181st Ave,,Hebron,IN,46341,US,,2199962083,,2022-03-29,3/29/2022,Yes,V,CBD,,,
Blacksheep Vapors,9521 Indianapolis Blvd Ste J,,Highland,IN,46322,US,https://www.blacksheepvapes.com/,2199241815,info@blacksheepvapes.com,2014-09-03,3/3/2019,Yes,V,CBD,,,
Cigarette Discount Outlet,8008 Kennedy Ave,,Highland,IN,46322,US,http://cdotobacconist.com/,2198386600,cdotobacconist@yahoo.com,2019-08-22,8/22/2019,,S,,,,
Smoke City Center,1165 W 37th Ave,,Hobart,IN,46342,US,,2199423331,,2020-02-17,,Yes,S,CBD,Yes,,
Vaporz Vault,1641 E 37th Ave,,Hobart,IN,46342,US,http://www.vaporzvault.com/,2199732115,vaporzvault@gmail.com,2018-09-30,,,V,,,,
B.B. Vape,45 E Market St,,Huntington,IN,46750,US,https://bbvape.weebly.com/,2602001234,bbvapestore@gmail.com,2014-09-19,3/3/2019,Yes,V,CBD,,,
Bohemian Groove,418 N Jefferson St,,Huntington,IN,46750,US,http://www.bgpipes.com,2602201289,admin@bgpipes.com,2018-10-28,,,H,,,,
CravinVapes - Huntington,2928 Walmart Dr,,Huntington,IN,46750,US,http://cravinvapes.com,2602002968,huntington@cravinvapes.com,2018-06-25,4/22/2019,Yes,V,CBD,,,
10th Street Discount Tobacco,7319 W 10th St,,Indianapolis,IN,46214,US,https://www.10thstdiscounttobacco.com/,3172717420,mohan_inc@aol.com,2019-06-27,,Yes,S,CBD,,,
20 Past 4 & More,3433 Madison Ave,,Indianapolis,IN,46227,US,http://www.20past4andmore.com,3177811464,,2018-10-23,10/23/2018,Yes,S,CBD,,,
20 Past 4 & More,2415 E 56th St,,Indianapolis,IN,46220,US,https://www.20past4andmore.com/,3172537632,,2018-10-23,,Yes,S,CBD,,,
5 Star Medicinal Products,1602 S Banner Ave Ste 4,,Indianapolis,IN,46241,US,https://www.5starcbdoil.com/,3172480036,tanya@5starcbdoil.info,2020-11-15,,Yes,C,CBD,,,
Artisan Vapor & CBD - North Willow,1426 W 86th St,,Indianapolis,IN,46260,US,https://www.artisanvaporcompany.com/,3177573657,eric.avc.chi@gmail.com,2020-06-18,7/14/2021,Yes,V,CBD,,,
Artisan Vapor & CBD Castle Point,5497 E 82nd St,,Indianapolis,IN,46250,US,https://www.artisanvaporcompany.com/,3175165132,info@artisanvaporcompany.com,2018-08-06,10/25/2019,Yes,V,CBD,,,
Artisan Vapor & CBD Eagle Creek,6929 38th St Unit C,,Indianapolis,IN,46214,US,https://www.artisanvaporcompany.com/,3179696952,artisaneaglecreek@gmail.com,2020-06-18,,Yes,V,CBD,,,
Black Swan Vapors,5868 E 71st St Ste B,,Indianapolis,IN,46220,US,http://blackswanvapors.com/,3174367092,info@blackswanvapors.com,2018-08-06,1/11/2020,,V,,,,
Bolton's Tobacco,2019 W Morris St,,Indianapolis,IN,46221,US,,3178229811,,2019-07-27,,,T,,,,
CBD American Shaman Indy,912 E Westfield Blvd,,Indianapolis,IN,46220,US,https://cbdamericanshamanindy.com/,4632212829,americanshamanindy@gmail.com,2019-11-08,,Yes,C,CBD,,,
CBD Jubilee,6418 Carrollton Ave,,Indianapolis,IN,46220,US,https://cbdjubilee.com/,3173857292,info@cbdjubilee.com,2020-10-05,,Yes,C,CBD,,,
CBD Revolution,10202 E Washington St #446,,Indianapolis,IN,46229,US,https://cbdrevolution.business.site/,3177729623,,2020-11-29,,Yes,C,CBD,,,
Discount Tobacco,3401 Georgetown Rd,,Indianapolis,IN,46224,US,,,,2022-04-01,4/1/2022,,T,,,,
Dragon Smoke & Vape Shop,10535 E Washington St,,Indianapolis,IN,46229,US,,3176663225,9dragonsdistributing@gmail.com,2018-10-16,4/27/2019,Yes,S,CBD,,,
Dragon Smoke & Vape Shop,1419 W 86th St,,Indianapolis,IN,46260,US,,4632062699,tsfrederick17@gmail.com,2019-08-09,,Yes,S,CBD,,,
Dragon Smoke & Vape Shop,4947 S Emerson Ave,,Indianapolis,IN,46203,US,https://dragonsmokeandvape.com/,3177314171,9dragonsdistributing@gmail.com,2020-12-25,,Yes,S,CBD,,,
East Tree CBD,221 N East St,,Indianapolis,IN,46204,US,https://easttreecbd.com/,3173841296,info@easttreecbd.com,2021-09-02,,Yes,C,CBD,,,
Eastside Tobacco,10044 E 10th St,,Indianapolis,IN,46229,US,,3178909600,marshakiss@sbcglobal.net,2018-08-06,9/16/2019,Yes,T,CBD,,,
Fog Life Vapor and Hemp,5333 W 10th St,,Indianapolis,IN,46224,US,,3177573280,,2022-04-26,4/26/2022,Yes,V,CBD,,,
Get Connected Wireless & Smoke Shop,5955 Michigan Rd,,Indianapolis,IN,46228,US,,3176722880,,2018-08-06,9/17/2019,,S,,,,
Greenwood Smoke Shop,8923 S Meridian St Ste A6,,Indianapolis,IN,46217,US,,3173606025,greenwoodsmokeshop@gmail.com,2018-12-03,11/6/2019,Yes,S,CBD,,,
Happy Daze Too,6450 W 10th St Ste 2,,Indianapolis,IN,46214,US,,3175522077,haapydazeindy@gmail.com,2018-11-18,1/8/2021,Yes,H,CBD,,,
Head Lines Smokes,1056 Broad Ripple Ave,,Indianapolis,IN,46220,US,http://headlinessmokes.com/,3172536551,contact@headlinessmokes.com,2018-08-06,9/23/2019,Yes,H,CBD,,,
High On The Hill,3729 W 16th St,,Indianapolis,IN,46222,US,,3179724455,hionthehill@yahoo.com,2018-12-28,,Yes,H,CBD,,,
Higher Life CBD Dispensary,901 N Pennsylvania St,,Indianapolis,IN,46204,US,https://higherlifecbddispensary.com/,3176039554,,2021-02-03,2/3/2021,Yes,C,CBD,,,
Indiana CBD Wellness,1323 W 86th St,,Indianapolis,IN,46260,US,https://indycbdwellness.com/,3173895800,indianacbdwellness@gmail.com,2021-02-11,,Yes,C,CBD,,,
Indy CBD Plus,5144 Madison Ave Ste 5,,Indianapolis,IN,46227,US,https://indycbdplus.com/,3179610191,info@indycbdplus.com,2021-02-11,,Yes,C,CBD,,,
Indy E Cigs,6324 W Washington St,,Indianapolis,IN,46241,US,https://indyecigs.com/,3177573676,info@indyecigs.com,2018-08-06,12/25/2019,Yes,V,CBD,,,
Indy E Cigs,901 Broad Ripple Ave,,Indianapolis,IN,46220,US,http://indyecigs.com/,3174385336,info@indyecigs.com,2018-08-06,12/25/2019,Yes,V,CBD,,,
Indy E Cigs,11135 Pendleton Pike Ste 1000,,Indianapolis,IN,46236,US,http://indyecigs.com/,3177233956,info@indyecigs.com,2018-08-06,12/25/2019,Yes,V,CBD,,,
Indy E Cigs,7035 E 96th St Ste S,,Indianapolis,IN,46250,US,http://indyecigs.com/,3172880369,info@indyecigs.com,2018-08-06,12/25/2019,Yes,V,CBD,,,
Indy E Cigs,"3905 West 96th Street, Suite 300",,Indianapolis,IN,46268,US,http://indyecigs.com/,3177575457,info@indyecigs.com,2018-09-30,,,V,,,,
Indy E Cigs - Park 100,7116 Woodland Dr,,Indianapolis,IN,46278,US,http://indyecigs.com/,3173904020,daniel.indyecigs@gmail.com,2018-08-06,6/11/2021,Yes,V,CBD,,,
Indy Smoke Time,2234 Broad Ripple Ave,,Indianapolis,IN,46220,US,,3177229999,smoketime2234@gmail.com,2019-12-16,,Yes,S,CBD,,,
Indy Vapor Shop,4930 Lafayette Rd,,Indianapolis,IN,46254,US,https://indyvaporshop.com/,3172911087,sales@indyvaporshop.com,2018-08-06,12/25/2019,Yes,V,CBD,,,
Just Smokes,8023 Pendleton Pike,,Indianapolis,IN,46226,US,,3178959296,,2019-12-23,,,T,,,,
Just Vapor,8238 Center Run Dr,,Indianapolis,IN,46250,US,http://www.justvapor365.com/,3178272939,modle@justvapor365.com,2018-09-30,,,V,,,,
Keystone Smoke and Vapor,6309 N Keystone Ave,,Indianapolis,IN,46220,US,https://keystone-smoke-and-vapor.business.site/,3177317357,,2019-07-01,,,S,,,,
Low Bob's Discount Tobacco,711 E Thompson Rd Ste B,,Indianapolis,IN,46227,US,,3177837185,,2022-03-03,3/3/2022,,T,,,,
Low Bob's Discount Tobacco,2927 Kentucky Ave,,Indianapolis,IN,46221,US,http://www.lowbob.com,3172481735,marketing@lowbob.com,2018-08-06,10/16/2019,Yes,S,CBD,,,
Low Bob's Discount Tobacco,1045 N Raceway Rd,,Indianapolis,IN,46234,US,http://www.lowbob.com,3172716053,marketing@lowbob.com,2018-08-06,10/16/2019,Yes,S,CBD,,,
Low Bob's Discount Tobacco,6411 E Washington St,,Indianapolis,IN,46219,US,http://www.lowbob.com,3173510877,marketing@lowbob.com,2018-08-06,10/16/2019,Yes,S,CBD,,,
Mind's Eye,5022 Madison Ave,,Indianapolis,IN,46227,US,,3177832788,,2020-01-09,,,H,,,,
Naptown Vapors,5020 S Kentucky Ave,,Indianapolis,IN,46221,US,http://www.naptownvaporsindy.com/,3174559589,naptownvapors@yahoo.com,2018-08-06,7/3/2019,Yes,V,CBD,,,
Obadiah's South,3429 S East St #B,,Indianapolis,IN,46227,US,https://www.obadiahsindy.com/,3177844544,,2018-11-06,,Yes,H,CBD,,,
Obadiah's West,3840 Georgetown Rd,,Indianapolis,IN,46254,US,https://www.obadiahsindy.com/,3172169855,,2018-11-14,11/14/2018,Yes,H,CBD,,,
Owlslee CBD,435 Virginia Ave Ste 1500,,Indianapolis,IN,46203,US,https://owlsleecbd.com/,3176386957,crystal@owlsleehealth.com,2020-07-15,,Yes,C,CBD,,,
Owlslee CBD,8860 S Emerson Ave Ste 200,,Indianapolis,IN,46237,US,https://owlsleecbd.com/,3174188953,crystal@owlsleehealth.com,2020-07-15,10/14/2020,Yes,C,CBD,,,
PharmFree Life CBD Dispensary + Coffee & Tea Bar,5361 E 82nd St,,Indianapolis,IN,46250,US,https://www.pharmfreelife.com/,18009892196,,2019-08-18,8/18/2019,Yes,C,CBD,,,
Sir Vapes-A-Lot,6905 S Emerson Ave Ste B,,Indianapolis,IN,46237,US,http://www.sirvapesalotindy.com,3174978818,sirvapesalot1@gmail.com,2018-08-06,1/1/2020,Yes,V,CBD,,,
Sir Vapes-A-Lot,1995 E Stop 13 Rd,,Indianapolis,IN,46227,US,http://www.sirvapesalotindy.com/,3173001153,sirvapesalot1@gmail.com,2018-08-06,1/1/2020,Yes,V,CBD,,,
Smoke Kulture,5310 N Keystone Ave,,Indianapolis,IN,46220,US,https://www.smokekulture.net/,3179291015,smokekulture@gmail.com,2018-11-03,,Yes,S,CBD,,,
Smoke One,5217 E 38th St,,Indianapolis,IN,46218,US,,3176729335,,2020-02-20,,,H,,,,
Smoker Friendly,7640 S Meridian St,,Indianapolis,IN,46217,US,https://smokerfriendlytobaccovape28.business.site/,3173008147,,2019-05-14,,Yes,S,CBD,,,
The Magic Bus,1073 Broad Ripple Ave,,Indianapolis,IN,46220,US,https://www.themagicbusindy.com/,3172515463,themagicbus420@gmail.com,2018-12-28,,Yes,H,CBD,,,
The Mill CBD - West Washington,6324 W Washington St,,Indianapolis,IN,46241,US,https://thecbdmill.com/,3173620424,info@thecbdmill.com,2020-01-23,1/23/2020,Yes,C,CBD,,,
The Vapor Vice,4027 S Franklin Rd,,Indianapolis,IN,46239,US,http://thevaporvice.com/,3173001102,,2020-01-03,1/3/2020,Yes,V,CBD,,,
Tillberry's Vaping Elixirs,3017 Kentucky Ave,,Indianapolis,IN,46221,US,http://tillberrysvapingelixirs.com/,3176724659,,2018-08-06,1/3/2020,,V,,,,
Tillberry's Vaping Elixirs 2,1022 Virginia Ave,,Indianapolis,IN,46203,US,http://tillberrysvapingelixirs.com/,3176727225,,2018-08-06,11/13/2018,,V,,,,
Tobacco World,5102 E Washington St #B,,Indianapolis,IN,46219,US,,3173529200,,2018-08-06,4/15/2020,,S,,,,
Uptown Smokes,8624 Purdue Rd,,Indianapolis,IN,46268,US,,3175990009,,2022-02-18,2/18/2022,Yes,S,CBD,,,
Vape N More,5252 Crawfordsville Rd,,Indianapolis,IN,46224,US,https://vapenmore.business.site/,3175250447,vapenmore6871@gmail.com,2019-07-16,1/31/2022,Yes,V,CBD,,,
Vape Shop,4603 S Harding St,,Indianapolis,IN,46217,US,,3179864764,,2019-05-30,,Yes,V,CBD,,,
Vaper Kings Indy,932 E Hanna Ave,,Indianapolis,IN,46227,US,http://vaperkingsindy.com/,3174265023,vaperkingsindy@gmail.com,2018-08-06,1/7/2020,Yes,V,CBD,,,
Vaper Kings Indy,5135 S Emerson Ave Ste G,,Indianapolis,IN,46237,US,http://vaperkingsindy.com,3176613613,vaperkingsindy@gmail.com,2018-08-06,1/7/2020,Yes,V,CBD,,,
Vapes N Things,7131 N Michigan Rd,,Indianapolis,IN,46268,US,,3174059477,vapesnthings@att.net,2022-04-12,4/12/2022,Yes,V,CBD,,,
Vapes N Things,5955 E 82nd St,,Indianapolis,IN,46268,US,,3175165920,vapesnthings@att.net,2018-08-09,4/12/2022,Yes,V,CBD,,,
Vapor Room,916 N Shadeland Ave Ste B,,Indianapolis,IN,46219,US,http://vaporroomindy.com/,3173757757,,2018-09-25,,,V,,,,
Wild Eye Wellness,2018 E 46th St,,Indianapolis,IN,46205,US,https://www.wildeyewellness.com/,3177371526,wildeyewellness@gmail.com,2021-05-29,,Yes,C,CBD,,,
World Of Vapor Indy,5533 E Washington St,,Indianapolis,IN,46219,US,http://www.worldofvaporindy.com/,3173518273,,2018-08-06,1/10/2020,Yes,V,CBD,,,
World Record Shoppe XL,2184 E 54th St,,Indianapolis,IN,46220,US,,3172535812,worldrecordshop@yahoo.com,2018-11-02,,Yes,S,CBD,,,
Your CBD Store,5021 S Kentucky Ave Ste E,,Indianapolis,IN,46221,US,https://cbdrx4u.com,3174551947,southindy@cbdrx4u.com,2020-12-06,,Yes,C,CBD,,,
"Your CBD Store - Nora, IN",1240 W 86th St,,Indianapolis,IN,46260,US,https://cbdrx4u.com/,3176690774,norain@cbdrx4u.com,2019-09-12,9/12/2019,Yes,C,CBD,,,
Your CBD Store - Shadeland,7433 Shadeland Ave,,Indianapolis,IN,46250,US,https://cbdrx4u.com/find-us/indiana/shadeland,3172887154,shadeland487@cbdrx4u.com,2020-12-06,6/4/2021,Yes,C,CBD,,,
Hashtag Smoke Shop,2308 E County Line Rd,,Indianpolis,IN,46227,US,http://hashtagsmokeshop.com,3173000158,hashtagsmokeshop@gmail.com,2019-03-15,3/15/2019,Yes,S,CBD,,,
Max Vapor,707 W 6th St,,Jasper,IN,47546,US,,8125560615,maxvapor@yahoo.com,2018-09-24,,,V,,,,
Smoker Friendly,2913 N Newton St,,Jasper,IN,47546,US,,8125560244,,2020-03-07,,Yes,S,CBD,,,
JC's Cigarette Outlet 23,1594 E 10th St,,Jeffersonville,IN,47130,US,,8122835166,jcs23@jccigs.com,2019-12-03,11/9/2021,Yes,S,CBD,,,
New Cloud Vapor Lounge,1725 E 10th St Ste D,,Jeffersonville,IN,47130,US,https://newcloudejuice.com/,8127250823,chriskingnewcloud@gmail.com,2018-08-06,12/30/2019,,V,,,,
New Cloud Vapor Lounge,5420 IN-62 Ste 400,,Jeffersonville,IN,47130,US,https://newcloudejuice.com/,8125902111,,2018-08-06,12/30/2019,,V,,,,
Smokey's Discount Tobacco Outlet,3826 Hamburg Pike #B,,Jeffersonville,IN,47130,US,,8122886881,,2020-03-19,,,S,,,,
Amazing Vapes,524 Fairview Blvd,,Kendallville,IN,46755,US,http://fortwaynevapes.com/,2605441033,,2020-06-18,,Yes,V,CBD,,,
Low Bob's Discount Tobacco,830 W North St,,Kendallville,IN,46755,US,http://www.lowbob.com,2603491461,marketing@lowbob.com,2018-08-06,10/17/2019,Yes,S,CBD,,,
The Pure Dream,121 S Main St,,Kendallville,IN,46755,US,https://www.thepuredreamfortwayne.com/,2605994200,thepuredreamllc@gmail.com,2020-12-09,,Yes,C,CBD,,,
Tobacco Stop,613 W North St,,Kendallville,IN,46755,US,,2603430371,,2020-03-09,3/9/2020,,S,,,,
Smoke Shop,2200 US-35,,Knox,IN,46534,US,,5747727721,,2020-02-24,,,T,,,,
Blue Circle Shops,226 E Sycamore St,,Kokomo,IN,46901,US,https://www.bluecircleshops.com/,7654597122,info@bluecirclefarms.com,2020-11-21,,Yes,C,CBD,,,
Coke N Smoke,300 E Markland Ave,,Kokomo,IN,46901,US,,7652360991,,2019-06-28,,Yes,S,CBD,,,
Kokomo Pure Vapors,1216 E Markland Ave,,Kokomo,IN,46901,US,,7654551199,kokomovapors@att.net,2018-08-06,12/28/2019,Yes,V,CBD,,,
Low Bob's Discount Tobacco,221 W Morgan St,,Kokomo,IN,46901,US,http://www.lowbob.com,7658689713,marketing@lowbob.com,2018-08-06,10/17/2019,Yes,S,CBD,,,
Low Bob's Discount Tobacco,407 E Center Rd,,Kokomo,IN,46902,US,http://www.lowbob.com,7658649304,marketing@lowbob.com,2018-08-06,10/17/2019,Yes,S,CBD,,,
Low Bob's Discount Tobacco,3700 S Lafountain St Ste A,,Kokomo,IN,46902,US,http://www.lowbob.com,7658640487,marketing@lowbob.com,2018-08-06,10/18/2019,Yes,S,CBD,,,
Low Bob's Discount Tobacco,1301 E Markland Ave,,Kokomo,IN,46901,US,http://www.lowbob.com,7658688079,marketing@lowbob.com,2018-08-06,10/18/2019,Yes,S,CBD,,,
Low Bob's Discount Tobacco,1427 E Morgan St,,Kokomo,IN,46901,US,http://www.lowbob.com,7654574056,marketing@lowbob.com,2018-08-06,10/18/2019,Yes,S,CBD,,,
North Street Vape & Smoke Shop,1301 N Market St,,Kokomo,IN,46901,US,,7654598985,,2018-08-06,11/1/2018,,S,,,,
Smokey Bone's Tobacco,715 N Washington St,,Kokomo,IN,46901,US,,7654522911,,2019-10-08,,Yes,S,CBD,,,
Sky High Vape & Tobacco,609 E Lincolnway,,La Porte,IN,46350,US,https://skyhighlaporte.business.site/,2195757754,,2019-07-03,7/3/2019,Yes,S,CBD,,,
Smoke 4 Less,1104 W State Rd 2 #A,,La Porte,IN,46350,US,,2193445189,laportesmoke4less@gmail.com,2020-02-17,2/17/2020,,S,,,,
Smoke Shop,100 J St,,La Porte,IN,46350,US,,2193620505,,2020-02-21,,Yes,T,CBD,,,
Smoke Shop,1340 Pine Lake Rd,,La Porte,IN,46350,US,,2193696920,,2020-02-23,,,T,,,,
Victory Vapes,222 Pine Lake Ave,,La Porte,IN,46350,US,,2195753963,joe@victoryvapes.net,2018-09-30,1/26/2020,Yes,V,CBD,,,
"You, Me And CBD LLC",212 Pine Lake Ave,,La Porte,IN,46350,US,https://you-me-and-cbd-llc.business.site/,2193637656,youmeandcbd@gmail.com,2020-12-07,,Yes,C,CBD,,,
Amused Clothing,3023 South St,,Lafayette,IN,47904,US,http://www.amusedclothing.com/,7654498733,amclothing@yahoo.com,2019-07-18,,Yes,S,CBD,,,
CBD Solutions,2469 State St,,Lafayette,IN,47905,US,https://naturalcbdadvantage.com/,7654771900,,2020-12-01,,Yes,C,CBD,,,
CBD Solutions - South,3401 Fairfield Ct Ste E,,Lafayette,IN,47909,US,https://naturalcbdadvantage.com/,7654771888,,2020-12-01,,Yes,C,CBD,,,
Discount Tobacco,2316 Teal Rd W,,Lafayette,IN,47905,US,,7654772181,,2019-10-30,,,T,,,,
Discount Tobacco,2402 Greenbush St,,Lafayette,IN,47904,US,https://discount-tobacco.com/,7652697488,,2019-10-30,,,T,,,,
iSmoke Vapor,513 N Earl Ave,,Lafayette,IN,47904,US,https://www.ismokevapor.com/,7658382481,info@ismokevapor.com,2018-09-30,11/30/2019,,V,,,,
KC Vapor Studio,13 N Earl Ave,,Lafayette,IN,47901,US,,7656074050,,2019-04-28,,Yes,V,CBD,,,
The Fog Foundry,2613 Maple Point Dr,,Lafayette,IN,47905,US,,7654646107,,2018-10-17,10/17/2018,,V,,,,
The Vape Shop,405 Sagamore Pkwy S Ste B11,,Lafayette,IN,47905,US,,7658383691,7sinsvapor47906@gmail.com,2018-08-06,1/2/2020,Yes,V,CBD,,,
Tobacco Plus,2121 S 4th St,,Lafayette,IN,47905,US,,7654712265,,2019-07-07,,Yes,S,CBD,,,
Eagles Tobacco,3728 Central Ave,,Lake Station,IN,46405,US,,2196544073,,2022-04-19,4/19/2022,,S,,,,
Four Seasons Smoke Shop Inc,3501 Liverpool Rd,,Lake Station,IN,46405,US,,2199636369,,2019-11-07,,,S,,,,
Studio Vapes,1083 W Eads Pkwy,,Lawrenceburg,IN,47025,US,https://www.studiovapes.com/,8125371022,studiovapes@gmail.com,2014-09-02,10/19/2019,,V,,,,
"Your CBD Store - Lawrenceburg, IN",1051 W Eads Pkwy,,Lawrenceburg,IN,47025,US,https://cbdrx4u.com/,8125773253,cbd3507@gmail.com,2019-09-12,9/12/2019,Yes,C,CBD,,,
KC Vapor Studio,1375 S Lebanon St Suite 700,,Lebanon,IN,46052,US,,7654812162,kcvaporstudio@gmail.com,2019-12-17,12/17/2019,Yes,V,CBD,,,
Low Bob's Discount Tobacco,2310 N Lebanon St Ste E,,Lebanon,IN,46052,US,http://www.lowbob.com,7654839640,marketing@lowbob.com,2018-08-06,10/18/2019,Yes,S,CBD,,,
Vape 765,1616 N Lebanon St Ste 4,,Lebanon,IN,46052,US,,7658595144,thevaporroute@comcast.net,2017-08-20,1/18/2019,,V,,,,
Low Bob's Discount Tobacco,252 US-6 W,,Ligonier,IN,46767,US,http://www.lowbob.com,2608947129,marketing@lowbob.com,2018-08-06,10/17/2019,Yes,S,CBD,,,
812 Vapes,44 S Main St Ste B,,Linton,IN,47441,US,,8128477822,,2016-03-22,3/3/2019,,V,,,,
Discount Tobacco,3920 E Market St #100,,Logansport,IN,46947,US,,,,2019-10-03,6/26/2021,,T,,,,
LoVe's Gifts,525 S 3rd St,,Logansport,IN,46947,US,,5747020396,lovelovesstore@gmail.com,2020-01-04,,Yes,H,CBD,,,
Low Bob's Discount Tobacco,202 Burlington Ave,,Logansport,IN,46947,US,http://www.lowbob.com,5747378914,marketing@lowbob.com,2018-08-06,10/18/2019,Yes,S,CBD,,,
Skye Line Vape Lounge,136 W Commercial Ave,,Lowell,IN,46356,US,,2196903527,,2018-08-06,1/1/2020,Yes,V,CBD,,,
Smoke Shop,1934 E Commercial Ave,,Lowell,IN,46356,US,,2196968399,,2020-02-24,2/24/2020,,T,,,,
Blue Wolf Vape Shop,109 E Main St,,Madison,IN,47250,US,http://www.bluewolfvape.com/,8122659653,bluewolfvape@gmail.com,2016-08-08,3/3/2019,,V,,,,
Cloud City Vapes,3407 S Western Ave,,Marion,IN,46953,US,,7655734460,ccvapesfreedom@gmail.com,2016-06-23,4/7/2019,Yes,V,CBD,,,
Low Bob's Discount Tobacco,715 S Baldwin Ave,,Marion,IN,46953,US,http://www.lowbob.com,7655733222,marketing@lowbob.com,2018-08-06,10/17/2019,Yes,S,CBD,,,
Naptown Vapors - Martinsville,339 Morton Ave Ste B,,Martinsville,IN,46151,US,http://www.naptownvaporsindy.com/,7653150554,naptownvapors@yahoo.com,2019-07-03,7/3/2019,Yes,V,CBD,,,
Green Fields Trading Company,1901 Southlake Mall,,Merrillville,IN,46410,US,,2197561715,,2018-10-27,,,H,,,,
Vapin N Hobart,4931 E 81st Ave,,Merrillville,IN,46410,US,http://www.vapinnvalpo.com/,2199409814,vapinncustomerservice@gmail.com,2018-08-06,1/7/2020,Yes,V,CBD,,,
Vapor & More,26 W Lincoln Hwy,,Merrillville,IN,46410,US,,2199719211,,2018-08-06,1/7/2020,,V,,,,
Cigarette Discount Outlet,4211 Franklin St,,Michigan City,IN,46360,US,http://www.cdotobacconist.com/,2198793300,cdotobacconist@yahoo.com,2019-08-22,8/22/2019,Yes,S,CBD,,,
City Vape,2101 E Michigan Blvd,,Michigan City,IN,46360,US,,2198789790,,2022-04-28,4/28/2022,Yes,V,CBD,,,
Smoke Shop,2014 US-20,,Michigan City,IN,46360,US,,2198722200,,2020-02-24,,,S,,,,
Victory Vapes,2018 US-20,,Michigan City,IN,46360,US,http://victoryvapes.net/,2192624005,joe@victoryvapes.net,2018-09-30,1/9/2020,Yes,V,CBD,,,
Tobacco Town,50980 IN-13,,Middlebury,IN,46540,US,,5748257472,,2020-02-28,,Yes,S,CBD,,,
CravinVapes,713 W McKinley Ave,,Mishawaka,IN,46545,US,http://cravinvapes.com/,5742177746,mishawaka@cravinvapes.com,2018-08-06,1/12/2020,Yes,V,CBD,,,
Glass Roots,109 S Main St,,Mishawaka,IN,46544,US,http://glassrootsheadshop.com/,5748551376,glassrootshs@gmail.com,2018-12-28,,Yes,H,CBD,,,
Low Bob's Discount Tobacco,1401 Lincolnway E,,Mishawaka,IN,46544,US,http://www.lowbob.com,5742544959,marketing@lowbob.com,2018-08-06,10/17/2019,Yes,S,CBD,,,
Low Bob's Discount Tobacco,2426 Lincolnway W,,Mishawaka,IN,46544,US,http://www.lowbob.com,5742565286,marketing@lowbob.com,2018-08-06,10/17/2019,Yes,S,CBD,,,
Mega Liquor & Smoke Shop,3508 Lincolnway E,,Mishawaka,IN,46561,US,http://www.megaliquorandsmoke.com/,5744046455,,2020-01-09,,,T,,,,
Top Smokes,922 S Merrifield Ave,,Mishawaka,IN,46544,US,,5742178634,,2019-07-07,,,S,,,,
Smoker Friendly,108 N 13th St,,Mitchell,IN,47446,US,,8128496495,,2020-03-07,,Yes,S,CBD,,,
Smokers Host Discount Tobacco,302 W Broadway St,,Monticello,IN,47960,US,http://www.kocolene.com/,5745839366,,2020-03-13,,Yes,T,CBD,,,
Discover Vapin,231 E High St,,Mooresville,IN,46158,US,,3179611110,discovervapin@gmail.com,2015-05-12,4/7/2019,Yes,V,CBD,,,
Smokers Host Discount Tobacco,17 E South St,,Mooresville,IN,46158,US,,3178312151,,2019-10-01,,,T,,,,
Vapors Nirvana,405 N Samuel Moore Pkwy,,Mooresville,IN,46158,US,,3174833422,,2017-10-10,1/18/2019,Yes,V,CBD,,,
Bubba's Smoke Shop,2500 S Macedonia Ave,,Muncie,IN,47302,US,http://corner-smoke-shop-bubbas.business.site/,7652541294,,2019-08-31,,Yes,S,CBD,,,
Cardinal Vapor,2721 W Godman Ave,,Muncie,IN,47303,US,http://www.cardinalvaporco.com/,7652122336,cardinalvaporco@gmail.com,2018-08-09,2/1/2020,,V,,,,
Discount Tobacco,2117 W 8th St,,Muncie,IN,47302,US,,7652810289,,2019-09-18,,,T,,,,
Hempnotyx CBD And Smoke Shop,3301 N Milton St,,Muncie,IN,47304,US,,7652167439,,2018-12-03,6/30/2019,Yes,H,CBD,,,
Low Bob's Discount Tobacco,1716 E Memorial Dr,,Muncie,IN,47302,US,http://www.lowbob.com,7652811662,marketing@lowbob.com,2018-08-06,10/16/2019,Yes,S,CBD,,,
Low Bob's Discount Tobacco,1709 E Main St,,Muncie,IN,47305,US,http://www.lowbob.com,7652849161,marketing@lowbob.com,2018-08-06,10/18/2019,Yes,S,CBD,,,
Low Bob's Discount Tobacco,764 S Tillotson Ave,,Muncie,IN,47304,US,http://www.lowbob.com,7657478164,marketing@lowbob.com,2018-08-06,11/12/2018,Yes,S,CBD,,,
Low Bob's Discount Tobacco,2501 N Walnut St,,Muncie,IN,47303,US,http://www.lowbob.com,7652885764,marketing@lowbob.com,2018-08-06,10/18/2019,Yes,S,CBD,,,
Muncie CBD and Wellness by 5 Star Nutrition,806 E McGalliard Rd Ste C,,Muncie,IN,47303,US,https://5starnutritionusa.com/,7652122274,,2021-03-10,,Yes,O,CBD,,,
The Smoke Shop,1809 W University Ave,,Muncie,IN,47303,US,,7652737575,greenleaftobacco1@gmail.com,2018-12-18,,Yes,S,CBD,,,
Tobacco Depot,2200 W 8th St,,Muncie,IN,47302,US,,7652820291,,2019-07-07,,,S,,,,
White Dragon Vapor Lounge,819 E McGalliard Rd,,Muncie,IN,47304,US,,7652541655,whitedragonmuncie@gmail.com,2018-09-30,11/13/2018,,V,,,,
Wild Side Smoke Shop,1618 W University Ave,,Muncie,IN,47303,US,,7652843323,,2018-11-06,,Yes,S,CBD,,,
Cheap Tobacco,15 Ridge Rd,,Munster,IN,46321,US,,2198367680,,2019-08-02,,Yes,S,CBD,Yes,,
"Level up Vape, CBD, Hookah Munster",304 Ridge Rd,,Munster,IN,46321,US,https://levelupvapeshop.com/,2195139065,,2019-07-02,,Yes,S,CBD,,,
Munster Tobacco & Hookah,7950 Calumet Ave,,Munster,IN,46321,US,,2198366141,,2019-05-03,,,S,,,,
Tobacco Land,7910 Calumet Ave,,Munster,IN,46321,US,,2198366400,,2022-02-28,2/28/2022,,S,,,,
Cool Breeze Vapor,2615 Charlestown Rd,,New Albany,IN,47150,US,https://www.coolbreezevapor.com/,8129488007,coolbreezevapor@yahoo.com,2018-08-06,1/12/2020,Yes,V,CBD,,,
Derb E Cigs,2214 State St,,New Albany,IN,47150,US,http://derbecigs.com/,8127259013,sales@derbecigs.com,2018-10-21,,Yes,V,CBD,,,
Kaiser's Tobacco Store,326 Pearl St,,New Albany,IN,47150,US,,8129455671,,2019-12-24,,,T,,,,
New Cloud Vapor Lounge,4510 Charlestown Rd Suite 500,,New Albany,IN,47150,US,https://newcloudejuice.com/,8129448831,chriskingnewcloud@gmail.com,2018-08-06,12/30/2019,Yes,V,CBD,,,
Palliative Products CBD,931 State St,,New Albany,IN,47150,US,http://palliative.strangecraftdesign.com/,8127259331,palliativeproducts@yahoo.com,2021-02-14,,Yes,C,CBD,,,
Shifters Vapors,3417 Grant Line Rd #107,,New Albany,IN,47150,US,,8129200159,shiftersvapos@hotmail.com,2018-09-10,5/28/2020,Yes,V,CBD,,,
Smokeys Discount Tobacco,303 New Albany Plaza,,New Albany,IN,47150,US,,8129488193,,2020-03-20,,Yes,S,CBD,,,
Total CBD Shop,2866 Charlestown Rd,,New Albany,IN,47150,US,https://totalcbdshop.com/locations/indiana/new-albany/,8127258888,support@totalcbdshop.com,2021-04-16,11/17/2021,Yes,C,CBD,,,
Low Bob's Tobacco Central,314 Parkview Dr #A,,New Castle,IN,47362,US,http://www.lowbob.com/,7655295007,,2020-01-05,,,T,,,,
Smokers Best Friend,320 S 14th St,,New Castle,IN,47362,US,,7655299565,,2020-03-10,,Yes,S,CBD,,,
Vapor Asylum,1809 S Memorial Dr Ste A,,New Castle,IN,47362,US,,7653882780,,2019-06-01,,,V,,,,
"Your CBD Store - New Castle, IN",2020 S Memorial Dr Ste G,,New Castle,IN,47362,US,https://cbdrx4u.com/,7653882500,cbd3507@gmail.com,2019-09-12,9/12/2019,Yes,C,CBD,,,
Smoke & Vapor,308 W 37th Ave,,New Chicago,IN,46342,US,,2199636750,smokenvap@gmail.com,2018-08-06,11/16/2019,,S,,,,
Amazing Vapes,124 Lincoln Hwy W,,New Haven,IN,46774,US,http://fortwaynevapes.com/,2602450210,,2018-08-06,1/11/2020,Yes,V,CBD,,,
Smokey's Tobacco,1510 IN-64,,New Salisbury,IN,47161,US,,8123473161,,2020-03-20,,,T,,,,
CravinVapes - Newburgh,4222 Bell Rd Ste 3,,Newburgh,IN,47630,US,https://cravinvapes.com/,8124900509,support@cravinvapes.com,2019-04-02,4/2/2019,Yes,V,CBD,,,
Treasures & Pleasures,10722 IN-662,,Newburgh,IN,47630,US,,8128536490,treasuresandpleasures1118@hotmail.com,2020-12-09,,Yes,O,CBD,,,
Vapor Bank,838 State St,,Newburgh,IN,47630,US,http://www.vaporbank.com/,8129656260,info@vaporbank.com,2018-08-06,1/7/2020,Yes,V,CBD,,,
Vape & Smoke Niles,1926 S 11th St,,Niles,IN,49120,US,https://www.vapensmoke.com/,2692620656,vapensmokemedia@gmail.com,2018-08-06,4/15/2020,Yes,S,CBD,,,
Artisan Vapor & CBD,2650 Conner St,,Noblesville,IN,46060,US,https://artisanvaporandcbd.com/store/artisan-vapor-cbd-noblesville/,3172195797,info@artisanvaporcompany.com,2018-08-06,7/14/2021,Yes,V,CBD,,,
Low Bob's Discount Tobacco,2341 Conner St,,Noblesville,IN,46060,US,http://www.lowbob.com,3177732550,juannesmc@aol.com,2018-08-06,10/16/2019,Yes,S,CBD,,,
Nirvana's Closet,2325 Conner St,,Noblesville,IN,46060,US,https://nirvanacloset.com/,3177703311,info@nirvanacloset.com,2019-08-23,,Yes,H,CBD,,,
The Mill CBD - Noblesville,1990 Conner St,,Noblesville,IN,46060,US,https://thecbdmill.com/,3172195063,info@thecbdmill.com,2020-01-23,1/23/2020,Yes,C,CBD,,,
Vape and Wellness,170 Logan St,,Noblesville,IN,46060,US,https://www.vapeandwellness.com,3177648796,info@vapeandwellness.com,2018-12-28,,Yes,V,CBD,,,
Low Bob's Discount Tobacco,931 Lincolnway E,,Osceola,IN,46561,US,http://www.lowbob.com,5746794100,marketing@lowbob.com,2018-08-06,10/18/2019,Yes,S,CBD,,,
Lucky 7 Liquor,408 E Walnut St,,Owensville,IN,47665,US,,8127242881,lucky7liquorinc@gmail.com,2018-11-08,,Yes,S,CBD,,,
Smoker Friendly,401 SW 1st St,,Paoli,IN,47454,US,,8127235330,,2021-08-12,,Yes,S,CBD,,,
Black Swan Vapors,118 W State St,,Pendleton,IN,46064,US,http://www.blackswanvapors.com/,7657781170,info@blackswanvapors.com,2014-10-13,3/3/2019,Yes,V,CBD,,,
Low Bob's Discount Tobacco,1004 W Main St,,Peru,IN,46970,US,http://www.lowbob.com,7654724228,marketing@lowbob.com,2018-08-06,10/17/2019,Yes,S,CBD,,,
Peru Smoke Shop And Discount Tobacco,532 W Main St,,Peru,IN,46970,US,,7653272778,,2018-08-09,2/1/2020,Yes,S,CBD,,,
Smoke House,60 S Broadway,,Peru,IN,46970,US,http://smokehouse-tobaccoshop.business.site/,7654739917,,2020-02-18,,Yes,T,CBD,,,
Hometown CBD,1708 E Main St,,Plainfield,IN,46168,US,https://hometowncbd.org/,3174063983,hometowncbd@gmail.com,2021-02-07,,Yes,C,CBD,,,
Hoosier Vapor,150 N Perry Rd,,Plainfield,IN,46168,US,http://hoosiervapor.com/,3177077137,hoosiervapor@live.com,2017-10-10,1/18/2019,Yes,V,CBD,,,
Low Bob's Discount Tobacco,1704 E Main St,,Plainfield,IN,46168,US,http://www.lowbob.com,3178389612,marketing@lowbob.com,2018-08-06,10/17/2019,Yes,S,CBD,,,
Smokey Discount Tobacco,2316 E Main St,,Plainfield,IN,46168,US,http://smokey-discount-tobacco.business.site/,3172035773,,2020-03-17,3/17/2020,Yes,S,CBD,,,
US 40 Vapor Shop,1720 E Main St,,Plainfield,IN,46168,US,,3174063165,,2019-10-16,10/16/2019,Yes,V,CBD,Yes,,
Ecig-Works Plymouth,1913 N Michigan St Ste A,,Plymouth,IN,46563,US,https://www.ecig-works.com/,5746077713,juicemafia@gmail.com,2018-08-06,1/13/2020,Yes,V,CBD,,,
Karma Records,2856 Miller Dr,,Plymouth,IN,46563,US,,5749365840,karma2190@gmail.com,2018-12-28,,Yes,H,CBD,,,
Low Bob's Discount Tobacco,2111 N Michigan St,,Plymouth,IN,46563,US,http://www.lowbob.com,5749368561,marketing@lowbob.com,2018-08-06,10/18/2019,Yes,S,CBD,,,
Low Bob's Discount Tobacco,1212 W Jefferson St,,Plymouth,IN,46563,US,http://www.lowbob.com,5745402033,marketing@lowbob.com,2018-08-06,10/18/2019,Yes,S,CBD,,,
Village Vapors,2121 N Oak Dr,,Plymouth,IN,46563,US,https://www.villagevapors.net/,5749481119,,2019-06-06,,,V,,,,
Low Bob's Discount Tobacco,3456 Willow Creek Rd,,Portage,IN,46368,US,http://www.lowbob.com,2197636800,marketing@lowbob.com,2018-08-06,10/18/2019,Yes,S,CBD,,,
Smoke Shop,6346 Central Ave,,Portage,IN,46368,US,,2197641173,,2020-02-25,,,S,,,,
Vapin N Portage,5912 US-6,,Portage,IN,46368,US,http://www.vapinnvalpo.com/,2197633244,vapinncustomerservice@gmail.com,2018-08-06,8/11/2019,Yes,V,CBD,,,
Low Bob's Discount Tobacco,597 N Meridian St,,Portland,IN,47371,US,http://www.lowbob.com,2607664095,marketing@lowbob.com,2018-08-06,10/18/2019,Yes,S,CBD,,,
Up-N-Vapors,503 S Main St,,Princeton,IN,47670,US,http://upnvapors.com/,8123852999,up.n.vapors6@gmail.com,2019-10-16,,Yes,V,CBD,,,
Smoke Shop,492 S College Ave,,Rensselaer,IN,47978,US,,2198669991,,2020-02-25,,,S,,,,
Jerico Vapes & CBD,3650 E Main St,,Richmond,IN,47374,US,,9378335599,jericovapes@aol.com,2018-08-06,12/26/2019,Yes,V,CBD,,,
Low Bob's Discount Tobacco,1428 E Main St,,Richmond,IN,47374,US,,7659354538,,2019-12-08,12/8/2019,Yes,S,CBD,,,
Low Bob's Discount Tobacco,4746 National Rd E,,Richmond,IN,47374,US,http://www.lowbob.com,7659352202,marketing@lowbob.com,2018-08-06,10/17/2019,Yes,S,CBD,,,
Low Bob's Discount Tobacco,1723 National Rd W,,Richmond,IN,47374,US,http://www.lowbob.com,7659668064,marketing@lowbob.com,2018-08-06,10/18/2019,Yes,S,CBD,,,
Low Bob's Discount Tobacco,520 N A St,,Richmond,IN,47374,US,http://www.lowbob.com,7659660641,marketing@lowbob.com,2018-08-06,10/18/2019,Yes,S,CBD,,,
Royale Highness CBD Dispensary,1100 NW 5th St,,Richmond,IN,47374,US,https://royalehighness.org/,7654880410,,2021-01-20,,Yes,C,CBD,,,
Smoke Shop,811 E 9th St,,Rochester,IN,46975,US,,5742231692,,2020-02-25,,,T,,,,
Smoke Shop,5928 IN-10,,Roselawn,IN,46372,US,,2193453045,,2020-02-25,,,T,,,,
Cotton & Coils Vape Shop,10820 Wicker Ave,,Saint John,IN,46373,US,,2196273186,cottonandcoilsvapeshop@gmail.com,2016-12-06,4/7/2019,Yes,V,CBD,,,
Smokey's Discount Tobacco,1309 S Jackson St,,Salem,IN,47167,US,,8128834965,,2020-02-23,,Yes,S,CBD,,,
Smoke Shop,2120 US-41 #1,,Schererville,IN,46375,US,,2198642440,,2020-02-24,,Yes,S,CBD,,,
Tobacco Island,700 W US-30,,Schererville,IN,46375,US,https://www.tobaccoislandinc.com/,2194407764,tobaccoislandinc@gmail.com,2021-01-27,1/27/2021,Yes,S,CBD,,,
"Your CBD Store - Schererville, IN",2171 US-41,,Schererville,IN,46375,US,https://cbdrx4u.com/,2193223497,scherervillein@cbdrx4u.com,2019-09-12,9/12/2019,Yes,C,CBD,,,
Smoker Friendly,133 N Gardner St,,Scottsburg,IN,47170,US,,8127520059,,2020-03-07,,Yes,T,CBD,,,
Vapin Tonight LLC,1125 N Gardner St,,Scottsburg,IN,47170,US,,8128203353,,2019-08-11,,Yes,V,CBD,,,
Smokeys,7550 County Rd 311,,Sellersburg,IN,47172,US,,8122461494,,2019-10-09,,,S,,,,
Indiana Vapor Labs,109 N Chestnut St,,Seymour,IN,47274,US,https://indiana-vapor-labs-llc.business.site/,8125695311,,2014-09-30,1/28/2019,Yes,V,CBD,,,
Smoker Friendly,310 Burkart Blvd Ste A,,Seymour,IN,47274,US,,8125241933,,2020-03-06,,Yes,T,CBD,,,
The Herbal Alternative,2015 N Ewing St,,Seymour,IN,47274,US,https://www.theherbalalternatives.com/,8122711850,herblady@cinergymetro.net,2020-12-16,,Yes,C,CBD,,,
Hoosier E-Cig - Shelbyville,2406 IN-44,,Shelbyville,IN,46176,US,http://www.hoosierecig.com/,3178253199,,2019-04-26,,Yes,V,CBD,,,
Low Bob's Discount Tobacco,2503 IN-44,,Shelbyville,IN,46176,US,,3174210357,,2022-03-03,3/3/2022,,T,,,,
Low Bob's Discount Tobacco,1402 Miller Ave,,Shelbyville,IN,46176,US,http://www.lowbob.com,3176045232,marketing@lowbob.com,2018-08-06,10/18/2019,Yes,S,CBD,,,
Smokers Host,903 S Harrison St,,Shelbyville,IN,46176,US,,3173922991,,2019-05-16,,,S,,,,
Vape On,1205 IN-44,,Shelbyville,IN,46176,US,,3173922761,vapeon2014@yahoo.com,2018-08-06,6/12/2021,Yes,V,CBD,,,
ECig-Works,501 W McKinley Ave,,South Bend,IN,46545,US,https://www.ecig-works.com/,5742993530,juicemafia@gmail.com,2018-10-18,4/23/2019,Yes,V,CBD,,,
H*alt - Healthier Alternatives,3318 Mishawaka Ave,,South Bend,IN,46615,US,http://www.haltalternatives.com,5745201444,haltcbd@yahoo.com,2019-11-26,,Yes,C,CBD,,,
Low Bob's Discount Tobacco,4505 Ameritech Dr,,South Bend,IN,46628,US,http://www.lowbob.com,5742435392,marketing@lowbob.com,2018-08-06,10/16/2019,Yes,S,CBD,,,
Low Bob's Discount Tobacco,4411 S Ironwood Dr,,South Bend,IN,46614,US,http://www.lowbob.com,5742999705,marketing@lowbob.com,2018-08-06,10/16/2019,Yes,S,CBD,,,
Low Bob's Discount Tobacco,3623 E Mishawaka Ave,,South Bend,IN,46615,US,http://www.lowbob.com,5742830841,marketing@lowbob.com,2018-08-06,10/17/2019,Yes,S,CBD,,,
Low Bob's Discount Tobacco,2262 South Bend Ave,,South Bend,IN,46635,US,http://www.lowbob.com,5742777066,marketing@lowbob.com,2018-08-06,10/17/2019,Yes,S,CBD,,,
Low Bob's Discount Tobacco,928 Mayflower Cir Ste A,,South Bend,IN,46619,US,http://www.lowbob.com,5742345490,marketing@lowbob.com,2018-08-06,10/18/2019,Yes,S,CBD,,,
Low Bob's Discount Tobacco,2708 S Michigan St,,South Bend,IN,46614,US,http://www.lowbob.com,5742310267,marketing@lowbob.com,2018-08-06,10/18/2019,Yes,S,CBD,,,
Low Bob's Discount Tobacco,326 N Ironwood Dr,,South Bend,IN,46615,US,http://www.lowbob.com,5748554357,marketing@lowbob.com,2018-08-06,10/18/2019,Yes,S,CBD,,,
Mega Liquor & Smoke,3626 E Jefferson Blvd,,South Bend,IN,46615,US,http://www.megaliquorandsmoke.com/,5742877744,,2020-01-19,,,T,,,,
South Bend Smoke Time,1841 S Bend Ave,,South Bend,IN,46637,US,,5743184837,,2019-05-18,,,S,,,,
US 31 Tobacco,50552 IN-933,,South Bend,IN,46637,US,,5742435755,,2019-10-16,,Yes,T,CBD,,,
Vape & Smoke South Bend,1404 N Ironwood Dr,,South Bend,IN,46635,US,https://www.vapensmoke.com/,5743874932,vapensmokemedia@gmail.com,2018-08-06,4/15/2020,Yes,S,CBD,,,
Smoker Friendly Discount Tobacco #8,5821 Crawfordsville Rd,,Speedway,IN,46224,US,,3174811275,,2020-03-07,,Yes,T,CBD,,,
J C's Cigarette Outlet,1101 12th St,,Tell City,IN,47586,US,,8125477297,,2019-12-18,,,T,,,,
Cozmic Cloudz Vape Shop,2401 Lafayette Ave,,Terre Haute,IN,47805,US,,8128149177,info@cozmiccloudz.com,2017-03-13,1/16/2019,Yes,V,CBD,,,
IVape E-cigs,1703 S 7th St,,Terre Haute,IN,47802,US,,8122348111,,2018-07-24,7/30/2019,Yes,V,CBD,,,
Maxx Electronic Cigarettes,3401 US-41,,Terre Haute,IN,47802,US,http://www.maxxecigs.com,8122344800,,2018-10-23,,,V,,,,
Mr. Burnz Smoke Shop,1101 N 9th St,,Terre Haute,IN,47807,US,,8122357128,,2020-01-22,,,S,,,,
North Discount Tobacco,1555 Fort Harrison Rd,,Terre Haute,IN,47804,US,,8124663734,,2020-01-29,,,S,,,,
Smoke 'n Peace,421 Wabash Ave,,Terre Haute,IN,47807,US,http://www.smokenpeace.com/,8122358057,info@smokenpeace.com,2018-10-24,2/24/2019,Yes,S,CBD,,,
Smoker Friendly,620 E Springhill Dr,,Terre Haute,IN,47802,US,http://www.collettenterprises.com/,8122352623,,2019-05-14,5/14/2019,Yes,T,CBD,,,
Smoker Friendly,2501 S 3rd St,,Terre Haute,IN,47802,US,http://www.collettenterprises.com/,8129172558,,2019-05-14,,Yes,T,CBD,,,
Smoker Friendly Discount Tobacco,2300 Wabash Ave,,Terre Haute,IN,47807,US,http://www.collettenterprises.com/,8122355323,,2018-08-06,12/1/2019,Yes,T,CBD,,,
Valley Vapor,2219 Wabash Ave,,Terre Haute,IN,47807,US,,8122343856,thvalleyvapor@yahoo.com,2018-08-06,1/4/2020,Yes,V,CBD,,,
Vape Master Inc.,2512 Maple Ave,,Terre Haute,IN,47804,US,,8128149058,,2018-08-06,4/17/2020,,V,,,,
Vapor Bank,2801 S 3rd St,,Terre Haute,IN,47802,US,http://www.vaporbank.com/,8126450693,info@vaporbank.com,2018-08-06,1/7/2020,Yes,V,CBD,,,
Wabash Classic Tattoos & Piercing,1999 Fort Harrison Rd,,Terre Haute,IN,47804,US,https://wabashclassictattooandpiercing.com/,8129177400,wabashclassic@yahoo.com,2022-03-25,3/25/2022,Yes,O,CBD,,,
Cigarette Discount Outlet,2814 Calumet Ave,,Valparaiso,IN,46383,US,http://www.cdotobacconist.com/,2194772726,,2019-08-22,,,S,,,,
Red Carpet Smoke Shop,360 Lincolnway,,Valparaiso,IN,46383,US,,2192992350,,2020-02-08,,Yes,S,CBD,,,
Revolution Valparaiso,307 E Lincolnway Ste B,,Valparaiso,IN,46383,US,,2194642814,,2018-08-06,2/19/2020,Yes,H,CBD,,,
Smoke Shop,1401 E Lincolnway,,Valparaiso,IN,46383,US,,2194774877,,2020-02-23,,,T,,,,
Smoke Shop,392 US-6,,Valparaiso,IN,46385,US,,2197649197,,2020-02-25,,Yes,S,CBD,,,
Vapin N Valpo II,827 E Lincolnway,,Valparaiso,IN,46383,US,http://www.vapinnvalpo.com/,2192863175,vapinncustomerservice@gmail.com,2018-08-06,1/7/2020,Yes,V,CBD,,,
The Herbal Solution,189 IN-3,,Vernon,IN,47282,US,https://www.theherbalsolution.org/,8122009592,symons77@gmail.com,2020-07-18,,Yes,C,CBD,,,
Smoker Friendly,835 S Adams St,,Versailles,IN,47042,US,,8126094035,,2020-03-07,,Yes,T,CBD,,,
Affordable Vapor,1903 Washington Ave,,Vincennes,IN,47591,US,http://affordableflavors.com/,8125178005,,2018-10-27,,,V,,,,
Max Vapor,2101 N 6th St Ste E,,Vincennes,IN,47591,US,https://www.maxvaporstores.com/,8124942182,contact@maxvaporstores.com,2018-08-09,1/26/2020,Yes,V,CBD,,,
Purely Vapor,423 Main St,,Vincennes,IN,47591,US,https://www.purelyvapor.org/,8124942642,purelyvapor.in@gmail.com,2018-09-19,11/12/2018,,V,,,,
A to Z Discount II,1050 Cass St,,Wabash,IN,46992,US,,2605633900,,2022-01-24,1/24/2022,Yes,S,CBD,,,
A To Z Discount Tobacco,600 N Cass St,,Wabash,IN,46992,US,,2605699888,,2022-01-24,1/24/2022,Yes,S,CBD,,,
Cigarettes Plus,845 N Lake St,,Warsaw,IN,46580,US,,5742673166,,2019-08-25,8/25/2019,Yes,S,CBD,,,
CravinVapes,3302 Lake City Hwy,,Warsaw,IN,46580,US,,5743062777,warsaw@cravinvapes.com,2020-12-18,,Yes,V,CBD,,,
Karma Records of Warsaw,2606 Shelden St,,Warsaw,IN,46582,US,,5742672080,karma12@embarqmail.com,2018-12-22,,,H,,,,
Low Bob's Discount Tobacco,702 N Detroit St,,Warsaw,IN,46580,US,http://www.lowbob.com,5742680260,marketing@lowbob.com,2018-08-06,10/16/2019,Yes,S,CBD,,,
Purely Vapor,409 E Main St,,Washington,IN,47501,US,https://www.purelyvapor.org/,8126742248,purelyvapor.in@gmail.com,2018-10-27,10/27/2018,,V,,,,
Smokers Host Discount Tobacco,301 E National Hwy,,Washington,IN,47501,US,http://www.kocolene.com/,8122549082,,2020-03-13,3/13/2020,Yes,T,CBD,,,
7 Sins Vapor,360 Brown St,,West Lafayette,IN,47906,US,,7657433413,7sinsvapor47906@gmail.com,2016-05-20,3/1/2019,Yes,V,CBD,,,
Am/Pm General Store,208 South St,,West Lafayette,IN,47906,US,,7658388540,,2019-07-17,,,S,,,,
Amused Clothing,316 W State St,,West Lafayette,IN,47906,US,http://www.amusedclothing.com/,7657438733,amclothing@yahoo.com,2018-06-04,7/18/2019,Yes,S,CBD,,,
West Lafayette Smoke Shop,135 S Chauncey Ave,,West Lafayette,IN,47906,US,,7658381445,,2019-06-06,6/6/2019,Yes,S,CBD,,,
Wild Side Smoke Shop,111 S River Rd Ste C,,West Lafayette,IN,47906,US,,7657433561,,2018-11-01,11/1/2018,,S,,,,
Indy E Cigs,783 E Main St,,Westfield,IN,46074,US,http://indyecigs.com/,3178045377,info@indyecigs.com,2018-10-17,,,V,,,,
"Your CBD Store - Westfield, IN",17435 Carey Rd Ste A,,Westfield,IN,46074,US,https://cbdrx4u.com/,3178051223,westfieldin@cbdrx4u.com,2019-09-12,9/12/2019,Yes,C,CBD,,,
Vapor Blast,400 Tracy Rd #9,,Whiteland,IN,46184,US,,3175302025,,2019-10-12,,,V,,,,
Smoke Shop,823 S Monticello St,,Winamac,IN,46996,US,,5749466100,,2020-02-25,2/25/2020,,T,,,,
B & D Tobacco Outlet,637 E Washington St,,Winchester,IN,47394,US,,7655842703,bdtobaccooutlet@hotmail.com,2019-07-21,11/1/2019,Yes,S,CBD,,,
Four Seasons Vape and CBD,9141 E 109th Ave,,Winfield,IN,46307,US,https://www.fourseasonsvape.com/,2192264216,fourseasonsvape1@gmail.com,2021-01-06,,Yes,V,CBD,,,
Village Vapors,720 E Canal St,,Winona Lake,IN,46590,US,http://lakehousesurf.com/,5742656945,jdenglan@yahoo.com,2018-09-30,,,V,,,,
CBD Advantage,213 S Main St,,Zionsville,IN,46077,US,https://naturalcbdadvantage.com/,3173442987,,2020-11-23,,Yes,C,CBD,,,
Naturely CBD,11036 N Michigan Rd #110,,Zionsville,IN,46077,US,https://www.naturelycbd.com/,3179735322,info@naturelycbd.com,2021-03-02,4/6/2022,Yes,C,CBD,,,