Shop Name,Address 1,Address 2,City,State/Province,Zip/Postcode,Country,Website,Phone,Email,Added,Updated,CBD,Biz Type,MJ,Kratom,Buyer name ,Title 
Big Dream Organics,1723 W Main St,,Albert Lea,MN,56007,US,https://bigdreamorganics.com/,5074380676,bigdreamorganics@gmail.com,2020-11-19,,Yes,C,CBD,,,
Tobacco Store,2312 Hendrickson Rd,,Albert Lea,MN,56007,US,,5073770177,albertleatobaccostore@gmail.com,2019-05-24,2020-03-09,Yes,S,CBD,,,
Albertville Tobacco and Vapor,11008 61st St NE Ste 1005,,Albertville,MN,55301,US,,7634971511,avtobacco@gmail.com,2019-07-16,,Yes,S,CBD,,,
EBacco,410 30th Ave E Ste 104,,Alexandria,MN,56308,US,http://www.ebaccocigs.com,3202196585,,2018-10-21,2018-10-21,,V,,,,
Infinite Vapor Alexandria,1402 Broadway St #3,,Alexandria,MN,56308,US,http://www.infinitevapor.com/,3207668273,alexandria@infinitevapor.com,2017-10-31,2021-06-16,Yes,V,CBD,,,
King Tobacco,4617 MN-29,,Alexandria,MN,56308,US,,3202197490,,2019-12-04,2019-12-04,Yes,S,CBD,,,
CBD RS,13650 Hanson Blvd NW #104,,Andover,MN,55304,US,,7632054394,,2020-11-29,,Yes,C,CBD,,,
Pure X-Hale,15190 Bluebird St NW Ste 104,,Andover,MN,55304,US,https://www.purex-hale.com/,7634326803,purexhale11@gmail.com,2018-10-24,2021-04-12,Yes,V,CBD,Yes,,
House of Oilworx,1919 2nd Ave,,Anoka,MN,55303,US,https://houseofoilworx.com/,6124407060,admin@houseofoilworx.com,2021-02-08,,Yes,C,CBD,,,
The eCig Shop,530 W Main St #7A,,Anoka,MN,55303,US,http://www.ecigshopmn.com/,7632084718,,2018-08-06,2020-01-02,Yes,V,CBD,,,
Tobacco Valley,7539 148th St W,,Apple Valley,MN,55124,US,https://avtobaccoandvape.com,9524313000,,2019-01-06,,,S,,,,
Arden Hills Tobacco,3673 Lexington Ave N,,Arden Hills,MN,55126,US,http://ardenhillstobacco.com,6517668885,,2018-06-10,2018-10-13,,T,,Yes,,
Dick's Headshop,12 E 3rd Ave N,,Aurora,MN,55705,US,,2185658013,,2018-11-06,,,H,,,,
Austin Tobacco,1004 18th Ave NW Ste C,,Austin,MN,55912,US,,5074331603,austintobacco@gmail.com,2019-07-20,,,S,,,,
Superior Cannabis Company,125 Main St N,,Austin,MN,55912,US,https://www.superiorcannabiscompany.com/,5074381000,jbrinkman@superiorcannabiscompany.com,2020-12-26,,Yes,C,CBD,,,
King Tobacco Baxter,14695 Edgewood Dr N,,Baxter,MN,56425,US,,2188299661,,2019-07-01,,,S,,Yes,,
Pure X-Hale,15175 Edgewood Dr Ste 110,,Baxter,MN,56401,US,,2182703240,purexhale11@gmail.com,2018-08-06,2019-12-31,Yes,V,CBD,,,
Good Spirits & Smoke,13850 1st St Ste 3,,Becker,MN,55308,US,http://www.goodspiritsandsmoke.com/,7632614445,goodspiritsandsmoke@gmail.com,2019-08-13,,,S,,,,
Belle Plaine Tobacco Vape & CBD,109 N Meridian St,,Belle Plaine,MN,56011,US,https://belle-plaine-tobacco-vape-cbd.business.site/,5076071396,belleplainetobacco@gmail.com,2022-01-18,2022-01-18,Yes,T,CBD,Yes,,
CBD of Bemidji,119 Paul Bunyan Dr NW,,Bemidji,MN,56601,US,https://www.cbdbemidji.com/,2182092349,bemidjihempdropz@gmail.com,2020-11-27,,Yes,C,CBD,,,
Happy 420 Merch,114 4th St NW,,Bemidji,MN,56601,US,,2184445543,contactus@happy420merch.com,2021-11-02,2021-11-02,Yes,H,CBD,,,
Northland Vapor Company & CBD,1500 Bemidji Ave N,,Bemidji,MN,56601,US,https://northlandvapor.com/,2184442992,info@northlandvapor.com,2021-02-22,2021-02-22,Yes,V,CBD,,,
Smokes4less,550 Paul Bunyan Dr NW,,Bemidji,MN,56601,US,,2183333733,,2019-10-10,2021-07-08,Yes,S,CBD,,,
Big Lake Smoke Shop,635 Rose Dr,,Big Lake,MN,55309,US,http://www.biglakesmokeshop.com/,7632620069,info@biglakesmokeshop.com,2019-07-24,2019-07-24,,T,,,,
Smokedale Tobacco,726 Martin Ave Ste 108,,Big Lake,MN,55309,US,http://smokedaletobacco.com/,7632078214,info@smokedaletobacco.com,2019-01-27,2019-01-27,Yes,S,CBD,,,
Blaine Smoke Shop (Tobacco And More),10549 University Ave NE,,Blaine,MN,55434,US,,7637672849,blainesmokeshop@gmail.com,2019-07-26,2019-07-26,,S,,,,
Blaine Tobacco Store,12523 Central Ave NE,,Blaine,MN,55434,US,,7637552263,,2018-10-14,2019-07-26,,S,,,,
Central Tobacco,1430 93rd Ln NE,,Blaine,MN,55449,US,,7637171716,,2018-10-15,,,T,,,,
E-Cig Smoke,11724 Ulysses St Ste 100,,Blaine,MN,55434,US,http://www.ecig-smoke.com/,7634441770,vapemodwars1@gmail.com,2019-01-27,2019-01-27,Yes,V,CBD,,,
E-Cig Zone,1061 109th Ave,,Blaine,MN,55434,US,http://ecigzone.net/,7634007690,ivapevapor1@gmail.com,2018-08-06,2019-01-27,Yes,V,CBD,,,
ELIFE CBD and Healthy Living,1536 125th Ave NE,,Blaine,MN,55449,US,,7637104530,healthylivingminnesota@gmail.com,2014-09-04,2019-12-16,Yes,V,CBD,,,
House of Oilworx,244 Northtown Dr NE,,Blaine,MN,55434,US,https://houseofoilworx.com/,6124407060,admin@houseofoilworx.com,2021-02-08,2021-07-04,Yes,C,CBD,,,
Tobacco & VapeCenter,10519 University Ave NE,,Blaine,MN,55434,US,,7637556251,,2019-07-26,2019-07-26,,S,,,,
Time Zone CBD,14350 15th St SE,,Blomkest,MN,56216,US,https://time-zone-health-consultant.business.site/,3208940205,timezonecbd@gmail.com,2020-12-08,,Yes,C,CBD,,,
Discover CBD,5214 W 84th St,,Bloomington,MN,55437,US,https://www.discovercbdmn.com/,9528310813,info@discovercbdmn.com,2019-10-08,2019-10-08,Yes,C,CBD,,,
Oxboro Tobacco,9860 Lyndale Ave S,,Bloomington,MN,55420,US,,9528872085,,2019-06-19,,,T,,,,
Smokeless,8563 Lyndale Ave S,,Bloomington,MN,55420,US,https://www.shopsmokeless.com/,8557655766,nathan@smokelessmn.com,2018-08-06,2019-06-29,Yes,V,CBD,,,
Biotanica CBD Store,704 W Washington St,,Brainerd,MN,56401,US,https://www.biotanicacbdstore.com/,2182702240,biotanicalivingbrainerd@gmail.com,2020-11-19,,Yes,C,CBD,,,
Cornerstone Liquor,817 Washington St,,Brainerd,MN,56401,US,http://cornerstoneliquor.com/,2184540544,,2019-09-01,,Yes,S,CBD,,,
Lakes Vape & Rec Supply,718 Laurel St,,Brainerd,MN,56401,US,,2188332447,mnsmokefree@gmail.com,2019-04-24,,,V,,,,
Risky Business Novelties and Videos,326 Washington St,,Brainerd,MN,56401,US,,2188299361,,2019-11-04,,,O,,,,
Tobacco Den,627 Washington St NE,,Brainerd,MN,56401,US,,2188223550,,2019-01-06,,,S,,,,
Vapor North,328 Washington St,,Brainerd,MN,56401,US,http://www.vapornorth.us/,2184548273,vapornorthus@gmail.com,2014-09-25,2019-01-28,Yes,V,CBD,,,
Cloud 9 Smoke Shop,615 66th Ave N Ste 5,,Brooklyn Center,MN,55430,US,,7632835061,,2019-08-26,,Yes,S,CBD,,,
Royal Tobacco,5625 Xerxes Ave N,,Brooklyn Center,MN,55430,US,http://royaltobacco.com/,7635662277,bctobacco@hotmail.com,2019-12-04,,Yes,S,CBD,,,
Brooklyn Smokes,8563 Edinburgh Centre Dr,,Brooklyn Park,MN,55443,US,,7634938966,,2022-01-05,2022-01-05,Yes,S,CBD,Yes,,
E-Vapor and Tobacco,4658 85th Ave N,,Brooklyn Park,MN,55443,US,https://evaporshopmn.com/,7634241414,info@evaporshopmn.com,2018-08-06,2018-11-10,,V,,,,
eCig Market,8413 W Broadway Ave,,Brooklyn Park,MN,55445,US,http://www.ecigmarket.com/,7634007174,info@ecigmarket.com,2018-09-30,,,V,,,,
Love Is An Ingredient,6276 Boone Ave N #A,,Brooklyn Park,MN,55428,US,https://loveisaningredient.com/,7635690986,hello@loveisaningredient.com,2021-11-13,2021-11-13,Yes,C,CBD,,,
Moes BP Smoke Shop,7635 W Broadway Ave,,Brooklyn Park,MN,55428,US,,7636577729,,2020-01-09,,,S,,,,
Buffalo Smoke Shop,605 Hwy 55 #101,,Buffalo,MN,55313,US,,7636842425,,2019-07-29,,,S,,,,
Smokin' Monkey,209 5th St N,,Buffalo,MN,55313,US,http://www.thesmokinmonkey.com/live/,7632761089,info@thesmokinmonkey.com,2018-09-30,,,V,,,,
"Your CBD Store - Buffalo, MN",1008 Commercial Dr #2A,,Buffalo,MN,55313,US,https://cbdrx4u.com/,8446267,buffalomn@cbdrx4u.com,2019-09-13,2019-09-13,Yes,C,CBD,,,
Burnsville Smoke Shop,2001 Cliff Rd E Ste 101,,Burnsville,MN,55337,US,,9524442610,,2018-10-21,2019-12-02,Yes,S,CBD,Yes,,
Infinite Vapor Burnsville,2010 County Rd 42 W,,Burnsville,MN,55337,US,http://www.infinitevapor.com/,9528981060,burnsville@infinitevapor.com,2018-08-06,2019-05-14,Yes,V,CBD,,,
Nicollet Tobacco Vape & CBD,13716 Nicollet Ave,,Burnsville,MN,55337,US,,9523035882,tobacconicollet@gmail.com,2020-02-05,,Yes,S,CBD,Yes,,
Sky High Tobacco Vape & CBD,14619 Co Rd 11,,Burnsville,MN,55337,US,,9522613999,tobaccoskyhigh@gmail.com,2022-01-18,2022-01-18,Yes,S,CBD,Yes,,
Smokeless,1607 County Rd 42 W,,Burnsville,MN,55306,US,https://www.shopsmokeless.com/,6122174550,nathan@smokelessmn.com,2018-08-06,2020-05-13,Yes,V,CBD,,,
Tobacco & Cigar Outlet Plus,1278 County Rd 42 W,,Burnsville,MN,55337,US,,9524058348,,2020-05-13,,,T,,,,
Cambridge Tobacco,1870 2nd Ave SE,,Cambridge,MN,55008,US,,7636899100,,2018-10-15,,,T,,,,
Pure X-Hale Cambridge,1001 1st Ave E Ste 130,,Cambridge,MN,55008,US,,7636911277,,2019-08-25,,Yes,V,CBD,,,
Champlin Smoke Shop,11350 Aquila Dr N Ste 305,,Champlin,MN,55316,US,https://champlinsmokeshop.com/,7639513940,champlinsmoke@gmail.com,2022-03-18,2022-03-18,Yes,S,CBD,Yes,,
Greenleaf Vape & Tobacco,600 Market St Ste 120,,Chanhassen,MN,55317,US,https://www.greenleaftobaccoandecig.com/,9522971394,nptobacco1@gmail.com,2019-06-30,2019-06-30,Yes,S,CBD,Yes,,
Chaska Smoke Shop & Vape,148 Pioneer Trail,,Chaska,MN,55318,US,https://chaska-smoke-shop-vape.business.site/,9522072140,,2019-08-02,2020-12-02,Yes,S,CBD,,,
Nothing But Hemp,820 Yellow Brick Rd,,Chaska,MN,55318,US,https://www.nothingbuthemp.net/,9524260156,tyson@chaskacbd.com,2021-02-22,,Yes,C,CBD,,,
Lindstrom Tobacco,11488 Brink Ave,,Chisago City,MN,55045,US,,6512579163,,2019-12-28,,Yes,S,CBD,Yes,,
Northway Tobacco,9149 S Hwy Dr,,Circle Pines,MN,55014,US,,7637846696,,2020-01-31,2020-01-31,,S,,,,
Vapors Paradise,9330 Lexington Ave NE,,Circle Pines,MN,55014,US,,7632835947,,2019-10-01,,Yes,V,CBD,,,
Brothers Smoke & More,710 Clearwater Brothers Smoke,,Clearwater,MN,55320,US,https://brothers-smoke-more.business.site/,3205587878,brothers@brotherssmoke.com,2022-01-05,2022-01-05,Yes,S,CBD,Yes,,
Lakeshore Tobacco Vapor,903 Cloquet Ave,,Cloquet,MN,55720,US,https://www.lakeshoretobaccovapor.com/,2188793995,lakeshoretobaccovapor@gmail.com,2019-12-28,,Yes,S,CBD,,,
North Country Comfort,6 N 14th St,,Cloquet,MN,55720,US,https://northcountrycomfort.com/,2188794375,info@northcountrycomfort.com,2021-02-25,,Yes,C,CBD,,,
Love is an Ingredient,4110 Central Ave NE,,Columbia Heights,MN,55421,US,https://loveisaningredient.com/,7635690986,hello@loveisaningredient.com,2021-11-13,2021-11-13,Yes,C,CBD,,,
Sarah's Tobacco Shoppe,4329 Central Ave NE,,Columbia Heights,MN,55421,US,http://www.sarahstobacco.com/,7637882700,sarahstobaccoshoppe@gmail.com,2018-10-21,2019-02-21,Yes,S,CBD,,,
E-Cig Cafe,3450 124th Ave NW Ste 103,,Coon Rapids,MN,55433,US,,7636006318,ecigcafe@gmail.com,2018-10-18,2019-03-13,Yes,V,CBD,,,
ECig Crib,3027 Coon Rapids Blvd NW,,Coon Rapids,MN,55433,US,http://www.ecigcrib.com/,7634216200,ecigcribcsr@gmail.com,2018-10-18,2018-10-18,,V,,,,
Hideaway Outlet,4135 Coon Rapids Blvd NW,,Coon Rapids,MN,55433,US,https://thehideawayonline.com/,7632088397,hideawaymn@gmail.com,2018-08-06,2019-09-24,Yes,S,CBD,Yes,,
Tobacco Shop,12475 Riverdale Blvd Ste D,,Coon Rapids,MN,55433,US,,7633237868,,2020-04-29,2020-04-29,Yes,S,CBD,Yes,,
Twin City Vapor,12075 Hanson Blvd NW,,Coon Rapids,MN,55448,US,http://www.tcvapor.com/,7637677275,tcvapor@gmail.com,2018-09-30,,,V,,,,
"Your CBD Store - Coon Rapids, MN",13055 Riverdale Dr Ste 200,,Coon Rapids,MN,55448,US,https://cbdrx4u.com/,7637775629,coonrapidsmn@cbdrx4u.com,2019-09-13,2019-09-13,Yes,C,CBD,,,
Cottage Grove Tobacco,8461 E Point Douglas Rd S,,Cottage Grove,MN,55016,US,,6514594091,cottagegrovetobbaco@gmail.com,2019-08-08,,Yes,T,CBD,,,
Crystal Tobacco & Cigar Outlet Plus,123 Willow Bend,,Crystal,MN,55428,US,,7635042384,,2019-06-13,,,S,,,,
Down in The Valley,5586 W Broadway Ave,,Crystal,MN,55428,US,http://www.downinthevalley.com,7635339690,support@downinthevalley.com,2019-01-06,,Yes,H,CBD,,,
DL Tobacco,611 Washington Ave,,Detroit Lakes,MN,56501,US,,2188473883,,2019-09-02,,,S,,Yes,,
Masterpiece Alternatives,119 Lake Ave,,Detroit Lakes,MN,56501,US,http://masterpiecevapors.net/,2188442012,info@masterpiecevapors.net,2018-09-30,2022-04-04,Yes,V,CBD,,,
Mellow Mood,517 Washington Ave,,Detroit Lakes,MN,56501,US,https://mellowmood.com/,2188471099,mellowmoodpipes@gmail.com,2018-09-13,,Yes,H,CBD,,,
Annex Novelty Shop,316 N Central Ave,,Duluth,MN,55807,US,https://annexnoveltyshop.com/,2184610622,,2018-11-02,2018-11-02,,H,,,,
Duluth Smoke Shop And Vapes,2232 Mountain Shadow Dr,,Duluth,MN,55811,US,,2187249728,,2019-06-13,2020-12-25,Yes,S,CBD,,,
Legacy Glassworks,32 W 1st St,,Duluth,MN,55802,US,http://legacyglassworks.com/,2187200747,info@legacyglassworks.com,2018-12-26,,Yes,H,CBD,,,
Sadi's Smoke Shop,1631 London Rd,,Duluth,MN,55812,US,https://sadissmokeshop.com/,2186061631,,2019-07-03,2019-12-20,Yes,S,CBD,,,
Superior Cannabis Company,339 Canal Park Dr,,Duluth,MN,55802,US,https://www.superiorcannabiscompany.com/,2184817145,jbrinkman@superiorcannabiscompany.com,2020-12-26,,Yes,C,CBD,,,
Sutherland CBD,4431 E Superior St,,Duluth,MN,55803,US,https://sutherlandcbd.com/,2184641002,family@sutherlandcbd.com,2020-11-23,,Yes,C,CBD,,,
West Duluth Smokeshop,4602 Grand Ave,,Duluth,MN,55811,US,,2186240799,mwazwaz75@gmail.com,2019-06-13,,Yes,S,CBD,,,
Cliff Lake Tobacco,1960 Cliff Lake Rd,,Eagan,MN,55122,US,,6514932969,,2022-03-25,2022-03-25,Yes,S,CBD,Yes,,
e-Cig Xcape,1960 Cliff Lake Rd Ste 106,,Eagan,MN,55122,US,http://www.ecigxcape.com/,6513488295,,2018-08-06,2019-12-16,,V,,,,
Eagan Cigars & Tobacco Store,3450 Pilot Knob Rd,,Eagan,MN,55122,US,,6514542475,,2019-10-22,2019-10-22,,S,,Yes,,
United Tobacco & Vape #1,4250 Lexington Ave S Ste 105,,Eagan,MN,55123,US,https://unitedtobaccovape1.business.site/,6513583848,,2022-02-18,2022-02-18,Yes,S,CBD,Yes,,
Vape Genius & CBD,3406 Federal Dr,,Eagan,MN,55122,US,https://www.vapegeniusmn.com/,6513301773,,2020-01-05,2020-01-05,Yes,V,CBD,,,
CBD of EGF,130 Gateway Dr NE,,East Grand Forks,MN,56721,US,https://www.thehempdropzstore.com/,2183990184,signaturewellnessmn@gmail.com,2020-11-27,,Yes,C,CBD,,,
Mellow Mood,1506 Central Ave NE,,East Grand Forks,MN,56721,US,https://mellowmood.com/,2187739997,mellowmoodpipes@gmail.com,2018-09-13,,Yes,H,CBD,,,
1 Life CBD Products,8251 Flying Cloud Dr,,Eden Prairie,MN,55344,US,https://1lifeproducts.com,6124261976,customerservice@1lifeproducts.com,2020-11-14,,Yes,C,CBD,,,
Your CBD Store,5051 France Ave S,,Edina,MN,55410,US,https://cbdrx4u.com/find-us/minnesota/edina,6122364080,edina636@cbdrx4u.com,2021-06-04,,Yes,C,CBD,,,
Sacred Leaf MN,316 Jackson Ave NW,,Elk River,MN,55330,US,https://sacredleafmn.business.site/,7632677141,sacredleafmn@yahoo.com,2021-01-14,,Yes,C,CBD,,,
Smokes 4 Less,19112 Freeport St,,Elk River,MN,55350,US,,7632418322,,2019-01-06,,Yes,S,CBD,,,
Jes Naturals CBD Wellness,370 Water St,,Excelsior,MN,55331,US,https://www.jesnaturals.com/,9529136973,support@jesnaturals.com,2021-02-16,,Yes,C,CBD,,,
Shorewood Cigars and Vapor,23710 MN-7,,Excelsior,MN,55331,US,https://shorewood-cigars-and-tobacco.business.site/,9524744732,shorewoodcigars@gmail.com,2020-02-16,,Yes,S,CBD,Yes,,
Smokey's Tobacco Shop,1245 Goemann Rd,,Fairmont,MN,56031,US,http://www.smokeystobaccoshop.com/,5072384483,,2020-03-20,,Yes,S,CBD,Yes,,
Holy Smoke Tobacco,328 4th St NW,,Faribault,MN,55021,US,,5073238444,,2019-06-26,,,T,,,,
Smoke Shop Of Faribo,2250 MN-60,,Faribault,MN,55021,US,,5073304561,,2020-07-05,,,T,,,,
King Tobacco,3304 MN-210,,Fergus Falls,MN,56537,US,,2189981788,,2019-12-04,,Yes,S,CBD,Yes,,
Lincoln Vapors,212 1/2 W Lincoln Ave,,Fergus Falls,MN,56537,US,,2185312345,info@lincolnavevapors.com,2019-08-19,,Yes,V,CBD,,,
Big Apple Cigar & Pipe,955 W Broadway Ave,,Forest Lake,MN,55025,US,http://www.bigappleglobal.com/,6519821080,bigappleglobalsales@gmail.com,2019-07-24,,Yes,T,CBD,,,
Fog E-Cig Forest Lake,2009 W Broadway Ave Ste 700,,Forest Lake,MN,55025,US,,6512725275,,2019-11-02,,Yes,V,CBD,,,
Forest Lake Tobacco,221 12th St SW,,Forest Lake,MN,55025,US,,6514640868,,2019-11-07,,,T,,,,
LiquiVape,67 S Lake St,,Forest Lake,MN,55025,US,https://www.liquivapeus.com/,6519822700,liquivapeus1@gmail.com,2018-08-06,2019-12-28,Yes,V,CBD,,,
Nothing But Hemp,143 Lake St N,,Forest Lake,MN,55025,US,https://www.nothingbuthemp.net/,6519821550,team@nothingbuthemp.net,2021-02-22,2021-02-22,Yes,C,CBD,,,
Discover CBD,8000 Olson Memorial Hwy,,Golden Valley,MN,55427,US,https://www.discovercbdmn.com/,7635450893,discovercbdmn@gmail.com,2019-10-08,,Yes,C,CBD,,,
Down in The Valley,8020 Olson Memorial Hwy,,Golden Valley,MN,55427,US,http://www.downinthevalley.com,7635440033,brandon@downinthevalley.com,2019-01-06,,Yes,H,CBD,,,
Grand Rapids Wellness Center,201 NW 4th St #119,,Grand Rapids,MN,55744,US,https://www.grandrapidswellnesscenter.com/,2183980143,info@grandrapidswellnesscenter.com,2021-01-14,,Yes,C,CBD,,,
Health Connection Of Minnesota,8 3rd St NE,,Grand Rapids,MN,55744,US,https://www.healthconnectionminnesota.com/,2183981323,denise@myhc.life,2020-07-04,,Yes,C,CBD,,,
Tobacco Den,603 S Pokegama Ave,,Grand Rapids,MN,55744,US,,2183278964,,2019-01-06,,Yes,S,CBD,,,
E-Cig Clubhouse,13743 Aberdeen Street NE,,Ham Lake,MN,55304,US,https://ecigclubhouse.com/,7632700040,ecigclubhouse@gmail.com,2018-10-16,2018-10-16,,V,,,,
Ham Lake Tobacco,1444 147th Ave NE Ste 450,,Ham Lake,MN,55304,US,https://hamlaketobacco.com,7636570821,amaarouf@hamlaketobacco.com,2021-01-21,2021-01-21,Yes,S,CBD,Yes,,
Hastings Tobacco,1769 Market Blvd,,Hastings,MN,55033,US,http://hastingstobacco.com/,6514372335,hastingstobacco@gmail.com,2019-11-21,,,T,,,,
Westview Tobacco,1355 S Frontage Rd Ste 420,,Hastings,MN,55033,US,http://westviewtobacco.com/,6513190348,wtobaccocustomers@gmail.com,2022-02-24,2022-02-24,Yes,S,CBD,Yes,,
Lake Effect Vapor,4120 Richard Ave,,Hermantown,MN,55811,US,http://lakeeffectvapor.com/,2187238273,info@lakeeffectvapor.com,2018-08-06,2019-12-28,Yes,V,CBD,,,
Lakeshore Tobacco Vapor,103 E Howard St,,Hibbing,MN,55746,US,https://www.lakeshoretobaccovapor.com/,2182638637,lakeshoretobaccovapor@gmail.com,2019-12-28,2019-12-28,Yes,S,CBD,,,
Range Tobacco,302 E Howard St Ste 201,,Hibbing,MN,55746,US,,2182637519,,2019-12-28,2020-11-12,,S,,,,
Tobacco Den,4124 9th Ave W,,Hibbing,MN,55746,US,,2184401160,tara@thetobaccoden.com,2020-06-12,2020-06-12,Yes,S,CBD,,,
Sarah's Tobacco Shoppe,825 45th Ave NE,,Hilltop,MN,55421,US,http://www.sarahstobacco.com/,7632769696,sarahstobaccoshoppe@gmail.com,2018-10-21,2019-02-21,Yes,S,CBD,,,
Lickity Spliff,321 Fire Monument Rd,,Hinckley,MN,55712,US,https://greenmonkey.us,3203847060,sales@greenmonkey.us,2021-11-01,2021-11-01,Yes,H,CBD,,,
Super Smokes,107 Grindstone Ct,,Hinckley,MN,55037,US,,3203846202,,2020-04-14,,Yes,S,CBD,Yes,,
Back Door Tobacco,813 Mainstreet,,Hopkins,MN,55343,US,https://backdoortobacco.business.site/,9529333377,,2018-10-14,2021-06-17,Yes,S,CBD,,,
US Grocery & Tobacco,520 Blake Rd N,,Hopkins,MN,55343,US,,9529330133,,2019-10-16,2019-10-16,Yes,S,CBD,,,
Vaping Studio,811 Main St,,Hopkins,MN,55343,US,http://vapingstudio.com/,9529338273,vapingstudio@hotmail.com,2018-08-06,2020-01-07,Yes,V,CBD,,,
Centerville Tobacco,1869 Main St,,Hugo,MN,55038,US,,6517625737,,2022-03-17,2022-03-17,Yes,S,CBD,Yes,,
Hutch Tobacco & Cigars,725 Baltimore Ave SW,,Hutchinson,MN,55350,US,http://www.smokeshophutchinson.com,3204559021,hutchtobacco@gmail.com,2018-11-24,,,S,,,,
Smokes 4 Less,114 Main St N,,Hutchinson,MN,55350,US,,3205874449,,2019-01-06,,,S,,,,
Cahill Smoke Shop,7806 Cahill Ave,,Inver Grove Heights,MN,55076,US,,6514550970,,2019-07-30,2019-07-30,,T,,,,
Inver Grove Vape & Tobacco,6570 Cahill Ave E,,Inver Grove Heights,MN,55076,US,http://invergrovetabacco.com/,6514550118,invergrovetobacco@gmail.com,2019-12-16,2019-12-16,Yes,S,CBD,,,
The Vapour Shoppe,5854 Blaine Ave E,,Inver Grove Heights,MN,55076,US,https://www.vapourindustries.com/,6514515910,info@thevapourshoppe.com,2019-11-02,,Yes,V,CBD,,,
The CBD Joint,801 MN-65,,Isanti,MN,55040,US,https://thecbdjointmn.com/,7634445308,,2020-12-21,,Yes,C,CBD,Yes,,
Mora Tobacco & E-cig,295 W Main St,,Isle,MN,56342,US,,3203641132,,2020-01-11,,,S,,,,
Strains LLC,415 Broadway St S Unit 140,,Jordan,MN,55352,US,https://www.strainsllc.com/,9522155252,strainsllc@gmail.com,2022-03-17,2022-03-17,Yes,C,CBD,,,
Lakeville Vape & Tobacco,17648 Kenwood Trail,,Lakeville,MN,55044,US,http://lakevillevaportobacco.com/,9528985577,,2019-12-30,2019-12-30,Yes,S,CBD,Yes,,
Remedy Bar,20757 Holyoke Ave,,Lakeville,MN,55044,US,https://www.remedy.bar/,9524699498,contact@remedy.bar,2021-02-03,,Yes,C,CBD,,,
The Vermillion River Store,8343 210th St W,,Lakeville,MN,55044,US,http://www.vermillionriverejuice.com/,9523784441,,2018-09-13,,,V,,,,
Vape City Tobacco,11276 210th St W #101,,Lakeville,MN,55044,US,,9526839204,,2018-08-06,2020-04-15,Yes,S,CBD,Yes,,
Vape Genius & CBD,17729 Kenwood Trl,,Lakeville,MN,55044,US,https://www.vapegeniusmn.com/,9528927156,,2018-08-06,2020-01-05,Yes,V,CBD,,,
Lino Lakes Tobacco,717 Apollo Dr #110,,Lino Lakes,MN,55014,US,https://website-1649227435388648661128-tobaccoshop.business.site/,6517567586,,2022-05-12,2022-05-12,Yes,S,CBD,,,
CBD Store Releaf Ology,53 E Broadway Ste B,,Little Falls,MN,56345,US,http://www.releafology.com/,3203607140,releafology@gmail.com,2020-12-01,,Yes,C,CBD,,,
Pure X-Hale,1936 1st Ave NE,,Little Falls,MN,56345,US,,3204141510,,2019-08-25,2019-12-31,,V,,,,
Herb N Legend,218 E Main St,,Luverne,MN,56156,US,http://www.herb-n-legend.com/,5074499570,herb-n-legend@hotmail.com,2019-01-06,,Yes,H,CBD,,,
Fog E-Cig,3144 Century Ave N,,Mahtomedi,MN,55115,US,http://fogecig.com/,6513633543,,2018-08-06,2019-12-21,Yes,V,CBD,,,
ECig Crib,1730 Madison Ave,,Mankato,MN,56001,US,http://www.ecigcrib.com/,5077206744,ecigcribcsr@gmail.com,2018-08-06,2019-12-16,,V,,,,
Rush Smokes & Liquor,2112 Hoffman Rd,,Mankato,MN,56001,US,https://rushsmokesandliquor.com/,5077792112,beer@rushliquor.com,2021-01-14,,Yes,S,CBD,,,
Smokers Choice,340 Stadium Rd Ste 100,,Mankato,MN,56001,US,https://smokerschoice.co/,5073861063,,2020-03-03,2020-03-03,Yes,S,CBD,Yes,,
Smokes 4 Less,1130 S Riverfront Dr,,Mankato,MN,56001,US,,5073857799,,2019-01-06,,Yes,S,CBD,,,
The CBD Centers,285 St Andrews Dr #100,,Mankato,MN,56001,US,https://www.thecbdcenters.com/,5073176745,matt@mwhfarms.com,2020-12-20,,Yes,C,CBD,,,
Down in The Valley,13633 Grove Dr,,Maple Grove,MN,55369,US,http://www.downinthevalley.com,7634207451,support@downinthevalley.com,2019-01-06,,Yes,H,CBD,,,
E Cig City & Cigars,16387 County Rd 30,,Maple Grove,MN,55311,US,,7634007629,,2022-04-01,2022-05-02,Yes,S,CBD,Yes,,
eCig Market,13619 Grove Dr,,Maple Grove,MN,55311,US,https://www.ecigmarket.com/maple-grove-vape-shop/,7632734985,info@ecigmarket.com,2018-10-21,2019-02-21,Yes,V,CBD,,,
The CBD Gurus,11635 Fountains Dr,,Maple Grove,MN,55369,US,https://www.thecbdgurus.com/,6124128343,thecbdgurus@gmail.com,2020-12-21,,Yes,C,CBD,,,
Maplewood Tobacco & Ecig,2515 White Bear Ave N,,Maplewood,MN,55109,US,,6512093409,,2018-10-12,,,T,,,,
Nothing But Hemp,3001 White Bear Ave #46,,Maplewood,MN,55109,US,https://www.nothingbuthemp.net/,6513309810,team@nothingbuthemp.net,2021-02-22,,Yes,C,CBD,,,
Simply Vapour,1703 Cope Ave E Ste C,,Maplewood,MN,55109,US,https://www.simplyvapour.com/,6513951323,info@simplyvapour.com,2019-11-04,,,V,,,,
GM Tobacco & Super Vapor,1113 E College Dr #5,,Marshall,MN,56258,US,,5074013760,,2019-11-14,,,S,,,,
Smokedale Tobacco,2521 Hils Ct Ste D,,Menomonie,MN,54751,US,http://smokedaletobacco.com/,7153092877,info@smokedaletobacco.com,2019-01-27,2019-09-23,Yes,S,CBD,,,
419 Hemp Kiosk,722 W Lake St,,Minneapolis,MN,55408,US,https://419-hemp.com/,6123542854,,2019-08-19,,Yes,C,CBD,,,
Anthony's Pipe & Cigar Lounge,907 W Lake St,,Minneapolis,MN,55408,US,https://cigarshopminneapolis.com/,6123454388,info@cigarsbaseball.com,2019-07-18,,,T,,,,
Bloomington Smoke Shop,3701 W Old Shakopee Rd Ste 250,,Minneapolis,MN,55431,US,,9522770975,,2019-07-26,,,T,,,,
CBD Heath and Wellness,https://www.hwlounge.com/,,Minneapolis,MN,55411,US,https://www.hwlounge.com/,6128222417,info@hwlounge.com,2020-12-03,,Yes,C,CBD,,,
Clown Glass,2114 Lyndale Ave S,,Minneapolis,MN,55405,US,http://www.clownglass.com/,6128706211,clownglassinc@gmail.com,2019-01-06,,Yes,H,CBD,,,
"Dark Horse Vapors, Inc.",5522 W Broadway Ave,,Minneapolis,MN,55428,US,,7635359790,,2018-08-14,2020-02-10,,V,,,,
Day 2 Day,1715 E Lake St,,Minneapolis,MN,55407,US,https://www.day2daytobacco.com/,8303990891,amanuel100@yahoo.com,2019-09-07,,Yes,S,CBD,Yes,,
Dick's Vape Shop,7777 MN-65,,Minneapolis,MN,55432,US,http://www.dicksvapeshop.com/,7634639807,,2014-10-02,2019-03-12,Yes,V,CBD,,,
Green Machine,2409 Nicollet Ave,,Minneapolis,MN,55404,US,https://greenmachinemn.com/,6123674447,,2019-01-06,2019-01-06,Yes,H,CBD,,,
Hideaway,1309 4th St SE,,Minneapolis,MN,55414,US,https://thehideawayonline.com/,6123311554,hideawaymn@gmail.com,2018-08-06,2019-09-24,Yes,S,CBD,Yes,,
Infinite Vapor Uptown,1400 Lagoon Ave,,Minneapolis,MN,55408,US,http://www.infinitevapor.com/,6123547852,uptown@infinitevapor.com,2018-08-06,2019-12-25,Yes,V,CBD,,,
Infinity Smokes Inc.,814 Hennepin Ave,,Minneapolis,MN,55403,US,https://www.infinitysmokes.com/,6123339071,infinity.smokes@gmail.com,2019-12-16,2019-12-16,,S,,Yes,,
Know Name Records,6009 Portland Ave S,,Minneapolis,MN,55419,US,http://www.knowname.com/,6128691070,knowname@knowname.com,2018-11-05,,,H,,,,
Legacy Glassworks,2928 Lyndale Ave S,,Minneapolis,MN,55408,US,http://legacyglassworks.com,6129683724,legacyglassworks@gmail.com,2018-11-04,,,H,,,,
Minneapolis Tobacco and Vapor,4614 Nicollet Ave,,Minneapolis,MN,55419,US,,6128244305,,2020-01-21,,Yes,S,CBD,Yes,,
Nothing But Hemp,617 W Lake St,,Minneapolis,MN,55408,US,https://www.nothingbuthemp.net/,6513309810,team@nothingbuthemp.net,2021-02-22,,Yes,C,CBD,,,
Plymouth Cigars and Tobacco,16605 County Rd 24,,Minneapolis,MN,55447,US,,7632735085,plymouthcigars@gmail.com,2019-07-16,2019-07-16,,S,,,,
Royal Cigar Tobacco,403 14th Ave SE,,Minneapolis,MN,55414,US,,6123317250,,2020-02-11,,,S,,,,
Royal Tobacco,2835 Hennepin Ave S,,Minneapolis,MN,55408,US,,6128740994,,2019-12-04,,Yes,S,CBD,Yes,,
Simply Crafted CBD,726 Central Ave NE,,Minneapolis,MN,55414,US,https://www.simplycraftedcbd.com/,8334211404,info@simplycraftedcbd.com,2020-10-31,2021-03-21,Yes,C,CBD,,,
Smoke And Vape,2311 37th Ave NE,,Minneapolis,MN,55421,US,https://website--539535025356076550484-tobaccoshop.business.site/,6127887400,,2020-02-17,,Yes,S,CBD,Yes,,
Smokeless,514 E Hennepin Ave,,Minneapolis,MN,55414,US,https://www.shopsmokeless.com/,6122174550,info@smokelessmn.com,2018-08-06,2019-06-29,Yes,V,CBD,,,
Stigma Hemp,250 3rd Ave N #130,,Minneapolis,MN,55401,US,https://stigmahemp.com/,6123289966,info@stigmahemp.com,2021-01-01,,Yes,C,CBD,,,
Tobacco Concepts,455 99th Ave NW #210,,Minneapolis,MN,55433,US,http://www.tobaccoconcepts.com/,7637843763,,2019-12-23,,,S,,,,
Tobacco Outlet Depot Plus,2501 University Ave NE,,Minneapolis,MN,55418,US,,6127826940,,2019-06-25,2019-06-25,Yes,S,CBD,,,
Tobacco Outlet Plus,2311 18th Ave NE,,Minneapolis,MN,55428,US,,6122081886,,2019-12-04,,,S,,,,
Uptown Tobacco & E-Cigs,1408 W Lake St,,Minneapolis,MN,55408,US,,6123542218,,2019-06-26,2019-06-26,Yes,S,CBD,Yes,,
USA Smoke Shop,4739 Hiawatha Ave,,Minneapolis,MN,55406,US,,6123536943,,2022-02-03,2022-02-03,Yes,S,CBD,Yes,,
1 Life Ridgedale CBD,12611 Wayzata Blvd,,Minnetonka,MN,55305,US,https://1liferidgedale.com,6512302014,contact@1liferidgedale.com,2020-11-14,2020-11-14,Yes,C,CBD,,,
Cloud X Vapes,10988 Cedar Lake Rd,,Minnetonka,MN,55305,US,https://cloud-x-vapes.business.site/,7637035166,,2020-12-10,,Yes,V,CBD,,,
E-Cig Pod,14645 Excelsior Blvd,,Minnetonka,MN,55345,US,https://ecigpod.com/,9529319900,ecigpod@gmail.com,2018-10-21,2018-10-21,,V,,,,
Tobacco Store,13025 Ridgedale Dr,,Minnetonka,MN,55305,US,,9525450707,,2019-12-10,,,T,,,,
Twisted Vape Shop,546 SW 1st St,,Montevideo,MN,56265,US,https://www.twistedvape.shop/,3203212279,info@twistedvape.shop,2019-11-17,2020-01-26,Yes,S,CBD,,,
Up In Smoke Shop,1209 Black Oak Ave,,Montevideo,MN,56265,US,,,,2020-12-11,,Yes,S,CBD,,,
AR Vapes,509 MN-25,,Monticello,MN,55362,US,http://www.arvapesmn.com/,7633140766,arvapesmn@yahoo.com,2019-07-18,,,V,,,,
Montys Smoke Shop,1220 MN-25 #116,,Monticello,MN,55362,US,,7632955005,,2020-01-08,2022-02-10,Yes,S,CBD,Yes,,
Alpine Hemp,115 8th St S,,Moorhead,MN,56560,US,https://alpinehemp.com/,2183594675,info@alpinehemp.com,2020-11-17,,Yes,C,CBD,,,
Homegrown Hookah,1825 Main Ave SE,,Moorhead,MN,56560,US,,2182333315,,2019-12-02,,Yes,T,CBD,,,
Mother's,431 Main Ave,,Moorhead,MN,56560,US,,2182879601,mothersmn@gmail.com,2018-11-28,,,H,,,,
Northland Vapor Company,115 8th St S,,Moorhead,MN,56560,US,https://northlandvapor.com/,2183594675,info@northlandvapor.com,2018-08-06,2019-12-30,Yes,V,CBD,,,
Crested River Cannabis Company,79 Vernon Ave,,Morgan,MN,56266,US,https://criver.cc/,6123676757,info@criver.cc,2020-12-19,,Yes,C,CBD,,,
Atheim Vapor Lounge,10 E 6th St Ste 101,,Morris,MN,56267,US,,3205890009,atheimvapor@gmail.com,2018-06-10,2019-06-22,Yes,V,CBD,,,
Smokes 4 Less,2185 Commerce Blvd,,Mound,MN,55364,US,,9524725222,,2020-03-16,,,S,,,,
Midwest Tobacco and Vapor,2400 County Rd E,,New Brighton,MN,55112,US,https://midwest-tobacco-and-vapor.business.site/,6516364366,,2020-01-20,2020-01-20,Yes,S,CBD,Yes,,
Midwest Vapers,2206 Silver Lake Rd NW,,New Brighton,MN,55112,US,http://www.midwestvapers.com/,6516331722,midwestvapers@gmail.com,2018-08-06,2019-12-29,,V,,,,
E-Cig Vape Lounge,9430 36th Ave N,,New Hope,MN,55427,US,,7637105834,,2018-08-06,2020-01-13,,V,,,,
New Hope Smoke Shop,2767 Winnetka Ave N,,New Hope,MN,55427,US,,7635409355,,2020-01-27,2020-01-27,Yes,S,CBD,Yes,,
New Prague Tobacco and E-Cigs Center,215 Chalupsky Ave SE,,New Prague,MN,56071,US,,9527584388,,2020-01-27,2020-01-27,Yes,S,CBD,,,
New Prague Tobacco Downtown,122 Main St E,,New Prague,MN,56071,US,https://new-prague-tobacco.business.site/,9527585644,newpraguetobacco@gmail.com,2018-11-04,2020-01-27,Yes,S,CBD,,,
Smokes Plus,1704 Westridge Rd,,New Ulm,MN,56073,US,,5073594859,,2019-10-10,,,S,,,,
Cloud X Vapes And CBD,5843 Old Main St #1,,North Branch,MN,55056,US,,6516746266,,2020-12-02,,Yes,V,CBD,,,
Vapers Paradise,6118 Main St,,North Branch,MN,55056,US,,6512435171,,2014-09-28,2019-03-13,Yes,V,CBD,,,
Tip Top Tobacco,1710 Commerce Dr #130,,North Mankato,MN,56003,US,,5076255104,,2020-05-06,2020-05-06,Yes,S,CBD,Yes,,
Downtown Tobacco,429 Division St S,,Northfield,MN,55057,US,,5073013578,,2018-11-29,,,S,,,,
Tobacco Field,1100 MN-3,,Northfield,MN,55057,US,,5076457477,,2018-11-28,2018-11-28,,S,,Yes,,
The Smoke Shack,14375 60th St N Ste F,,Oak Park Heights,MN,55082,US,https://www.smokeshackmn.com/,6514479204,logan.smokeshack@gmail.com,2019-10-31,,Yes,H,CBD,,,
Hideaway,1185 Geneva Ave N,,Oakdale,MN,55128,US,https://thehideawayonline.com/,6514932680,hideawaymn@gmail.com,2018-08-06,2019-09-24,Yes,S,CBD,Yes,,
Smokedale Tobacco,7141 10th St N,,Oakdale,MN,55128,US,http://smokedaletobacco.com/,6517389511,info@smokedaletobacco.com,2019-01-27,2019-01-27,,S,,,,
Biotanica CBD Store,9125 Quaday Ave NE,,Otsego,MN,55330,US,https://www.biotanicacbdstore.com/,7635951225,biotanicaliving@gmail.com,2020-11-19,,Yes,C,CBD,,,
Big Dream Organics,216 W Bridge St,,Owatonna,MN,55060,US,https://bigdreamorganics.com/,5074569713,bigdreamorganics@gmail.com,2020-11-19,,Yes,C,CBD,,,
Owatonna Tobacco and Vapor,641 W Bridge St,,Owatonna,MN,55060,US,,5074512460,owatonnatobacco@gmail.com,2019-09-14,2019-09-14,Yes,S,CBD,,,
Smoke N Vape,1407 S Oak Ave,,Owatonna,MN,55060,US,https://owatonna-smoke-n-vape.business.site/,5074136714,,2020-02-19,,Yes,S,CBD,Yes,,
Masterpiece Alternatives,138 W Main St Ste E,,Perham,MN,56573,US,http://masterpiecevapors.net/,2183467547,info@masterpiecevapors.net,2014-12-06,2022-04-04,Yes,V,CBD,,,
Pine City Tobacco Inc.,635 13th St SW #3,,Pine City,MN,55063,US,,3206296559,,2019-11-22,2019-11-22,Yes,S,CBD,,,
Prince Tobacco,106 N Rum River Dr,,Princeton,MN,55371,US,,7633899999,,2020-02-05,,Yes,S,CBD,,,
Cloud X Vapes And CBD,13939 St Francis Blvd NW,,Ramsey,MN,55303,US,,7634323002,,2020-12-10,,Yes,V,CBD,,,
E-Cig Warehouse,6111 US-10 #500,,Ramsey,MN,55303,US,,7632084062,cassyecw@gmail.com,2018-10-16,2018-10-16,,V,,,,
Ohm Premier Vaping,7876 Sunwood Dr NW Ste 100B,,Ramsey,MN,55303,US,,7636571772,clouds@ohmpremiervaping.com,2018-08-06,2019-12-30,Yes,V,CBD,,,
Ramsey Smoke Shop,14050 St Francis Blvd NW Ste E,,Ramsey,MN,55303,US,http://www.ramseysmokeshop.com/,7633231444,ramseysmokeshop@outlook.com,2019-12-13,,,T,,,,
Red Wing Smoke Shop,170 Tyler Rd S,,Red Wing,MN,55066,US,,6513883333,,2019-09-21,,Yes,T,CBD,,,
Golden Tobacco,22 W 66th St,,Richfield,MN,55423,US,http://golden-tobacco.business.site/,6128695551,,2019-11-14,,,S,,Yes,,
Richfield Tobacco and E Cigarettes,6419 Penn Ave S,,Richfield,MN,55423,US,,6122080416,,2020-02-09,2020-02-09,,S,,,,
Sota Boys Smoke Shop,7610 Lyndale Ave S Ste 100,,Richfield,MN,55423,US,http://www.sotaboyssmoke.com,6125455539,istaylowkey@icloud.com,2021-12-14,2021-12-14,Yes,S,CBD,,,
Smoke Shop,4080 W Broadway Ave #157,,Robbinsdale,MN,55422,US,,7635356866,,2020-02-25,,,S,,,,
Vapor Bunker,4066 Lakeland Ave N,,Robbinsdale,MN,55422,US,http://www.vaporbunker.com/,7635356611,vaporbunker@gmail.com,2018-08-06,2020-01-07,Yes,V,CBD,,,
Apollo Liquor & Smokeshop,1513 US-14,,Rochester,MN,55904,US,,5072521300,,2019-07-18,,Yes,T,CBD,,,
Broadway Smoke Shop,1922 S Broadway,,Rochester,MN,55904,US,https://www.rochestervapeshop.com/,5072060675,broadwaysmokeshop18@gmail.com,2022-01-05,2022-01-05,Yes,S,CBD,,,
CBD of Rochester,2116 Broadway Ave S,,Rochester,MN,55904,US,https://www.cbdhempdropz.com/,5073226616,cbdhempdropz@gmail.com,2020-11-27,2020-11-27,Yes,C,CBD,,,
Downtown Intimates,220 1st Ave SW,,Rochester,MN,55902,US,,5072521997,,2019-09-27,,Yes,S,CBD,Yes,,
Med City Vapors,1111 7th St NW,,Rochester,MN,55901,US,,5072585052,medcityvapor@gmail.com,2018-08-06,2022-01-05,Yes,V,CBD,Yes,,
Rochester Smoke Shop,3456 55th St NW,,Rochester,MN,55901,US,,5075357444,rochestersmokeshop@gmail.com,2018-11-01,,Yes,S,CBD,,,
The CBD Centers,102 17th Ave NW,,Rochester,MN,55901,US,https://www.thecbdcenters.com/,5072084096,rochester107@thecbdcenters.com,2022-01-10,2022-02-18,Yes,C,CBD,,,
The Melting Clock,3020 N Broadway Ave Ste 200,,Rochester,MN,55906,US,http://www.themeltingclock.net/,5072268189,themeltingclocksmokeshop@gmail.com,2019-10-31,2019-10-31,Yes,H,CBD,Yes,,
Tobacco Discounts,401 16th Ave NW,,Rochester,MN,55901,US,,5072810055,,2019-11-07,,,T,,,,
Tony's Tobacco Shop,440 Crossroads Dr,,Rochester,MN,55902,US,,5075297444,,2020-02-01,,Yes,S,CBD,Yes,,
CBD Wellness,14165 James Rd,,Rogers,MN,55374,US,,7632601696,tcbdwellness@gmail.com,2020-06-28,,Yes,C,CBD,,,
Smoke Shop E-Cig 101,14165 James Rd Ste 116,,Rogers,MN,55374,US,https://smokeshopecig101.business.site/,7634200977,info@shopecig101.com,2018-10-18,2022-03-29,Yes,S,CBD,Yes,,
Greenleaf Vape & Tobacco,3816 150th St W,,Rosemount,MN,55068,US,https://www.greenleaftobaccoandvapor.com/,6514233344,,2021-01-18,,Yes,S,CBD,,,
Hideaway,16040 Cedar Ave S,,Rosemount,MN,55068,US,https://thehideawayonline.com/,9524326777,hideawaymn@gmail.com,2018-08-06,2019-09-24,Yes,S,CBD,Yes,,
Discount Smoke Shop,2113 Snelling Ave N,,Roseville,MN,55113,US,https://website-718387709494742635660-tobaccoshop.business.site/,6518882996,,2022-01-21,2022-01-21,Yes,S,CBD,Yes,,
Mainstream CBD,1595 MN-36 #10,Rosedale Center,Roseville,MN,55113,US,https://www.mainstreamcbd.com/,7636882799,sales@mainstreamcbd.com,2021-03-17,,Yes,C,CBD,,,
Roseville Smoke Shop,1732 Lexington Ave N,,Roseville,MN,55113,US,https://roseville-smoke-shop.business.site/,6514894028,,2020-02-11,,Yes,S,CBD,Yes,,
Buddha Glass,40 14th Ave NE,,Saint Cloud,MN,56304,US,http://stcloudbuddhaglass.com/,3204285028,stcloudbuddhaglass@gmail.com,2018-11-20,,Yes,H,CBD,,,
Mr Nice Guys,616 2nd St S,,Saint Cloud,MN,56301,US,http://www.mrniceguysglass.com,3206747777,info@mrniceguysglass.com,2019-01-03,,Yes,H,CBD,Yes,,
Downtown Tobacco,381 Minnesota St,,Saint Paul,MN,55101,US,,6512245534,downtownsmokeshopmn@gmail.com,2019-09-17,,Yes,S,CBD,Yes,,
East Side Tobacco,962 Burr St Ste 1,,Saint Paul,MN,55130,US,http://www.eastsidetobacco.com,6515286788,info@eastsidetobacco.com,2020-05-15,,,S,,,,
Imperial Vapor,227 N Snelling Ave,,Saint Paul,MN,55104,US,https://www.imperialvaporstpaul.com/,6518026615,imperialvapormn@gmail.com,2015-11-30,2019-01-06,,V,,,,
Kellys Smoke Shop,567 Stryker Ave,,Saint Paul,MN,55107,US,,6512076400,kellysmokeshop@gmail.com,2018-11-02,,Yes,S,CBD,,,
Maharaja's Gifts,205 7th St W,,Saint Paul,MN,55102,US,https://www.maharajasmn.com/,6512921623,mahajarasstpaul@gmail.com,2018-11-30,,Yes,H,CBD,Yes,,
White Bear Tobacco & E-cigs,1662 White Bear Ave N,,Saint Paul,MN,55106,US,http://whitebeartobacco.com/,6517717313,info@whitebeartobacco.com,2022-01-10,2022-01-10,,S,,,,
ProFusion CBD + Wellness of Sauk Centre,965 Main St S Ste 103,,Sauk Centre,MN,56378,US,https://www.profusioncbd.com/,3203524208,profusioncbd@hotmail.com,2021-02-08,,Yes,C,CBD,,,
Savage Tobacco,14101 MN-13,,Savage,MN,55378,US,http://www.savagetobacco.com/,9522262800,savagetobacco@gmail.com,2018-11-01,2019-06-21,Yes,S,CBD,,,
Scandia Tobacco,21190 Ozark Ave N,,Scandia,MN,55073,US,http://scandiatobacco.weebly.com,6514334145,scandiatobacco@gmail.com,2019-07-06,2019-08-05,Yes,S,CBD,Yes,,
Tobacco Express,1148 Vierling Dr E,,Shakopee,MN,55379,US,,9522331564,,2019-01-06,,,S,,,,
Top Star Market,615 Marschall Rd,,Shakopee,MN,55379,US,,9524454611,,2019-07-07,,,S,,Yes,,
Grounded Gardens,317 Main St W,,Silver Lake,MN,55381,US,https://groundedgardensmn.com/,6122323527,groundedgardensllc@gmail.com,2021-01-18,,Yes,C,CBD,,,
Sam's Tobacco,211 13th Ave S,,South St Paul,MN,55075,US,http://samstobaccossp.com/,6514551632,samstobaccossp@aol.com,2019-10-19,2021-07-06,Yes,S,CBD,Yes,,
Buzz Tobacco,8185 University Ave NE,,Spring Lake Park,MN,55432,US,,7637849092,,2019-07-29,,,S,,Yes,,
CBD of St. Cloud,3417 W Division St,,St Cloud,MN,56301,US,https://stcloudcbdhempdropz.com/,3207743303,thecbdstorestcloud@gmail.com,2020-11-27,,Yes,C,CBD,,,
King Tobacco,101 County Rd 120 #300,,St Cloud,MN,56303,US,,3207742560,,2019-12-04,2019-12-04,Yes,S,CBD,,,
ProFusion CBD of St Cloud,10 Washington Memorial Dr,,St Cloud,MN,56301,US,https://profusioncbdstcloud.com/,3202515800,,2021-02-08,,Yes,C,CBD,,,
Smart CBD,106 Lincoln Ave SE,,St Cloud,MN,56304,US,https://smartcbdmn.com/,3202309898,,2021-01-11,,Yes,C,CBD,,,
Smoke Shop,1501 1st St S,,St Cloud,MN,56301,US,,3206541729,,2020-02-23,,Yes,S,CBD,,,
St Cloud Tobacco Shop,3333 Division St Ste 118,,St Cloud,MN,56301,US,,3202297422,,2019-11-28,,Yes,S,CBD,,,
Beyond & Tobacco,898 Arcade St,,St Paul,MN,55106,US,,6517723333,,2019-07-24,,,S,,,,
Go Get It Tobacco,2484 University Ave W,,St Paul,MN,55114,US,http://gogetittobacco.com/,6128369229,gogetittobacco@gmail.com,2019-07-16,,Yes,S,CBD,,,
Greenwolf Hemp and Organics,55 5th St E,,St Paul,MN,55101,US,https://greenwolfho.com/,6513408576,greenwolfho@gmail.com,2021-01-18,,Yes,C,CBD,,,
Little Canada Smoke Shop & Specialties LLC,27 Little Canada Rd E,,St Paul,MN,55117,US,,6514867997,,2020-01-04,2020-01-04,,S,,,,
Maryland Tobacco,1375 Maryland Ave E,,St Paul,MN,55106,US,,6517937182,,2020-01-07,,Yes,S,CBD,Yes,,
Midway Tobacco Outlet Plus,1418 University Ave W,,St Paul,MN,55104,US,http://midwaytobaccomkt.com/,6516443701,,2019-08-23,2019-08-23,,T,,,,
MSP Tobacco and Vapor,2439 7th St W,,St Paul,MN,55116,US,https://tobacco-tobacco-shop.business.site/,6516996747,,2020-01-23,2021-06-30,Yes,S,CBD,Yes,,
New Smokes,1700 Rice St #H,,St Paul,MN,55113,US,http://new-smokes.business.site/,6514891867,,2020-01-28,2021-07-03,Yes,S,CBD,,,
Nothing But Hemp,844 Grand Ave Ste 1,,St Paul,MN,55105,US,https://www.nothingbuthemp.net/,6513309810,team@nothingbuthemp.net,2021-02-22,2021-11-14,Yes,C,CBD,,,
Smokes Vapor Zone,2111 Old Hudson Rd,,St Paul,MN,55101,US,,6517889156,smokesvaporzone@gmail.com,2019-06-24,,,S,,,,
Tobacco Store,65 George St W,,St Paul,MN,55107,US,,6512920900,,2020-03-04,2020-03-04,,T,,,,
Tobacco View,2539 County Hwy 10,,St Paul,MN,55112,US,,7637861533,,2020-02-19,,Yes,S,CBD,,,
Vape Pro's & CBD,681 Snelling Ave N,,St Paul,MN,55104,US,https://www.vapepros.net/,6513288273,vapeprosmn@gmail.com,2018-08-06,2020-01-05,Yes,V,CBD,,,
Smokers Choice,1226 S Minnesota Ave,,St Peter,MN,56082,US,http://www.smokerschoiceusa.com/,5079344807,,2020-03-11,,Yes,S,CBD,,,
Stephen Conlin's the BUZZ LLC,943 Wabasha Ave,,St. Charles,MN,55972,US,,5079327026,buzzheadshop@gmail.com,2018-12-20,,Yes,H,CBD,,,
MegaVapes,822 W St Germain St,,St. Cloud,MN,56301,US,http://megavapesstcloud.com,3202533532,megavapes@centurylink.net,2018-09-30,,,V,,,,
Smokin' Monkey,64 33rd Ave S,,St. Cloud,MN,56301,US,http://www.thesmokinmonkey.com/live/,3207741777,info@thesmokinmonkey.com,2018-09-30,,,V,,,,
Sacred Grounds Tobacco & E-Cig,30962 Fenway Ave N Ste 500,,Stacy,MN,55079,US,,6514628877,stacytobacco@hotmail.com,2014-10-09,2018-12-24,,S,,,,
Pure Pleasure,2727 US-63,,Stewartville,MN,55976,US,,5075339000,,2021-01-21,2021-01-21,,S,,,,
CBD House,125 Main St S,,Stillwater,MN,55082,US,https://www.cbdhousemn.com/,6127185691,contact@cbdhousemn.com,2022-02-09,2022-02-09,Yes,C,CBD,,,
Fog E-Cig,1300 W Frontage Rd,,Stillwater,MN,55082,US,,6513421921,,2020-07-01,,Yes,V,CBD,,,
Medicinal Blends Wellness Boutique,224 Chestnut St E,,Stillwater,MN,55082,US,https://medicinalblends.com/,6512766297,kathleen@medicinalblends.com,2021-03-16,,Yes,O,CBD,,,
Still Tobacco,2040 Market Dr,,Stillwater,MN,55082,US,,,,2020-04-08,,,T,,,,
Sydney's Natural Health and Wellness,1102 Main Ave N,,Thief River Falls,MN,56701,US,https://sydneysnaturalwellness.com/,2186844451,,2020-12-25,,Yes,C,CBD,,,
The Smoke Shop,114 S 2nd Ave W,,Virginia,MN,55792,US,,2186000790,,2019-10-31,,,S,,,,
Cloud X Vapes And CBD,144 Depot Dr,,Waconia,MN,55387,US,https://cloudxvapes.business.site/,9524424770,,2020-12-02,,Yes,V,CBD,,,
Erica's House of Wellness,221 Ash Ave NE,,Wadena,MN,56482,US,https://ericashouseofwellness.com/,2183719928,ericashouseofwellness@gmail.com,2021-01-01,,Yes,C,CBD,,,
Discontent,153 Division St,,Waite Park,MN,56387,US,,3202537473,discontentwaitepark@gmail.com,2019-01-06,,Yes,H,CBD,,,
Ecig Lounge,69 10th Ave S,,Waite Park,MN,56387,US,http://ecigloungemn.com/,3207741523,,2018-08-06,2019-12-17,Yes,V,CBD,,,
Smoke Shop and Cigar Depot,136 2nd St S,,Waite Park,MN,56387,US,,3202525434,,2020-02-26,,Yes,S,CBD,,,
North Shore Vape,1310 Wayzata Blvd E,,Wayzata,MN,55391,US,,9524731688,info.northshorevape@gmail.com,2014-10-09,2019-02-03,Yes,V,CBD,,,
e-Cig Firehouse Smoke Shop,4438 US-61,,White Bear Lake,MN,55110,US,,6514291632,,2018-10-18,2019-03-13,Yes,S,CBD,,,
Ecig Smokeshop,4711 Hwy 61 N,,White Bear Lake,MN,55110,US,,6517568647,,2022-05-02,2022-05-02,Yes,S,CBD,Yes,,
Nothing But Hemp,4762 Banning Ave,,White Bear Lake,MN,55110,US,https://www.nothingbuthemp.net/,6513309810,ashley@nothingbuthemp.net,2021-02-22,,Yes,C,CBD,,,
Smokeshop II,929 Wildwood Rd,,White Bear Lake,MN,55115,US,,6517738220,,2019-10-08,,,T,,,,
Sally Tobacco,1415 1st St S Ste 1A,,Willmar,MN,56201,US,https://sally-tobacco.business.site/,3202352828,,2019-01-06,,Yes,S,CBD,,,
Island City Vapors,68 W 4th St,,Winona,MN,55987,US,http://www.islandcityvapors.com,5079610227,islandcityvapors@gmail.com,2019-02-04,2020-02-11,Yes,V,CBD,Yes,,
Royal Tobacco,945 Frontenac Dr #C,,Winona,MN,55987,US,,5074521660,,2020-02-11,,Yes,S,CBD,Yes,,
Cigar Depot,7060 Valley Creek Plaza #115,,Woodbury,MN,55125,US,http://www.cigardepotplus.com/,6516663242,cigardepotplus@gmail.com,2019-09-15,,,T,,,,
Fog E-Cig Woodbury,9891 Hudson Pl Ste 200,,Woodbury,MN,55125,US,http://fogecig.com/,6513400638,,2019-11-02,2019-11-02,Yes,V,CBD,,,
Smokeless,8470 City Centre Dr,,Woodbury,MN,55125,US,https://www.shopsmokeless.com/,6122174550,nathan@smokelessmn.com,2018-08-06,2019-06-29,Yes,V,CBD,,,
The CBD Centers,9000 Hudson Rd Ste 616,,Woodbury,MN,55125,US,https://woodburycbd.com/,16513403706,info@thecbdcenterswoodbury.com,2020-12-21,,Yes,C,CBD,,,
Hemp Maze Minnesota,47385 Hwy 52 Blvd,,Zumbrota,MN,55992,US,https://www.hempmazemn.com/,5074912639,hempmazemn@gmail.com,2021-01-26,,Yes,C,CBD,,,