Shop Name,Address 1,Address 2,City,State/Province,Zip/Postcode,Country,Website,Phone,Email,Added,Updated,CBD,Biz Type,MJ,Kratom,Buyer name ,Title 
Tobacco Depot,820 Elk St,,Alexander,ND,58831,US,,7018283300,,2019-12-06,2019-12-06,Yes,S,CBD,,,
Ignite Dispensary Bismarck,716 E Bowen Ave,,Bismarck,ND,58504,US,https://ignitedispensary.com/,7014504111,ignitebismarck@gmail.com,2021-02-10,,Yes,C,CBD,,,
Infinite Vapor Bismarck,710 E Bowen Ave,,Bismarck,ND,58504,US,http://www.infinitevapor.com/,7017517634,bismarck@infinitevapor.com,2017-10-31,2019-05-14,Yes,V,CBD,,,
Knock-Ootz,1102 S Washington St #310,,Bismarck,ND,58504,US,,7012583159,,2019-07-01,,,S,,,,
Smokey's House of Pipes,1811 E Thayer Ave,,Bismarck,ND,58501,US,https://smokeys-house-of-pipes.business.site/,7013907923,smokeysnd@gmail.com,2019-10-03,,,H,,,,
"Tokes ""R"" Us",235 W Thayer Ave,,Bismarck,ND,58501,US,,7015953321,,2019-08-28,,Yes,H,CBD,,,
The Happy Hippie Shoppe,301 5th Ave NE,,Devils Lake,ND,58301,US,,7015003557,happyhippieshoppe@outlook.com,2019-11-06,2019-11-06,,H,,,,
Quick Vape Dickinson / Vapor Outlet,33 E Villard St,,Dickinson,ND,58601,US,,7014831555,,2019-05-08,,Yes,S,CBD,,,
Vapes,927 Villard St W,,Dickinson,ND,58601,US,https://www.vapesecigs.com/,7012649024,coleman@colemancomputerconsulting.com,2018-08-06,2020-01-16,Yes,V,CBD,,,
CBD of Fargo,3985 56th St S Ste C,,Fargo,ND,58104,US,https://www.thehempdropzstore.com/,7014784596,signaturewellnessmn@gmail.com,2020-11-27,,Yes,C,CBD,,,
Discontent Lifestyle Stores,512 Broadway N,,Fargo,ND,58102,US,https://discontent-fargo.business.site/,7015406166,,2020-12-21,,Yes,S,CBD,,,
Ecig City,4302 13th Ave S Ste 8,,Fargo,ND,58103,US,https://ecigcitynd.com/,7019291000,info@ecigcitynd.com,2018-08-06,2020-01-13,Yes,V,CBD,,,
Electric Underground,3109 13th Ave S,,Fargo,ND,58103,US,https://www.electricundergroundstore.com/,7012936727,,2018-08-17,2020-02-14,,V,,,,
JBâ€™s Blowhole Glass Emporium,1015 Main Ave Unit D,,Fargo,ND,58103,US,https://jbsblowholeglassemporium.com,,jbsblowholeglassemporium@gmail.com,2021-01-21,2021-01-21,Yes,H,CBD,Yes,,
Kota Organics,2511 Kirsten Ln S Ste 104,,Fargo,ND,58104,US,https://kotaorganics.com/,7012033018,info@kotaorganics.com,2021-02-25,,Yes,C,CBD,,,
Mellow Mood Fargo,1414 12th Ave N Ste G,,Fargo,ND,58102,US,,7018508088,,2021-03-15,,Yes,S,CBD,Yes,,
Northland Vapor South Fargo & CBD,3051 25th St S Ste W,,Fargo,ND,58103,US,https://northlandvapor.com/,7013565447,info@northlandvapor.com,2021-02-22,,Yes,V,CBD,,,
Redemption Ink & Glass,2512 7th Ave S Ste E,,Fargo,ND,58103,US,https://redemptioninkandglass.art,7012350015,,2020-07-16,2020-07-16,Yes,H,CBD,,,
Smokes 4 Less,1013 45th St S,,Fargo,ND,58103,US,,7012813444,gofargo234@gmail.com,2020-03-16,2020-03-16,Yes,S,CBD,,,
Smokes 4 Less Tobacco Superstore,702 N University Dr,,Fargo,ND,58102,US,,7012376261,,2019-10-09,,,T,,,,
Sports Vape,1621 University Dr S Ste 3,,Fargo,ND,58104,US,http://sportsvape.net/,7015668762,sportsvapefargo@gmail.com,2018-09-24,,Yes,V,CBD,,,
The Mod Canna,3301 13th Ave S,,Fargo,ND,58103,US,https://themodcanna-fargo.com/,7015321961,fargo13@themodcanna.com,2022-03-17,2022-03-17,Yes,C,CBD,,,
Tobacco City,5680 23rd Ave S Ste 1,,Fargo,ND,58104,US,https://www.caseys.com/general-store/3496/nd/fargo/5680-23rd-ave-s-ste-1,7012822725,,2018-08-06,2020-01-16,,T,,,,
Wonderland: The Hemp Store,4302 13th Ave S Ste 8,,Fargo,ND,58103,US,,7019291000,info@ecigcitynd.com,2020-12-09,,Yes,C,CBD,,,
Your CBD Store,1650 45th St S #105,,Fargo,ND,58103,US,https://cbdrx4u.com,7015320416,fargo603@cbdrx4u.com,2020-12-07,,Yes,C,CBD,,,
Discontent,1429 S Washington St,,Grand Forks,ND,58201,US,,7017755675,,2018-08-06,2019-09-16,Yes,H,CBD,,,
Grand Forks Smoke Shop,2475 32nd Ave S Ste 3,,Grand Forks,ND,58201,US,,7017571337,,2018-08-06,2019-09-21,,T,,,,
Infinite Vapor Grand Forks,2655 24th Ave S,,Grand Forks,ND,58201,US,http://www.infinitevapor.com/,7017571075,grandforks@infinitevapor.com,2018-08-06,2019-05-14,Yes,V,CBD,,,
Vapor Shoppe,615 1st Ave S,,Jamestown,ND,58401,US,https://vaporshoppend.com/,7012694085,vaporshoppellc@outlook.com,2018-08-06,2020-12-13,Yes,V,CBD,Yes,,
5's Supplies And Glass Gallery,104 2nd Ave Nw,,Mandan,ND,58554,US,,7017510366,,2020-06-17,,Yes,H,CBD,,,
Big Willies ATP,3028 Memorial Hwy,,Mandan,ND,58554,US,,7016630416,,2018-08-06,2019-08-22,,H,,,,
Puff And Stuff Smoke and Oddities,107 Collins Ave,,Mandan,ND,58554,US,http://puff-and-stuff-smoke-and-oddities.business.site/,7016635416,puffandstuffshop@gmail.com,2020-02-05,,,H,,Yes,,
Little Missouri Smoke Shop,101 1st Ave W,,Marmarth,ND,58643,US,,7012796612,alecoe@hotmail.com,2020-08-17,,Yes,T,CBD,,,
Infinite Vapor Minot,2029 N Broadway,,Minot,ND,58703,US,http://www.infinitevapor.com,7018370285,minot@infinitevapor.com,2018-08-06,2019-05-14,Yes,V,CBD,,,
OG Lucky's Smoke Shop,2025 3rd St NW Ste 2,,Minot,ND,58703,US,https://www.luckyssmokeshop.com/,7014909640,ogluckyssmokeshop@gmail.com,2020-08-17,2020-08-17,Yes,S,CBD,,,
Pipe Dreams,1933 S Broadway Ste C,,Minot,ND,58701,US,,7012145655,pipedreams557@gmail.com,2019-08-23,,Yes,H,CBD,,,
Whirlwinds Gift & Smoke Shop,221 Main St Ste 104,,New Town,ND,58763,US,,7016272721,,2019-09-22,,Yes,T,CBD,Yes,,
Dakota Smoke Shop,203 Dakota Ave,,Wahpeton,ND,58075,US,,7015910194,,2020-08-17,2021-10-24,Yes,S,CBD,Yes,,
Tobacco Depot - Watford City,101 Main St S,,Watford City,ND,58854,US,,7014444900,,2019-12-06,,Yes,S,CBD,,,
Green Therapy Center,816 24th Ave E Ste 112,,West Fargo,ND,58078,US,https://greentherapycenter.com/,7015320617,fargo@greentherapycenter.com,2021-01-17,,Yes,C,CBD,,,
Talon Smoke Shop 2,405 ND-1804,,Williston,ND,58801,US,,7015725110,talonsmokeshop@yahoo.com,2020-04-15,2020-09-25,Yes,T,CBD,,,
Williston Vape,2605 19th Ave W #103,,Williston,ND,58801,US,,7017134120,willistonvape@gmail.com,2018-08-06,2021-01-03,,T,,,,