Shop Name,Address 1,Address 2,City,State/Province,Zip/Postcode,Country,Website,Phone,Email,Added,Updated,CBD,Biz Type,MJ,Kratom,Buyer name,Title
A & A Vapors,514 E 12th St,,Ada,OK,74820,US,,5804362200,asher_vapors@yahoo.com,2018-06-04,11/11/2018,,V,,,,
Ada Smoke Shop,322 E Main St,,Ada,OK,74820,US,,5804537084,,2019-07-16,,Yes,S,CBD,Yes,,
Ada Vapors,816 Arlington St,,Ada,OK,74820,US,,5802359833,,2019-07-16,,,V,,,,
CBD Plus USA - Ada,1006 N Mississippi Ave,,Ada,OK,74820,US,https://cbdplususa.com/,5807896373,ada@cbdplususa.com,2019-11-04,6/25/2020,Yes,C,CBD,Yes,,
Chickasaw Nation Tobacco Shop,1500 N Country Club Rd,,Ada,OK,74820,US,,5804365489,,2019-08-05,,,T,,,,
J Gray's Vapor Shoppe,824 Arlington St,,Ada,OK,74820,US,,5803109055,jgraysvaporshoppe@yahoo.com,2014-10-10,1/28/2019,,V,,,,
Toppers Tobacco,19271 OK-1,,Ada,OK,74820,US,,5803327733,audreya_75@yahoo.com,2020-01-10,,Yes,S,CBD,,,
CBD Plus USA - Altus,1100 Falcon Rd Ste 103,,Altus,OK,73521,US,https://cbdplususa.com/,4052570255,info@cbdplususa.com,2019-04-05,11/29/2020,Yes,C,CBD,,,
Dave's Vapors,1121 N Main St,,Altus,OK,73521,US,,5803794022,davesvapors@gmail.com,2014-08-28,4/8/2019,,V,,,,
Smiley's Breezy Vapes,313 Falcon Rd,,Altus,OK,73521,US,,5804718273,smileysbreezyvapes@gmail.com,2020-07-17,,Yes,V,CBD,,,
Cloud Headz Vapor Lounge,105 N 1st St,,Anadarko,OK,73005,US,,4059331021,,2016-10-18,3/31/2019,,V,,,,
A-1 Vapes & Novelty Shop,915 N Washington St,,Ardmore,OK,73401,US,,5807982301,,2019-05-25,5/25/2019,,V,,,,
CBD Plus USA,816 12th Ave NW,,Ardmore,OK,73401,US,https://cbdplususa.com/,5802575073,,2020-11-29,,Yes,C,CBD,,,
Taste E Vapes,920 Grand Ave,,Ardmore,OK,73401,US,,5802249950,flavorvaporardmore@gmail.com,2019-05-20,,,V,,,,
CBD Plus USA - Bartlesville,2311 SE Washington Blvd Ste A,,Bartlesville,OK,74006,US,https://cbdplususa.com/,9189488824,,2019-05-23,1/25/2020,Yes,C,CBD,,,
Little Deer Smoke Shop,402161 US-60,,Bartlesville,OK,74006,US,,9183330010,,2020-01-04,1/4/2020,,T,,,,
Nirvana Smokes,3830 E Frank Phillips Blvd Ste F,,Bartlesville,OK,74006,US,,9183325780,nirvanasmokesbville@gmail.com,2020-01-29,,Yes,S,CBD,Yes,,
Ohmen Vapors,200 SE Washington Blvd Ste C,,Bartlesville,OK,74006,US,,9188761294,,2019-05-05,,Yes,V,CBD,,,
One-Stop Vape Shop,2245 SE Washington Blvd Ste A,,Bartlesville,OK,74006,US,https://www.kickashflavorfactory.com/,6203318273,wally@wannagetvaped.com,2018-09-30,,Yes,V,CBD,,,
S Hwy 123 Smoke Shop,43 County Rd 2706,,Bartlesville,OK,74003,US,,9183372244,,2020-02-13,,,T,,,,
Vapor Maven,1902 SE Washington Blvd,,Bartlesville,OK,74006,US,https://vapormaven.com/,9188761889,,2021-12-28,12/28/2021,Yes,V,CBD,,,
Beeline Smoke Shop,4985 US-75,,Beggs,OK,74421,US,,9182674700,,2019-07-22,7/22/2019,,T,,Yes,,
23 Discount Tobacco,6701 NW 23rd St,,Bethany,OK,73008,US,,4056033282,,2019-07-12,,,T,,,,
Black Dog Vapes,5021 N Rockwell Ave,,Bethany,OK,73008,US,http://www.blackdogvapes.com/,4056037811,contact@blackdogvapes.com,2018-10-11,,,V,,,,
Bixby Smoke Shop,620 S B Ave,,Bixby,OK,74008,US,,9189706299,,2019-07-13,,,T,,,,
The Vaape Shop Bixby,12914 S Memorial Dr,,Bixby,OK,74008,US,http://www.vaapeshop.com,9189436877,bixbyvapor@gmail.com,2019-07-25,3/10/2020,Yes,V,CBD,Yes,,
Vapor Maven,15024 S Memorial Dr Ste F,,Bixby,OK,74008,US,http://vapormaven.com/,9183643355,,2019-09-24,,Yes,V,CBD,,,
Buzzin Smoke & Vape Shop,1921 S Elm Pl,,Broken Arrow,OK,74012,US,http://buzznsmokeshop.com/,9189407677,info@buzznsmokeshop.com,2019-07-29,1/5/2022,Yes,S,CBD,,,
CBD American Shaman - Broken Arrow,1306 N Elm Pl,,Broken Arrow,OK,74012,US,https://cbdamericanshaman.com/,9188062089,,2019-11-12,,Yes,C,CBD,,,
CBD Plus USA,610 S Aspen Ave,,Broken Arrow,OK,74012,US,https://cbdplususa.com/,9184168830,brokenarrow@cbdplususa.com,2020-11-29,,Yes,C,CBD,,,
EcoSmoke BA,2200 W Houston St,,Broken Arrow,OK,74012,US,https://www.vapeshoptulsa.com/,9189944495,ecosmoketulsa@gmail.com,2018-10-21,5/15/2019,,V,,,,
My CBD Hub,106 S Main St,,Broken Arrow,OK,74012,US,,9188933701,sarah@mycbdhub.com,2020-01-22,,Yes,C,CBD,,,
Sassy's,504 S Elm Pl,,Broken Arrow,OK,74012,US,https://www.facebook.com/tulsa.sassys,9188721500,,2018-12-22,12/22/2018,,H,,Yes,,
Staxx Smoke and Vape Shop,312 W Kenosha St,,Broken Arrow,OK,74012,US,https://staxxsmokeshop.com/,9189407888,,2018-08-06,12/1/2019,Yes,S,CBD,Yes,,
Vape This Broken Arrow,1139 E Kenosha St,,Broken Arrow,OK,74012,US,http://www.vapethisecigs.com/,9185053600,vapethisba@gmail.com,2018-08-06,1/6/2020,Yes,V,CBD,,,
Mountain Fork CBD,25 Carson Creek Rd,,Broken Bow,OK,74728,US,,5803064367,mtnforkcbd@gmail.com,2020-07-12,7/12/2020,Yes,C,CBD,,,
Catoosa Vapors +,750 S Cherokee St Ste H,,Catoosa,OK,74015,US,,9182026239,catoosavapors@gmail.com,2020-08-16,1/14/2022,Yes,V,CBD,Yes,,
CBD Plus USA,750 S Cherokee St Ste B,,Catoosa,OK,74015,US,https://cbdplususa.com/,9184168824,catoosa@cbdplususa.com,2020-11-29,,Yes,C,CBD,,,
66 Holistic Health & Grind,920 W 15th St,,Chandler,OK,74834,US,,4053525143,info@66holistichealthandgrind.com,2020-11-15,,Yes,C,CBD,,,
Checotah Indian Smoke Shop,998 Maple St,,Checotah,OK,74426,US,,9184732801,,2019-08-03,,,T,,,,
CBD American Shaman - Chickasha,1000 W Choctaw Ave Ste 15,,Chickasha,OK,73018,US,https://cbdamericanshaman.com/,4058253257,,2020-06-20,,Yes,C,CBD,,,
The Vapor Consultants,1501 S 4th St,,Chickasha,OK,73018,US,,4053205681,vapecon405@gmail.com,2018-08-06,11/13/2018,,V,,,,
Vapor 100 - Chickasha,2125 S 4th St,,Chickasha,OK,73018,US,https://www.vaporworldstore.com/,5802975020,,2019-09-25,2/15/2022,,V,,Yes,,
Flavor Vapor,14447 NE 23rd St,,Choctaw,OK,73020,US,https://flavorvaporwholesale.com/,4052816166,,2018-08-06,12/21/2019,Yes,V,CBD,,,
Smoke Shop,1530 S Choctaw Rd,,Choctaw,OK,73020,US,,,,2020-02-26,,,T,,,,
Black Mesa Vapors,121 W Blue Starr Dr,,Claremore,OK,74017,US,https://blackmesavapors.com/,9188245801,info@blackmesavapors.com,2018-09-30,,,V,,,,
Black Mesa Vapors,614 S Lynn Riggs Blvd,,Claremore,OK,74017,US,https://blackmesavapors.com/,9188245801,info@blackmesavapors.com,2018-08-09,1/25/2020,,V,,,,
Claremore Smoke Shop,902 N Dorothy Ave,,Claremore,OK,74017,US,,9183419150,,2019-08-25,,,T,,,,
My Vape Place,602 S Brady St,,Claremore,OK,74017,US,https://my-vape-place.business.site/,9182834848,myvapeplace@gmail.com,2018-08-06,12/30/2019,Yes,V,CBD,,,
Tribal Nations CBD Outlet,18583 OK-66,,Claremore,OK,74017,US,https://tribalnationscbd.ecwid.com/,9185680297,tribalnationscbd@hotmail.com,2020-12-09,,Yes,C,CBD,Yes,,
RedNeck Vapors,300 W Caddo St,,Cleveland,OK,74020,US,,9183585009,redneckvapors@att.net,2020-02-08,,Yes,V,CBD,,,
Kratom Closet,2886 US-412 Ste C,,Colcord,OK,74338,US,https://kratomcloset.com,9182626012,,2019-06-17,2/26/2021,Yes,H,CBD,Yes,,
CBD American Shaman - Coweta,11319 E OK-51 #700,,Coweta,OK,74429,US,https://cbdamericanshaman.com/,9182796045,cowetacbd@gmail.com,2019-11-12,,Yes,C,CBD,,,
Dig Lyfe Vapor Co.,110 S Cleveland Ave,,Cushing,OK,74023,US,,,digvapor@gmail.com,2019-09-05,7/18/2020,Yes,V,CBD,Yes,,
Eko Vapors,523 E Main St,,Cushing,OK,74023,US,,9182254356,,2018-08-09,2/2/2020,Yes,V,CBD,,,
Green Acres,1107 E Main St,,Cushing,OK,74023,US,,9182851908,,2021-01-14,,Yes,C,CBD,,,
Apex Vaping,306 E Main St,,Davis,OK,73030,US,,5802478411,apexvaping@gmail.com,2018-10-27,,,V,,,,
Lotus Botanicals,5501 Main St Ste 109,,Del City,OK,73115,US,https://www.lotusbotanicals.org/,4056040647,info@lotusbotanicals.org,2020-08-05,,Yes,C,CBD,Yes,,
Lenape Smoke Shop,12042 US-75,,Dewey,OK,74029,US,,9185343502,,2019-12-08,12/8/2019,,T,,,,
Shangri-La Smokes,610 N Osage Ave Ste 3,,Dewey,OK,74029,US,,8887850990,nirvanasmokesdewey@gmail.com,2021-04-28,,Yes,S,CBD,,,
5150 CBD Kratom & Dry Herbs,720 US-81,,Duncan,OK,73533,US,,5804480636,5150cbd@gmail.com,2020-07-01,12/28/2020,Yes,C,CBD,Yes,,
Vape Smart,15 US-81,,Duncan,OK,73533,US,http://vape-smart.business.site/,5807865022,,2019-08-09,,Yes,V,CBD,,,
Happy Vibes Smoke & Vapor Shop,504 N 1st Ave Ste 150,,Durant,OK,74701,US,,5806342340,,2019-04-10,4/10/2019,Yes,S,CBD,,,
Red River Tobacco,2101 W Main St Suite 102,,Durant,OK,74701,US,https://redrivertobacco.com/,5807458111,redrivertobacco@gmail.com,2019-01-20,,Yes,S,CBD,,,
Sweet Leaf Smoke Shop,701 S 9th Ave,,Durant,OK,74701,US,https://sweetleaffarmacy.com/,5807458078,flowerladyok@yahoo.com,2021-04-17,,Yes,H,CBD,,,
Texoma Tobacco,723 W Main St,,Durant,OK,74701,US,,5809310358,,2020-04-16,,,S,,,,
777 Food Mart,700 S Broadway,,Edmond,OK,73034,US,https://www.yelp.com/biz/777-food-mart-edmond,4052858066,,2022-01-04,1/4/2022,,V,,,,
777 Smoke Shop,706 S Broadway,,Edmond,OK,73034,US,,4052858066,,2019-07-13,,,S,,,,
CBD Plus USA,121 E Waterloo Rd Ste 4,,Edmond,OK,73034,US,https://cbdplususa.com/,4052570249,,2020-11-29,,Yes,C,CBD,,,
Edmond Vapes CBD & Kava Bar,106 S Bryant Ave,,Edmond,OK,73012,US,,4052855007,stephen.heavyavpe@gmail.com,2014-08-29,5/15/2019,Yes,V,CBD,Yes,,
Get Vaped,828 W Danforth Rd,,Edmond,OK,73003,US,,4053598273,info.getvaped@gmail.com,2018-08-06,12/22/2019,Yes,V,CBD,,,
OKC Vapes,2141 W 15th St,,Edmond,OK,73013,US,http://okcvapes.com/,4052855067,,2018-08-09,2/2/2020,,V,,,,
Trichomes,14509 N Santa Fe Ave,,Edmond,OK,73013,US,https://trichomesokc.com/,4057534169,,2020-07-20,,Yes,H,CBD,Yes,,
Vapor Express Lounge Edmond,1105 S Broadway,,Edmond,OK,73034,US,,4058824249,,2018-08-06,1/7/2020,,V,,,,
CBD Plus USA - El Reno,1536 SW 27th St #A,,El Reno,OK,73036,US,https://cbdplususa.com/,8334223758,info@cbdplususa.com,2019-08-15,11/29/2020,Yes,C,CBD,,,
Mixmaster Vapes,935 S Country Club Rd,,El Reno,OK,73036,US,,8884058273,info@mixmastervapes.com,2018-08-06,12/29/2019,Yes,V,CBD,Yes,,
Purple Monkey Vaporium,208 W Broadway Ave,,Elk City,OK,73644,US,,5803398161,,2020-02-07,,,V,,,,
CBD Boutique and Wellness Center,1407 E Willow Rd,,Enid,OK,73701,US,,5802975055,cbdboutique@aol.com,2019-04-05,11/8/2019,Yes,C,CBD,,,
Enid American Shaman,4125 W Owen K Garriott Rd,,Enid,OK,73703,US,http://www.okcamericanshamanlocations.com/,4054371766,ricksamsham@icloud.com,2020-07-01,7/1/2020,Yes,C,CBD,,,
Enid Vapor Emporium,207 S Jackson St,,Enid,OK,73701,US,,5805593213,,2018-08-09,2/2/2020,,V,,,,
Etown Vapor,127 N Washington St,,Enid,OK,73701,US,,5802345066,etownvapor@yahoo.com,2014-09-25,5/16/2019,Yes,V,CBD,Yes,,
Juicy's Vapor Lounge - Enid East,611 S Monroe St,,Enid,OK,73701,US,https://juicysvaporlounge.com/,5805990926,juicysvaporlounge@yahoo.com,2018-08-06,12/26/2019,Yes,V,CBD,,,
Tara's Organics,214 E Broadway Ave,,Enid,OK,73701,US,https://tarasorganics.com/,5807894989,tarasorganics@yahoo.com,2020-12-24,,Yes,C,CBD,,,
Vapor 100,4334 W Owen K Garriott Rd Ste A,,Enid,OK,73703,US,https://www.vaporworldstore.com,5802974258,,2019-09-25,7/16/2021,,V,,,,
You Suck Vapes - Enid,2402 W Owen K Garriott Rd,,Enid,OK,73703,US,,5805402151,,2018-08-06,1/11/2020,Yes,V,CBD,,,
Discount Smoke Shop,16525 OK-9,,Eufaula,OK,74432,US,http://www.discountsmokeshop.com/,9184523070,,2019-10-20,4/17/2020,,S,,,,
Fairfax Smoke Shop,525 S 8th St,,Fairfax,OK,74637,US,,9186423845,,2018-08-06,9/16/2019,,T,,,,
Glenpool Vapor and CBD,985 E 141st St Ste C,,Glenpool,OK,74033,US,,9183212474,glenpoolvapor@gmail.com,2014-10-10,6/18/2021,Yes,V,CBD,,,
You Suck Vapes,13809 S Casper St W Unit E-F,,Glenpool,OK,74033,US,,9185185255,,2022-01-19,1/19/2022,,V,,Yes,,
Redbird Indian Smokeshop,1526 80th St NW,,Grove,OK,74344,US,,9187879034,,2019-09-21,,,T,,,,
Seneca-Cayuga Tribal Tobacco,65490 E 240 Rd,,Grove,OK,74344,US,http://www.sctribe.com/enterprises/seneca-cayuga-tobacco/,9187877711,,2020-02-15,,Yes,T,CBD,,,
Vapor Maven Grove,1620 S Main St Ste D,,Grove,OK,74344,US,https://www.vapormaven.com/,9189647044,vapormaven@gmail.com,2018-01-11,2/1/2019,,V,,,,
CBD Plus USA - Guthrie,1726 S Division Blvd,,Guthrie,OK,73044,US,https://cbdplususa.com/,8334223758,info@cbdplususa.com,2020-08-11,,Yes,C,CBD,,,
Get Vaped,105 W Harrison Ave,,Guthrie,OK,73044,US,,4052828273,info.getvaped@gmail.com,2018-08-06,12/22/2019,Yes,V,CBD,,,
Guthrie Discount Cigarettes,2219 E Oklahoma Ave,,Guthrie,OK,73044,US,http://guthrie-discount-cigarettes.business.site/,4052939443,,2019-11-20,,,T,,,,
Majestic Vapor Guymon,108 N Main St,,Guymon,OK,73942,US,https://majesticvapor.com/,5803381001,majesticvapor@gmail.com,2018-08-06,12/29/2019,Yes,V,CBD,Yes,,
Country Vapor,1950 Church Ave,,Harrah,OK,73045,US,http://www.countryvapor.com/,4053096308,,2014-09-25,2/26/2019,Yes,V,CBD,,,
The Cloud House,300 E Franklin St Ste B,,Haskell,OK,74436,US,,9186800174,thecloudhouse420@gmail.com,2019-12-09,12/9/2019,Yes,V,CBD,,,
Tru Vapor,1025 N Hinckley St,,Holdenville,OK,74848,US,https://tru-vapor.business.site/,4052210545,brandyc194@gmail.com,2019-05-25,5/25/2019,Yes,V,CBD,,,
Big Deer Smoke Shop,1101 N Eastern Ave,,Hominy,OK,74035,US,,9188859903,,2020-08-17,,,T,,,,
Tropical Vapes,203 SE Washington St,,Idabel,OK,74745,US,,907327751,,2019-09-29,,,V,,,,
Jenks Vapor,541 W Main St,,Jenks,OK,74037,US,,9182094966,,2018-08-06,12/26/2019,Yes,V,CBD,,,
CBD Plus USA,523 N Main St,,Kingfisher,OK,73750,US,https://cbdplususa.com/,4052001386,,2020-11-29,,Yes,C,CBD,,,
Broken Coil,1235 SW Sheridan Rd,,Lawton,OK,73505,US,,5806993288,,2018-10-15,,,V,,,,
CBD Unlimited,200 SW C Ave,,Lawton,OK,73501,US,https://www.cbdultd.com/,4052122726,,2020-12-03,,Yes,C,CBD,,,
Chiefs Smokin Icehouse,1315 SW Lee Blvd,,Lawton,OK,73501,US,,5805812010,,2019-08-05,,,T,,,,
Gangsters of Glass,1235 SW Sheridan Rd,,Lawton,OK,73505,US,,5806992664,gangstersofglass@outlook.com,2022-04-15,4/15/2022,,H,,,,
Half Price Records,2610 NW Sheridan Rd,,Lawton,OK,73505,US,,5803573130,,2019-08-19,,,H,,,,
Vapor 100 - Lawton #1,2310 NW Cache Rd Ste 2,,Lawton,OK,73505,US,https://www.vapor100.com/,5806995540,vapor100store@gmail.com,2019-09-25,,,V,,,,
Vapor 100 - Lawton #2,5131 NW Cache Rd,,Lawton,OK,73505,US,http://www.vapor100.com/,5806995567,,2019-09-25,,,V,,,,
You Suck Vapes Central,2207 NW Cache Rd,,Lawton,OK,73505,US,http://yousuckvapes.com/,5806993669,info@yousuckvapes.com,2019-08-28,,,V,,,,
You Suck Vapes West,6504 NW Cache Rd #C,,Lawton,OK,73505,US,,5806993665,,2018-08-06,6/12/2021,Yes,V,CBD,,,
The Main Vapor,204 NW 4th St,,Lindsay,OK,73052,US,,,,2014-10-02,2/18/2019,Yes,V,CBD,,,
Christieville Smoke Shop,13266 OK-82,,Locust Grove,OK,74352,US,,9185983333,,2019-08-05,,,T,,,,
Daisy Chain Vapor & More,5746 US-412,,Locust Grove,OK,74352,US,http://daisy-chain-vapor-more.business.site/,9185301335,daisychainvapor@icloud.com,2019-09-04,9/4/2019,Yes,V,CBD,,,
Rock'n Vapes,428 N Dogwood St,,Luther,OK,73054,US,,4052779200,,2020-02-10,,Yes,V,CBD,,,
CBD Plus USA - McAlester,23 E Choctaw Ave Ste 1B,,McAlester,OK,74501,US,https://cbdplususa.com/,8334223758,info@cbdplususa.com,2019-11-04,,Yes,C,CBD,,,
Flavor Vapor,1127 E Wade Watts Ave,,McAlester,OK,74501,US,,9183020044,,2014-09-12,1/29/2019,Yes,V,CBD,,,
Tobacco Hut,1326 E Carl Albert Pkwy,,McAlester,OK,74501,US,http://tobaccohut.biz/,9184264464,,2020-07-07,,Yes,T,CBD,Yes,,
Vapour Realm,910 S Main St,,McAlester,OK,74501,US,,9183188026,ptoretail@gmail.com,2017-04-21,9/29/2019,Yes,V,CBD,,,
Extreme Gaming & Pipe shop,1915 N Main St,,Miami,OK,74354,US,,9185427529,,2021-01-02,,Yes,O,CBD,,,
Seneca-Cayuga Tribal Smoke Shop,2309 S Eight Tribe Trail,,Miami,OK,74354,US,,9185427448,,2020-02-15,,Yes,S,CBD,Yes,,
Vapor Maven,1205 E Steve Owens Blvd,,Miami,OK,74354,US,https://www.vapormaven.com/,19185446069,vapormaven@gmail.com,2018-01-11,1/21/2019,Yes,V,CBD,,,
A1 Herban Alternatives,2221 S Air Depot Blvd,,Midwest City,OK,73110,US,https://namah-midwest.business.site/,4055669928,,2020-08-16,8/16/2020,Yes,C,CBD,Yes,,
CANN Help Wellness,2150 S Douglas Blvd Ste A,,Midwest City,OK,73130,US,https://www.cann-help.com/,4054553012,info@cann-help.com,2020-11-22,,Yes,C,CBD,,,
Vape Vibes,1948 S Air Depot Blvd,,Midwest City,OK,73110,US,https://vapevibes.net/,4054552099,,2020-07-20,,Yes,V,CBD,,,
Vapor Shark,8911 SE 29th St,,Midwest City,OK,73110,US,,4054210214,,2020-01-08,,Yes,V,CBD,,,
18 Gauge Vapor,320 SE 4th St,,Moore,OK,73160,US,https://18gaugevapor.com/,4057592727,18gaugevapor@gmail.com,2014-09-21,2/24/2019,Yes,V,CBD,,,
ADI Smoke,1410 N Eastern Ave,,Moore,OK,73160,US,https://adi-smoke.business.site/,4052373446,adismokemoore@gmail.com,2022-01-04,1/4/2022,,S,,Yes,,
CBD American Shaman - Moore,821 SE 4th St,,Moore,OK,73160,US,,4057037015,annarbg@hotmail.com,2019-11-08,,Yes,C,CBD,,,
Hempyz Smoke Shop,1231 N Santa Fe Ave,,Moore,OK,73160,US,http://www.hempyzokc.com,4058000420,hempyzokc@gmail.com,2019-01-11,8/15/2020,Yes,H,CBD,,,
I 35 Discount Tobacco,101 NW 27th St,,Moore,OK,73160,US,,4057901199,,2019-12-13,,Yes,T,CBD,,,
Kure CBD and Vape,2311 S I-35 Service Rd,,Moore,OK,73160,US,https://www.kurevapes.com/pages/kure-cbd-and-vape-moore-ok-i-35-service-rd,4055629017,,2021-07-16,,Yes,C,CBD,,,
Om Smoke,1280 N Eastern Ave Ste a,,Moore,OK,73160,US,,4052373952,omsmoke47@gmail.com,2022-01-10,1/10/2022,Yes,S,CBD,,,
Prodigy Vapor Co.,811 SW 19th St Ste F,,Moore,OK,73141,US,,4053782868,prodigyvaporco@gmail.com,2018-08-06,12/31/2019,Yes,V,CBD,,,
The Vapor Hut,1009 SW 19th St,,Moore,OK,73160,US,,4057030309,,2022-02-07,2/7/2022,Yes,V,CBD,,,
918 Vapes,2340 E Shawnee Rd,,Muskogee,OK,74403,US,,9189139554,918vapes@gmail.com,2018-08-09,2/2/2020,,V,,,,
Captain Vapor,1316 N York St,,Muskogee,OK,74403,US,,9185776933,,2015-04-23,1/28/2019,Yes,V,CBD,Yes,,
CBD Plus USA - Muskogee,3143 Azalea Park Dr,,Muskogee,OK,74401,US,https://cbdplususa.com/,8334223758,info@cbdplususa.com,2019-11-04,,Yes,C,CBD,,,
Discount Smoke Shop,2315 Gibson St,,Muskogee,OK,74403,US,http://www.discountsmokeshop.com/,9186821775,,2019-10-20,4/16/2020,,S,,,,
Evolution Smoking Accessories & More,223 N 32nd St,,Muskogee,OK,74401,US,,9189137817,gm@evolutioncigars.com,2018-08-06,9/16/2019,Yes,S,CBD,Yes,,
Evolution Smoking Accessories & More,821 N York St Ste B,,Muskogee,OK,74403,US,,9186831995,,2018-08-06,9/16/2019,Yes,S,CBD,Yes,,
Pinky's Smoke Shop and Apparel,705 N York St,,Muskogee,OK,74403,US,,9189105230,,2019-06-07,6/7/2019,Yes,S,CBD,,,
Vapor Maven Muskogee,3413 Chandler Rd,,Muskogee,OK,74403,US,https://www.vapormaven.com/,9186844311,vapormaven@gmail.com,2018-01-11,11/13/2018,,V,,,,
Cowboy Discount Tobacco,707 E State Hwy 152,,Mustang,OK,73064,US,,4052566699,,2020-08-16,,,S,,,,
Dab City Tobacco & Vape,214 N Mustang Mall Tr,,Mustang,OK,73064,US,,4052253512,,2021-10-23,10/23/2021,Yes,S,CBD,Yes,,
The Green Life CBD,"314 W. Oklahoma, W State Hwy 152",,Mustang,OK,73064,US,https://thegreenlifecbd.com/,4053530530,,2020-12-17,,Yes,C,CBD,Yes,,
Full Throttle Vape + CBD,2600 NW 32nd St,,Newcastle,OK,73065,US,https://full-throttle-vape-cbd.business.site/,4052372600,fullthrottlevape405@gmail.com,2021-01-09,,Yes,V,CBD,,,
Vape It,910 NW 32nd St,,Newcastle,OK,73065,US,,4053873642,vapeitusa@live.com,2018-09-21,,,V,,,,
13 Vapor Co.,1004 24th Ave NW Ste 104,,Norman,OK,73069,US,https://13vaporco.com/,4057018788,thirteenvapor@gmail.com,2018-09-17,7/31/2019,Yes,V,CBD,,,
CBD Plus USA - Constitution,1100 E. Constitution St #114,,Norman,OK,73072,US,https://cbdplususa.com/,8334223758,info@cbdplususa.com,2019-08-15,8/15/2019,Yes,C,CBD,,,
CBD World,1224 Alameda St,,Norman,OK,73071,US,,4053102463,cbdworldusanorman@gmail.com,2020-12-05,,Yes,C,CBD,,,
Lotus Botanicals,1714 W Lindsey St,,Norman,OK,73069,US,https://www.normankratom.com/,4057010403,tgrenier@lotusbotanicals.org,2020-08-05,4/16/2021,Yes,C,CBD,Yes,,
OKC Vapes - Norman,621 12th Ave NE Ste 110,,Norman,OK,73071,US,http://okcvapes.com/,4053106481,,2018-08-09,2/2/2020,,V,,,,
The Intake,1000 Alameda St #140A,,Norman,OK,73071,US,,4058012468,theintake2@gmail.com,2018-08-06,4/9/2020,Yes,V,CBD,,,
The Main Vapor,2830 Classen Blvd,,Norman,OK,73071,US,,4052172906,,2018-08-06,1/2/2020,Yes,V,CBD,,,
Vapor 100 - Norman,2343 W Main St,,Norman,OK,73069,US,,4053070952,,2018-08-06,1/7/2020,Yes,V,CBD,Yes,,
Vapor Shark,1204 N Interstate Dr #110,,Norman,OK,73072,US,https://www.vaporshark.com/,4055947543,support@vaporshark.com,2018-08-06,1/9/2020,Yes,V,CBD,,,
Vapour Kingdom,2203 W Main St Ste 6,,Norman,OK,73069,US,,4057011979,dayna.shannon@vapourkingdom.com,2018-08-06,1/9/2020,Yes,V,CBD,,,
Velocity Vapor,1961 W Lindsey St,,Norman,OK,73069,US,,4053102784,,2019-06-05,,,V,,,,
"Victory Vapor, Inc",550 24th Ave NW Ste B,,Norman,OK,73069,US,https://www.victoryvaporinc.com/,4053104488,victoryvapor2013@gmail.com,2018-08-06,1/9/2020,Yes,V,CBD,Yes,,
Wicked Clouds,580 Buchanan Ave,,Norman,OK,73069,US,,4054434518,,2020-08-16,,Yes,S,CBD,Yes,,
Off-Kilter Vapors & Design,205 S Ash St,,Nowata,OK,74048,US,https://www.offkiltervapors.com/,9185599470,offkiltervapors@gmail.com,2020-01-31,,Yes,V,CBD,,,
18 Gauge Vapor,439 SW 89th St,,Oklahoma City,OK,73139,US,http://18gaugevapor.com/,4056068002,18gaugevapor@gmail.com,2018-06-29,4/13/2019,Yes,V,CBD,,,
23rd Street Vapes,131 NW 23rd St,,Oklahoma City,OK,73103,US,,4056006610,thevault151@aol.com,2014-12-06,1/29/2019,,V,,Yes,,
A&M Vape Shop,2900 NW 23rd St,,Oklahoma City,OK,73107,US,https://www.amvapeshop.com/,4056018610,amvapeshop@gmail.com,2018-06-29,5/31/2019,Yes,V,CBD,,,
BS Unlimited,420 SW 59th St,,Oklahoma City,OK,73109,US,,4056327956,info@bsunlimitedshop.com,2019-06-07,,Yes,O,CBD,,,
Captivape,552 E Memorial Rd,,Oklahoma City,OK,73114,US,https://captivape.com/,4056082770,kristi@captivape.com,2018-06-04,6/19/2019,,V,,,,
CBD American Shaman - OKC - The Village,9402 N May Ave #D,,Oklahoma City,OK,73120,US,https://cbdamericanshaman.com/,4057539456,matt.danuser02@gmail.com,2019-11-11,,Yes,C,CBD,,,
CBD Plus USA,12120 Warwick Dr #7,,Oklahoma City,OK,73162,US,https://cbdplususa.com/,4052570244,,2020-11-29,,Yes,C,CBD,,,
CBD Plus USA - North Classen Blvd,2723 N Classen Blvd Ste A,,Oklahoma City,OK,73106,US,https://cbdplususa.com/,4052570252,classen@cbdplususa.com,2019-03-22,7/5/2021,Yes,C,CBD,,,
CBD Plus USA on N May Ave,6511 N May Ave.,,Oklahoma City,OK,73116,US,https://cbdplususa.com/,4052570253,nmay@cbdplususa.com,2020-08-10,8/10/2020,Yes,C,CBD,,,
Cigarettes For Less Inc,8009 S Western Ave,,Oklahoma City,OK,73139,US,,4056340750,,2019-08-23,8/23/2019,,T,,,,
City Vapes,2640 NW 10th St Ste C,,Oklahoma City,OK,73107,US,,4056042989,support@cityvapes.net,2018-06-04,6/19/2019,,V,,,,
Creative Vapor,3629 NW 22nd St,,Oklahoma City,OK,73107,US,http://www.creativevapor.com/,4057024323,admin@creativevapor.com,2014-08-28,4/8/2019,,V,,,,
Drew's Tobacco World,1514 SE 44th St Ste D,,Oklahoma City,OK,73129,US,http://www.drewstobaccoworld.com/,4056777473,,2019-09-18,9/18/2019,Yes,S,CBD,,,
Earthly Mist,2220 SW 74th St,,Oklahoma City,OK,73159,US,https://www.earthlymist.com/,4057020662,customerservice@earthlymist.com,2020-12-26,,Yes,O,CBD,Yes,,
Exhale Vapor & Smoke Shop,10401 S Pennsylvania Ave,,Oklahoma City,OK,73159,US,http://www.exhalevaporok.com/,4053782345,vaporexhale@yahoo.com,2018-10-22,10/22/2018,Yes,V,CBD,Yes,,
Freedom Vapor,7911 W Hefner Rd Ste 2,,Oklahoma City,OK,73162,US,,4053833300,,2018-08-06,12/21/2019,Yes,V,CBD,,,
Friendly Market on Hefner,2222 W Hefner Rd Ste D,,Oklahoma City,OK,73120,US,https://friendlymarket.net,4056088871,friendly.paradigm@gmail.com,2019-03-27,9/24/2020,Yes,H,CBD,Yes,,
Goodies - Meridian Express,4501 NW 63rd St,,Oklahoma City,OK,73132,US,https://goodiesheady.com/,4057224770,ansar.iftikhar@gmail.com,2022-03-16,3/16/2022,,S,,,,
Green Gorilla Smoke & Vape Shop,7220 N May Ave,,Oklahoma City,OK,73116,US,https://greengorillavape.com/,4058105253,gotgorillaokc@gmail.com,2020-08-16,,Yes,S,CBD,,,
House Of Hustle Vapes,2912 N MacArthur St,,Oklahoma City,OK,73127,US,,4059495432,,2022-01-27,1/27/2022,Yes,V,CBD,,,
House Of Pain,2809 SW 44th St,,Oklahoma City,OK,73119,US,,4056800008,,2019-12-10,,Yes,S,CBD,Yes,,
KC's Vapors,11122 N Rockwell Ave Ste A4,,Oklahoma City,OK,73162,US,https://www.kcsvapors.com/,4056034511,crystalrivera77@att.net,2018-08-06,12/27/2019,,V,,,,
Kure CBD & Vape,9101 S Western Ave Ste 107,,Oklahoma City,OK,73159,US,https://www.kurevapes.com/pages/kure-cbd-and-vape-oklahoma-city-ok-western-ave,4054210213,social@kuresociety.com,2018-08-06,6/12/2021,Yes,V,CBD,,,
Liquid Vapor Lounge,6608 N May Ave,,Oklahoma City,OK,73116,US,,4054184996,liquidvaporlounge@gmail.com,2018-08-06,12/28/2019,,V,,,,
Lotus Botanicals,4104 NW 10th St,,Oklahoma City,OK,73107,US,https://www.lotusbotanicals.org/,4056057844,info@lotusbotanicals.org,2020-08-05,8/5/2020,Yes,C,CBD,Yes,,
Lucky 7 Smoke Shop,2301 N Pennsylvania Ave #A,,Oklahoma City,OK,73107,US,,4055241616,,2020-01-05,1/5/2020,,T,,,,
Luxury Glass & Novelties,720 S MacArthur Blvd,,Oklahoma City,OK,73172,US,,4054434128,luxury24glass@gmail.com,2020-08-16,,Yes,H,CBD,Yes,,
Mr. Wellness CBD,5605 S Pennsylvania Ave,,Oklahoma City,OK,73119,US,,4056939990,,2019-05-22,4/23/2021,Yes,C,CBD,,,
Mrs. Coolz,7808 S Western Ave,,Oklahoma City,OK,73139,US,,4056167833,,2018-11-06,11/6/2018,Yes,H,CBD,,,
N & L Vapes,7211 S Council Rd,,Oklahoma City,OK,73169,US,,4056188026,kayle.purity@yahoo.com,2020-08-16,,Yes,V,CBD,Yes,,
OKC Vapes - Oklahoma City,3710 NW 50th St,,Oklahoma City,OK,73112,US,http://okcvapes.com/,4056051990,feedback@okcvapes.com,2018-08-06,12/30/2019,,V,,,,
Outter Limits,7902 N Macarthur Blvd,,Oklahoma City,OK,73132,US,,4057207138,,2019-01-09,,,H,,,,
The Indigo Attic,5012 N Meridian Ave,,Oklahoma City,OK,73116,US,,4056254006,theindigoattic@gmail.com,2018-11-03,,,H,,,,
The Vape Bar,3718 NW 23rd St,,Oklahoma City,OK,73107,US,https://www.thevapebarportland.com/,4054982668,robert@robertsvapeemporium.com,2018-08-06,1/2/2020,,V,,,,
Thunder Vapor,7000 NW 122nd St Ste B,,Oklahoma City,OK,73142,US,https://thundervapor.com/,4054701450,thundervapor@gmail.com,2018-09-23,,Yes,V,CBD,,,
Trifecta Smoke Showcase,2307 N Pennsylvania Ave,,Oklahoma City,OK,73107,US,https://www.trifecta-okc.com/,4056018119,trifectaokc@gmail.com,2018-08-09,2/2/2020,Yes,H,CBD,Yes,,
Uncle Samz,11005 N Pennsylvania Ave,,Oklahoma City,OK,73120,US,https://uncle-samz-pipes-novelties.business.site/,4052424803,,2020-08-16,,Yes,H,CBD,,,
Up N Smoke,1134 N MacArthur Blvd,,Oklahoma City,OK,73127,US,,4056050420,,2018-12-21,,Yes,S,CBD,,,
Up N Smoke III,4424 SE 44th St,,Oklahoma City,OK,73135,US,,4056091702,,2018-10-26,10/16/2019,,S,,,,
Vape It,7515 S Pennsylvania Ave,,Oklahoma City,OK,73159,US,,4056018287,,2019-05-31,,,V,,,,
Vapen Room,5943 NW 23rd St Ste C,,Oklahoma City,OK,73127,US,https://vapen-room-vaporizer-store.business.site/,4056034900,,2019-05-31,,Yes,V,CBD,,,
Vapor Express,1100 S Air Depot Blvd #11,,Oklahoma City,OK,73110,US,,4056984555,,2019-08-11,8/11/2019,Yes,V,CBD,,,
Vapor Plus,2222 NW 23rd St,,Oklahoma City,OK,73107,US,,4055247166,vaporplusok@gmail.com,2018-09-25,,,V,,,,
Vapor Plus OK,2115 NW 122nd St,,Oklahoma City,OK,73120,US,http://vaporplusoknorth.business.site/,4052270095,vaporplusok@gmail.com,2018-08-06,1/8/2020,Yes,V,CBD,Yes,,
Vapor Plus OK South,857 SW 119th St,,Oklahoma City,OK,73170,US,https://vaporplusok.business.site/,4052257509,vaporplusok@gmail.com,2019-10-07,,Yes,V,CBD,Yes,,
Vapor Shark,13325 N MacArthur Blvd,,Oklahoma City,OK,73142,US,https://www.vaporshark.com/,4054210207,support@vaporshark.com,2018-08-06,1/9/2020,Yes,V,CBD,,,
Cali Culture,7703 N Owasso Expy,,Owasso,OK,74055,US,,9189284500,calicultureowasso@gmail.com,2019-03-21,3/21/2019,Yes,V,CBD,Yes,,
CBD American Shaman Owasso,11230 N Garnett Rd,,Owasso,OK,74055,US,https://cbdamericanshaman.com/,9188445911,americanshamanowasso@gmail.com,2019-11-08,6/23/2020,Yes,C,CBD,,,
Peace Pipe,11301 N Garnett Rd,,Owasso,OK,74055,US,,9183711757,,2020-02-03,2/3/2020,,S,,,,
Simply Fun,12701 E 86th St N Ste D,,Owasso,OK,74055,US,,9183769610,simplyfunowasso@hotmail.com,2019-11-04,,Yes,O,CBD,,,
True Vapors,11616 E 86th St N,,Owasso,OK,74055,US,https://www.truevapors.com/,9183764430,truevapors918@gmail.com,2015-02-26,1/26/2019,,V,,,,
Vaping Kicks Ash,11215 N Garnett Rd Ste D,,Owasso,OK,74055,US,https://www.vapingkicksash.net/,9185536643,vapingkicksashvka@gmail.com,2018-08-09,2/3/2020,,V,,,,
Valley Smokes And Vape Shop,300 E Grant Ave,,Paul's Valley,OK,73075,US,,4059262125,rupac.gauti@gmail.com,2019-09-06,9/14/2019,Yes,S,CBD,Yes,,
eKo Vapors,251 OK-33 #B3,,Perkins,OK,74059,US,,4055478353,,2019-10-14,,,V,,,,
Iowa Tribe Smoke Shop,335588 E 750 Rd,,Perkins,OK,74059,US,,4055475552,,2020-08-16,,,S,,,,
Juicy's Vapor Lounge - Ponca,2128 N 14th St #3,,Ponca City,OK,74601,US,https://juicysvaporlounge.com/,5802791645,,2018-09-30,,Yes,V,CBD,,,
Nice Dreamz,2128 N 14th St,,Ponca City,OK,74601,US,,5807180420,,2018-11-06,,,H,,Yes,,
Osage Trading Company,3105 US-60,,Ponca City,OK,74604,US,,5807629400,otc1@cableone.net,2020-01-12,,Yes,T,CBD,,,
Vapor Dynamix,1910 N Broadway St,,Poteau,OK,74953,US,http://vapordynamix.com/,9186474445,support@vapordynamix.com,2014-09-30,1/27/2019,Yes,V,CBD,,,
Vapor Maven,2125 N Broadway St,,Poteau,OK,74953,US,,9182351553,,2020-12-13,,Yes,V,CBD,Yes,,
Wildhorse Tobacco,2503 N Broadway St,,Poteau,OK,74953,US,,9188395675,,2019-09-15,,Yes,T,CBD,Yes,,
Agape CBD,204 S Mill St,,Pryor,OK,74361,US,,9185307933,,2021-05-02,,Yes,C,CBD,,,
Casey's Vapor,410 S Mill St,,Pryor,OK,74361,US,,9188240870,,2018-06-04,2/26/2019,Yes,V,CBD,Yes,,
Four Feathers Smoke Shop,4 N Mill St,,Pryor,OK,74361,US,,9188258503,,2018-08-06,9/16/2019,,T,,,,
Vapor Maven,153 Steve Berry Blvd,,Pryor,OK,74361,US,https://vapormaven.com,9188247602,pryor@vapormavenstores.com,2020-12-13,,Yes,V,CBD,,,
The Main Vapor,1736 S Green Ave Ste A,,Purcell,OK,73080,US,https://www.mainvapor.com/home,4053086216,info@mainvapor.com,2018-09-25,4/17/2021,Yes,V,CBD,,,
Earthly Mist,707 S Roland Rd #3,,Roland,OK,74954,US,https://www.earthlymist.com/,9185036555,customerservice@earthlymist.com,2020-12-26,12/26/2020,Yes,O,CBD,Yes,,
Sinsationz,480936 US-64,,Roland,OK,74954,US,http://sinsationz.net/,9185036391,,2018-11-15,11/23/2019,Yes,H,CBD,Yes,,
Believe Botanicals,1223 E Cherokee Ave,,Sallisaw,OK,74955,US,https://believebotanicals.com/,9182356900,store@believebotanicals.com,2020-11-19,,Yes,C,CBD,Yes,,
Vapor Dynamix,1502 W Chickasaw Ave Ste 3,,Sallisaw,OK,74955,US,http://vapordynamix.com/,9182080927,joseph@vapordynamix.com,2018-08-06,1/7/2020,,V,,,,
The Discount Smokeshop & Novelties,23 E 34th,,Sand Springs,OK,74063,US,,9182467345,,2021-01-14,,Yes,H,CBD,Yes,,
The Vapor Crew,11 E 34th St S,,Sand Springs,OK,74063,US,https://www.thevaporcrew.com/,9185140015,,2018-08-06,7/19/2020,,V,,,,
Vapor Kings,110 N Garfield Ave Ste 300,,Sand Springs,OK,74063,US,http://www.vaporkings.com/,9182413244,support@vaporkings.com,2018-08-06,1/8/2020,Yes,V,CBD,,,
Vapor Warehouse,420 W Wekiwa Rd,,Sand Springs,OK,74063,US,,9182467400,vapor.warehouse@yahoo.com,2018-08-06,1/8/2020,Yes,V,CBD,,,
Cloud Chaserz Smoke Shop,515 N Mission St,,Sapulpa,OK,74066,US,https://www.cloudchaserzworld.com/,9183478062,cloudchaserz420texas@gmail.com,2021-10-15,,Yes,S,CBD,Yes,,
High Times,224 N Mission St,,Sapulpa,OK,74066,US,https://www.hightimesok.com,9185126644,hightimessapulpa@gmail.com,2018-12-18,,Yes,H,CBD,,,
Three Flags Smoke Shop,1 E Hobson Ave,,Sapulpa,OK,74066,US,,9182249252,,2020-04-26,,,T,,,,
Three Flags Trading Co,1029 E Hobson Ave,,Sapulpa,OK,74066,US,,9182249252,,2020-04-26,,,T,,,,
Vape 4 Less,808 E Taft Ave Ste A2,,Sapulpa,OK,74066,US,,9185128887,,2022-01-19,1/19/2022,,V,,,,
Dark Vapor,300 E Broadway Ave,,Seminole,OK,74868,US,,4053822808,,2014-09-26,4/8/2019,,V,,,,
Vapor Maker,303 N Main St,,Seminole,OK,74868,US,,4052204205,,2019-10-10,,Yes,V,CBD,,,
Dark Vapor,2620 N Harrison Ave,,Shawnee,OK,74804,US,,4052751213,,2019-09-04,1/25/2020,Yes,V,CBD,,,
FireLake Corner Store,41201 Hardesty Rd,,Shawnee,OK,74801,US,https://www.firelakefoods.com/,4058784850,info@firelakefoods.com,2019-10-24,,Yes,T,CBD,,,
Flavor Vapor,4420 N Kickapoo Ave Ste 400,,Shawnee,OK,74804,US,https://flavorvaporwholesale.com/,4052140033,,2018-08-06,1/16/2019,,V,,,,
Tobacco Shack Elite,726 N Harrison Ave,,Shawnee,OK,74801,US,,4052731981,,2020-04-29,,,S,,,,
Vapor 100 - Shawnee,4006 N Kickapoo Ave,,Shawnee,OK,74804,US,http://www.vapor100.com/,4057884406,,2019-09-23,,,V,,Yes,,
WINC Pipes And Glass,1504 N Harrison St,,Shawnee,OK,74804,US,,4053952722,,2022-02-25,2/25/2022,Yes,H,CBD,Yes,,
Wolfe Vapor Shawnee,524 S Beard St,,Shawnee,OK,74801,US,,4052731707,,2014-09-20,5/14/2020,Yes,V,CBD,Yes,,
Two Turtle Skiatook,13800 N Cincinnati Ave,,Skiatook,OK,74070,US,,9183963966,,2019-10-27,,,S,,,,
Vaping Kicks Ash,747 W Rogers Blvd,,Skiatook,OK,74070,US,http://www.vapingkicksash.net/,9183963167,vapingkicksashvka@gmail.com,2019-09-24,9/24/2019,Yes,V,CBD,Yes,,
Discount Smoke Shop,409 W Main St,,Stigler,OK,74462,US,http://www.discountsmokeshop.com/,9189678022,,2019-10-21,4/16/2020,,S,,,,
A&M Vape Shop Stillwater,1909 N Boomer Rd,,Stillwater,OK,74075,US,https://www.amvapeshop.com/,4053723525,amvapeshop@gmail.com,2014-09-19,2/25/2019,Yes,V,CBD,,,
Cigarette Outlet,823 E 6th Ave,,Stillwater,OK,74074,US,,4057435946,,2019-08-29,,,S,,,,
Juicy's Vapor Lounge - Stillwater,211 S Perkins Rd,,Stillwater,OK,74074,US,https://juicysvaporlounge.com/,4057431405,jvl.stillwater@gmail.com,2018-09-30,,Yes,V,CBD,,,
Juicy's Vapor Lounge - Stillwater West,2205 W 6th Ave,,Stillwater,OK,74074,US,https://juicysvaporlounge.com/,4054457384,juicysvaporlounge@yahoo.com,2018-08-06,12/26/2019,Yes,V,CBD,,,
Nice Dreamz 2,211 N Perkins Rd Ste 17,,Stillwater,OK,74075,US,,4053324340,nicedreamz1@yahoo.com,2018-11-03,,,S,,,,
The Vapor Crew Stillwater,211 N Perkins Rd Ste 14,,Stillwater,OK,74075,US,,4057478273,stillwater@thevaporcrew.com,2018-08-06,1/2/2020,,V,,,,
Thumper's Paradise,211 S Main St,,Stillwater,OK,74074,US,,4056123653,thumpersparadise@gmail.com,2020-04-27,,Yes,V,CBD,,,
J Gray's Vapor Shoppe,1904 W Broadway Ave Ste 3,,Sulphur,OK,73086,US,,5806228331,jgraysvaporshoppe@yahoo.com,2018-09-30,6/15/2021,Yes,V,CBD,,,
BRAT Vapor Lounge,304 N Muskogee Ave,,Tahlequah,OK,74464,US,http://www.thebratcrew.com/,9183734911,richard@thebratcrew.com,2017-05-28,4/13/2019,Yes,V,CBD,,,
CBD Plus USA,3040 Muskogee Ave Ste 106,,Tahlequah,OK,74464,US,https://cbdplususa.com/,9183101446,tahlequah@cbdplususa.com,2020-11-29,,Yes,C,CBD,,,
Evolution Smoking Accessories & More,1761 S Muskogee Ave,,Tahlequah,OK,74467,US,,9184581060,,2018-08-06,9/16/2019,Yes,S,CBD,Yes,,
Pinky's Smoke Shop and Apparel,1326 S Muskogee Ave,,Tahlequah,OK,74464,US,,9187081577,,2019-06-07,6/7/2019,Yes,S,CBD,,,
Tahlequah Smoke Shop,821 W Choctaw St,,Tahlequah,OK,74464,US,,,,2019-10-24,,,T,,,,
Vapor Maven,1211 Park Hill Rd,,Tahlequah,OK,74464,US,https://vapormaven.com/,9187725092,,2019-09-24,1/12/2022,Yes,V,CBD,,,
Little Deer Smoke Shop,2810 US-169,,Talala,OK,74080,US,,9182754289,,2020-01-04,,,T,,,,
Victory Vapor Tecumseh,1011 N Broadway Ave Ste 2,,Tecumseh,OK,74873,US,https://www.victoryvaporinc.com/,4052873065,victoryvaporwholesale@gmail.com,2018-08-06,1/9/2020,Yes,V,CBD,Yes,,
Chickasaw Tobacco Shop,1200 W Main St,,Tishomingo,OK,73460,US,https://www.chickasaw.net/,5803713373,,2019-08-05,,,T,,,,
"Burn Culture Vape, CBD & Kratom",5925 E Admiral Pl,,Tulsa,OK,74115,US,,9189385400,burnculturevape@gmail.com,2020-11-21,,Yes,V,CBD,Yes,,
Buzzin Smoke & Vape Shop,6528 E 101st Ste H,,Tulsa,OK,74133,US,https://staybuzzn.com/,9182095138,info@buzznsmokeshop.com,2022-01-05,1/5/2022,,S,,,,
Camoland Vapor Company,1229 S Memorial Dr,,Tulsa,OK,74112,US,,9187943222,,2014-09-21,2/25/2019,Yes,V,CBD,,,
CBD American Shaman - Tulsa - London South,5952 S Lewis Ave,,Tulsa,OK,74105,US,https://www.tulsaamericanshaman.com/,9182715653,tulsaamericanshaman@gmail.com,2019-11-08,,Yes,C,CBD,,,
CBD American Shaman - Tulsa - Woodland,8016 S Memorial Dr,,Tulsa,OK,74133,US,https://cbdamericanshaman.com/,9189947194,ranae@cbdhempsistas.com,2019-11-11,11/11/2019,Yes,C,CBD,,,
CBD American Shaman Bixby,11045 S Memorial Dr,,Tulsa,OK,74133,US,https://cbdamericanshaman.com/,9187210866,918cbd@gmail.com,2019-11-08,,Yes,C,CBD,,,
CBD American Shaman Tulsa,5455 S Mingo Rd Ste E,,Tulsa,OK,74146,US,https://www.tulsaamericanshaman.com/,9189380718,admin@tulsaamericanshaman.com,2019-11-08,,Yes,C,CBD,,,
CBD Plus USA on Mingo,5333 S Mingo Ste A,,Tulsa,OK,74146,US,https://cbdplususa.com/,8334223758,info@cbdplususa.com,2019-04-05,5/11/2019,Yes,C,CBD,,,
Cig Zone,4946 S Union Ave,,Tulsa,OK,74107,US,,9189328710,,2022-02-07,2/7/2022,Yes,S,CBD,,,
Cloud Chaserz Smoke Shop,2606 S Sheridan Rd Ste H,,Tulsa,OK,74129,US,https://www.cloudchaserzworld.com/,9187648161,cloudchaserz420texas@gmail.com,2021-10-15,10/15/2021,Yes,S,CBD,,,
Cloud Chaserz Smoke Shop,1660 E 71st St Ste E,,Tulsa,OK,74136,US,https://www.cloudchaserzworld.com/,9185742521,cloudchaserz420texas@gmail.com,2021-10-15,,Yes,S,CBD,Yes,,
Curiozity,2629 E 15th St,,Tulsa,OK,74104,US,,9183987950,curiozityllc@gmail.com,2019-01-11,,Yes,H,CBD,Yes,,
Earthly Mist,5318 S Peoria Ave,,Tulsa,OK,74105,US,https://www.earthlymist.com/,9187947177,customerservice@earthlymist.com,2020-12-26,12/26/2020,Yes,O,CBD,Yes,,
EcoSmoke Tulsa,6703 E 81st St Ste A,,Tulsa,OK,74133,US,https://www.vapeshoptulsa.com/,9185742122,ecosmoketulsa@gmail.com,2018-10-21,5/15/2019,,V,,,,
Evolution Smoking Accessories & More,7123 S 92nd E Ave,,Tulsa,OK,74133,US,,9186153344,,2018-08-06,9/16/2019,Yes,S,CBD,Yes,,
Glassworx,6529 E 51st St,,Tulsa,OK,74145,US,http://glassworx.net/,9185616882,,2019-01-11,,Yes,H,CBD,Yes,,
Hard Flips Smoke Shop,1617 N Lewis Ave,,Tulsa,OK,74110,US,https://hardflips.business.site/,9185745771,hardflips918@gmail.com,2019-11-23,,Yes,S,CBD,,,
Hotbox Tulsa,2130 S Memorial Dr,,Tulsa,OK,74129,US,https://hotbox-tulsa.business.site/,9187283408,hotboxtulsa@gmail.com,2018-10-22,10/22/2018,Yes,S,CBD,,,
Indian Smoke Shop,1418 N Sheridan Rd,,Tulsa,OK,74115,US,,9188383728,,2020-02-23,,,S,,,,
Jvapes Vape & Smoke Shop,4109 S Harvard Ave,,Tulsa,OK,74135,US,,9188614484,,2022-03-21,3/21/2022,Yes,V,CBD,,,
Lone Star Vapor Shop,10926 S Memorial Drive,,Tulsa,OK,74133,US,http://lonestarvaporshop.com/,9185202232,krystle@lonestarvaporshop.com,2018-08-06,12/28/2019,Yes,V,CBD,,,
Nirvana Novelties and Gifts,3210 E 11th St,,Tulsa,OK,74104,US,https://www.nirvanasmokeshop.com/,9189602010,nirvanasmokeshop@gmail.com,2019-01-09,7/3/2021,Yes,S,CBD,Yes,,
Quickie-Mart,5310 S Peoria Ave,,Tulsa,OK,74105,US,,9187447800,,2018-11-28,1/12/2020,Yes,H,CBD,Yes,,
Santeria Smoke Shop,7941 New Sapulpa Rd,,Tulsa,OK,74131,US,https://santeriasmokeshop.com/,9186304287,santeriasmokeshop@gmail.com,2019-12-27,,Yes,S,CBD,Yes,,
Sassy's,1611 S Memorial Dr,,Tulsa,OK,74112,US,,9186646114,,2018-12-21,,Yes,H,CBD,,,
Sassy's,6540 Charles Page Blvd,,Tulsa,OK,74127,US,,9182460600,,2018-12-22,,,H,,Yes,,
Shisha Smoke & Gift Shop,7135 S Mingo Rd Ste B,,Tulsa,OK,74133,US,,9186156669,,2019-05-23,5/23/2019,,S,,,,
Simple Pure CBD and Aromatherapy,4111 S Harvard Ave,,Tulsa,OK,74135,US,https://www.simplepurecbdtulsa.com/,7853240646,,2021-01-11,,Yes,C,CBD,,,
Smoke Signals of Tulsa,7901 E 101st St,,Tulsa,OK,74133,US,,9182963902,,2019-09-19,9/19/2019,,T,,,,
Starship Records & Tapes,1241 S Lewis Ave,,Tulsa,OK,74104,US,,9185830638,,2018-12-23,,,H,,,,
Staxx Smoke and Vape Shop,10907 S Memorial Dr,,Tulsa,OK,74133,US,https://staxxsmokeshop.com,9189702799,,2018-08-06,12/1/2019,Yes,S,CBD,Yes,,
Staxx Smoke and Vape Shop,8125 E 51st St Ste C,,Tulsa,OK,74145,US,https://staxxsmokeshop.com,9187944265,,2018-08-06,12/1/2019,Yes,S,CBD,Yes,,
Tobacco Express Indian Smoke,3353 S 57th W Ave,,Tulsa,OK,74107,US,,9184459091,,2020-07-05,,Yes,T,CBD,,,
Tulsa Vapor Store,4233 Southwest Blvd,,Tulsa,OK,74107,US,http://tulsavaporstore.com/,9184458873,tulsavaporstore@yahoo.com,2018-08-06,1/4/2020,Yes,V,CBD,,,
Vape This Tulsa,4311 S Sheridan Rd,,Tulsa,OK,74145,US,http://www.vapethisecigs.com/,9185616848,vapethisba@gmail.com,2018-08-06,1/6/2020,Yes,V,CBD,,,
Vapor Club,4649 S Peoria Ave,,Tulsa,OK,74105,US,,9188614445,vaporclubstulsa@gmail.com,2018-08-06,1/7/2020,Yes,V,CBD,,,
Vapor Kings,4305 S Mingo Rd #E,,Tulsa,OK,74146,US,http://www.vaporkings.com/,9189499292,support@vaporkings.com,2018-08-06,1/8/2020,Yes,V,CBD,,,
Vapor USA,5077 S Yale Ave,,Tulsa,OK,74135,US,http://vapor-usa.com/,9185517757,vaporusa918@gmail.com,2018-08-06,1/8/2020,Yes,V,CBD,Yes,,
Vapor USA Memorial,7039 S Memorial Dr,,Tulsa,OK,74133,US,http://vapor-usa.com/,9186156098,andrew@vapor-usa.com,2018-08-06,1/8/2020,Yes,V,CBD,Yes,,
Vapor Warehouse,4936 E 21st St,,Tulsa,OK,74114,US,http://vapor-warehouse.business.site/,9189386206,,2019-08-20,,,V,,,,
Vaporeyes Tulsa,7943 S Memorial Dr,,Tulsa,OK,74133,US,,9189944454,vaporeyestulsa@gmail.com,2018-08-09,2/3/2020,,V,,,,
West Tulsa Vapor,4949 S Union Ave,,Tulsa,OK,74107,US,,9184454945,westtulsavapor@att.net,2014-09-20,1/30/2019,,V,,,,
You Suck Vapes - Lewis,8112 S Lewis Ave Ste G,,Tulsa,OK,74137,US,http://www.yousuckvapes.com/,9189952909,,2019-08-28,,,V,,,,
Majestic Vapor,1018 US-83,,Turpin,OK,73942,US,https://majesticvapor.com/,5807783888,majesticvapor@gmail.com,2015-05-17,12/21/2021,Yes,V,CBD,Yes,,
CBD Plus USA - Vinita,414 N Wilson St,,Vinita,OK,74301,US,https://cbdplususa.com/,9183873554,vinita.owner@cbdplususa.com,2020-01-09,1/9/2020,Yes,C,CBD,,,
Flying Cloud,126 W Clyde Ave,,Vinita,OK,74301,US,,9182566856,,2019-10-22,,,H,,,,
Discount Smoke Shop,1102 Commercial,,Warner,OK,74462,US,http://www.discountsmokeshop.com/,9184633020,,2019-10-21,4/16/2020,,S,,,,
Lotus Botanicals,4417 N Meridian Ave,,Warr Acres,OK,73112,US,https://www.lotusbotanicals.org/,4054415951,info@lotusbotanicals.org,2020-08-05,8/5/2020,Yes,C,CBD,Yes,,
Vapor Garage,7311 N MacArthur Blvd,,Warr Acres,OK,73132,US,,4054983003,vaporgarageokc@yahoo.com,2022-01-12,1/12/2022,Yes,V,CBD,Yes,,
Dollar Spree/Vapor Company,407 E Main St,,Weatherford,OK,73096,US,,5806502801,dollar_spree@yahoo.com,2018-10-01,11/10/2021,,V,,,,
Elite Vapor Weatherford,1511 E Main St,,Weatherford,OK,73096,US,,5808192057,,2019-10-24,,,V,,,,
The Speakeasy Shoppe,113 W Rainey Ave,,Weatherford,OK,73096,US,,,thespeakeasyok@gmail.com,2021-10-09,,Yes,H,CBD,,,
Vape Spot,1115 E Davis Ave,,Weatherford,OK,73096,US,,5803303537,thevapespot2013@gmail.com,2018-09-22,,,V,,,,
Kratom At Last,3198 US-412 #B,,West Siloam Springs,OK,74338,US,https://kratomatlast.com/,4793065862,tim@kratomatlast.com,2020-11-08,,Yes,O,CBD,Yes,,
Mad Hatters Tea & Gifts,728 State Line Rd,,West Siloam Springs,OK,74338,US,,9182012742,info@madhattersgifts.com,2018-12-12,1/13/2020,Yes,C,CBD,Yes,,
Wetumka Indian Community Smoke Shop,123 OK-9,,Wetumka,OK,74883,US,,4054525773,,2019-09-22,,Yes,T,CBD,,,
Cannavation,2400 Oklahoma Ave,,Woodward,OK,73801,US,https://cannavation.com/,5802905114,cannavation@gmail.com,2019-04-27,11/6/2019,Yes,C,CBD,,,
Real Earth Remedies,1212 1st St,,Woodward,OK,73801,US,,5802905151,realearthremedies@gmail.com,2021-02-02,,Yes,C,CBD,,,
Wootown Vapes,1802 Main St,,Woodward,OK,73801,US,,5802561066,,2019-05-28,,Yes,V,CBD,,,
Teepee Smoke Shop & Casino,28314 E 6th St,,Yale,OK,74085,US,https://teepee-smoke-shop-casino.business.site/,9183874224,,2019-07-07,,Yes,T,CBD,,,
A&M Vape Shop,1615 S Mustang Rd Ste I,,Yukon,OK,73099,US,https://www.amvapeshop.com/,4052653525,amvapeshop@gmail.com,2014-08-26,2019-04-13,Yes,V,CBD,,,
CBD American Shaman Yukon,12126 W Reno Ave,,Yukon,OK,73099,US,https://cbdamericanshaman.com/,4052045306,oklahomahealing@gmail.com,2019-11-11,,Yes,C,CBD,,,
CBD Plus USA on Morgan Rd,1725 S Morgan Rd,,Yukon,OK,73099,US,http://cb,8334223758,info@cbdplususa.com,2019-04-05,2019-05-11,Yes,C,CBD,,,
Global Smoke & Vape Shop,331 S Cemetery Rd,,Yukon,OK,73099,US,https://globalsmokeshop.com,4054674365,globalsmokeyukon@gmail.com,2022-03-21,2022-03-21,,S,,,,
OKC Vapes - Yukon,1300 W Vandament Ave #1001,,Yukon,OK,73099,US,http://okcvapes.com/,4052652660,,2018-08-06,2019-12-30,,V,,,,
Yukon Vapor,1300 W Vandament Ave #2401,,Yukon,OK,73099,US,https://yukonvapor.business.site/,4057544238,yukonvapor@gmail.com,2018-08-06,2020-01-11,Yes,V,CBD,,,