Shop Name,Address 1,Address 2,City,State/Province,Zip/Postcode,Country,Website,Phone,Email,Added,Updated,CBD,Biz Type,MJ,Kratom,Buyer name ,Title 
Fine Cigar & Tobacco House,192 W Main St,,Avon,CT,6001,US,,8604042788,finecigarandtobaccohouse@hotmail.com,2019-10-24,,Yes,S,CBD,Yes,,
Natures Gifts CBD,304 W Main St,,Avon,CT,6001,US,http://www.natruresgifts-usa.com,8609954444,andy@naturesgifts-usa.com,2020-01-13,2020-01-13,Yes,C,CBD,,,
Your CBD Store,41 E Main St,,Avon,CT,6001,US,https://cbdrx4u.com/find-us/connecticut/avon,8602557101,avon610@cbdrx4u.com,2021-06-02,,Yes,C,CBD,,,
Grassy Plain Vape & Smoke,39 Grassy Plain St #A,,Bethel,CT,6801,US,http://www.grassyplain.com/,2039173597,grassplainvape@gmail.com,2018-10-16,2018-10-16,Yes,S,CBD,,,
Stony Hill Cigar And Smoke Shop,68 Stony Hill Rd,,Bethel,CT,6801,US,,3024566324,stonyhillcigars@gmail.com,2020-09-18,,,S,,Yes,,
Better Ways,1122 Main Street,,Branford,CT,6405,US,https://betterwayscbd.com/,2034332311,betterwayscbd@gmail.com,2020-03-23,,Yes,C,CBD,,,
E-Six Vapors,869 W Main St,,Branford,CT,6405,US,http://www.esixvapors.com/,2032082227,sales@esixvapors.com,2014-08-28,2019-01-31,,V,,,,
Your CBD Store,885 W Main St #B,,Branford,CT,6405,US,https://cbdrx4u.com/find-us/connecticut/branford,2032084661,milfordct@cbdrx4u.com,2021-06-02,,Yes,C,CBD,,,
Bridgeport News,584 North Ave,,Bridgeport,CT,6606,US,,2033841150,bptnews.helio@gmail.com,2018-11-05,,Yes,S,CBD,Yes,,
Head To Toe,4322 Main St,,Bridgeport,CT,6606,US,https://www.h2tsmokeshop.com/,2033749441,,2018-08-10,2020-02-05,Yes,S,CBD,,,
Puff City Bridgeport,575 E Main St,,Bridgeport,CT,6608,US,https://www.puffcity.com/,2819030868,puffcitybridgeport@gmail.com,2020-08-09,2020-08-09,Yes,S,CBD,Yes,,
Smoke & More,4106 Main St,,Bridgeport,CT,6606,US,,2036901465,smoke.print.universe@gmail.com,2018-08-06,2019-11-08,,S,,,,
Stoked,3389 Fairfield Ave,,Bridgeport,CT,6605,US,https://stokedct.com/,2039084533,info@stokedct.com,2019-01-13,,Yes,H,CBD,,,
Tony's Smoke Shop,2738 Main St,,Bridgeport,CT,6606,US,,2033678558,,2020-02-01,2020-12-29,,T,,,,
Your CBD Store,3030 Fairfield Ave,,Bridgeport,CT,6605,US,https://cbdrx4u.com/find-us/connecticut/black-rock,2036128822,blackrock516@cbdrx4u.com,2020-12-07,,Yes,C,CBD,,,
Big Cat's Smoke Shop,274 Middle St,,Bristol,CT,6010,US,https://sevvie01.wixsite.com/bigcatssmokeshop,8602614340,,2019-07-24,,Yes,S,CBD,Yes,,
Tobacconist,1214 Farmington Ave,,Bristol,CT,6010,US,,8605848702,,2020-02-24,,,S,,,,
Your CBD Store,900 Farmington Ave,,Bristol,CT,6010,US,https://cbdrx4u.com,8609733434,bristol517@cbdrx4u.com,2020-12-07,,Yes,C,CBD,,,
CP Royale Tobacco & Vapor Store,355 Federal Rd,,Brookfield,CT,6804,US,http://royaletobacco.blogspot.com/,2037756325,rtcs235@gmail.com,2018-10-16,2019-03-20,Yes,S,CBD,Yes,,
OG Smoke And CBD,450 Federal Rd Unit 3,,Brookfield,CT,6804,US,https://ogsmokeandcbd.com/,2038850785,ddos70910@gmail.com,2022-03-28,2022-03-28,Yes,S,CBD,,,
Trading Post Music & Video,233 Albany Turnpike,,Canton,CT,6019,US,https://www.tradingpostct.com/,8606934679,tradingpostct@gmail.com,2018-08-10,2020-02-05,Yes,H,CBD,,,
Your CBD Store,1072 S Main St,,Cheshire,CT,6410,US,https://cbdrx4u.com/find-us/connecticut/cheshire,2038061254,cheshire669@cbdrx4u.com,2021-06-02,,Yes,C,CBD,,,
Your CBD Store,114 E Main St #3,,Clinton,CT,6413,US,https://cbdrx4u.com/find-us/connecticut/clinton,8606644636,,2021-06-02,,Yes,C,CBD,,,
U Vape,467 S Main St,,Colchester,CT,6415,US,http://uvapeus.com/,8606032148,,2018-08-26,2020-02-25,Yes,V,CBD,,,
Danbury Smoke Shop,128 Federal Rd,,Danbury,CT,6811,US,http://www.vaporandsmokeshop.com,2036287340,info@vaporandsmokeshop.com,2018-08-06,2019-09-08,,S,,,,
Putnam's Place,18 North St,,Danbury,CT,6810,US,,2037987228,putnams@comcast.net,2019-01-13,,Yes,H,CBD,,,
Resistance Vapor & Smoke,12 Mill Plain Rd,,Danbury,CT,6811,US,http://www.vaporandsmokeshop.com,4752893797,info@vaporandsmokeshop.com,2018-08-06,2020-01-15,Yes,S,CBD,,,
Stogey's Cigarette & Tobacco Outlet,71 Newtown Rd,,Danbury,CT,6810,US,,2037922447,,2019-05-19,,,T,,,,
Twilight Vapor,10 Hayestown Ave,,Danbury,CT,6810,US,,4753295939,twilightvapor@gmail.com,2018-08-10,2020-02-05,Yes,V,CBD,,,
Your CBD Store,52 Padanaram Rd,,Danbury,CT,6811,US,https://cbdrx4u.com/find-us/connecticut/danbury,2038267560,danbury555@cbdrx4u.com,2021-06-02,,Yes,C,CBD,,,
Vape Tek,157 Main St,,Danielson,CT,6239,US,http://www.myvapetek.com/,8605038273,,2014-10-04,2019-01-26,,V,,,,
"Your CBD Store - East Lyme, CT",170 Flanders Rd Ste D7,,Deep River,CT,6357,US,https://cbdrx4u.com/,8604512990,,2019-09-11,2019-09-11,Yes,C,CBD,,,
Derby Cigar Shop,656 New Haven Ave,,Derby,CT,6418,US,,2035165249,,2019-08-12,2019-08-12,,S,,,,
Valley Vapors of Connecticut,435 New Haven Ave,,Derby,CT,6401,US,https://valleyvaporsofconnecticut.com/,2033082323,valleyvaporsofconnecticut@gmail.com,2015-06-12,2019-01-27,Yes,V,CBD,,,
Berlin Smoke & Vape Shop,831 Mill St,,East Berlin,CT,6023,US,https://berlinsmoke.business.site/,8608291937,,2018-08-10,2020-02-05,,S,,,,
Belltown Smoke Shop,27 E High St,,East Hampton,CT,6424,US,http://www.belltownsmokes.com/,8603655416,,2019-07-22,,,S,,,,
CT Vapors,672 Foxon Rd,,East Haven,CT,6513,US,,2039859204,,2014-08-28,2021-10-26,Yes,V,CBD,,,
Puff City East Haven,228 Main St,,East Haven,CT,6512,US,https://www.puffcity.com/,4752346338,puffcityeasthaven@gmail.com,2020-08-09,2020-08-09,Yes,S,CBD,Yes,,
Smoker's Discount World,933 Foxon Rd,,East Haven,CT,6513,US,,2034692226,,2021-10-27,,,S,,,,
Tobacco Express,320 Main St Unit 3,,East Haven,CT,6512,US,,2034680200,,2021-10-28,2021-10-28,Yes,S,CBD,,,
LNK CBD,170 North Rd,,East Windsor,CT,6088,US,https://lnk-cbd.business.site/,8604139509,,2019-08-14,2019-08-14,Yes,C,CBD,,,
Bogey's Smoker's Club,553 Hazard Ave,,Enfeild,CT,6082,US,,8602657730,,2018-11-14,2018-11-14,Yes,S,CBD,Yes,,
Discount Vape 360,46 High St,,Enfield,CT,6096,US,http://www.discountvape360.com,8608355575,ejuice@discountvape360.com,2019-07-26,,,V,,,,
Northern Lights,270 Enfield St,,Enfield,CT,6082,US,http://www.northernlightspipes.com/,8602539671,,2018-12-13,,Yes,S,CBD,,,
Smoke Zone Smoke Shop,25 Enfield St,,Enfield,CT,6082,US,,8607455577,wildsidetom@gmail.com,2018-08-06,2018-11-13,Yes,S,CBD,,,
Vibrations,122 Enfield St,,Enfield,CT,6082,US,,8607416039,,2015-09-17,2019-02-07,,V,,,,
Voltage Vape Shop CT,79 Enfield St,,Enfield,CT,6082,US,https://voltagevape.com/,8602657608,,2018-08-26,2020-02-25,Yes,V,CBD,,,
Euphoria,1565 Black Rock Tpke,,Fairfield,CT,6825,US,http://www.euphoriact.com/,2038709843,euphorialoungect@live.com,2018-10-18,2019-05-06,,S,,Yes,,
"Your CBD Store - Glastonbury, CT",2239 Main St,,Glastonbury,CT,6033,US,https://cbdrx4u.com/,8603240897,glastonbury362@cbdrx4u.com,2019-09-11,2019-09-11,Yes,C,CBD,,,
Byram Smoke Shop,111 Mill St Ste 2,,Greenwich,CT,6830,US,,2035312751,,2019-07-30,2019-07-30,,S,,,,
Clouds Vapors and Lounge,39 N Water St,,Greenwich,CT,6830,US,,2035315091,cloudsvape@gmail.com,2014-09-26,2019-02-07,Yes,V,CBD,,,
Mohegan Vape & Cigar,1255 E Putnam Ave,,Greenwich,CT,6878,US,,2039903319,,2022-02-10,2022-02-10,Yes,S,CBD,Yes,,
Your CBD Store,38 W Putnam Ave,,Greenwich,CT,6830,US,https://cbdrx4u.com,2037691169,greenwich574@cbdrx4u.com,2020-12-06,,Yes,C,CBD,,,
Zyn's,345 Greenwich Ave,,Greenwich,CT,6830,US,,2036615168,info@zynsonline.com,2021-11-29,2021-11-29,Yes,O,CBD,,,
Amazing Superstore - Groton,591 CT-12 #8,,Groton,CT,6340,US,https://www.soamazing.com/,8604480787,,2020-06-20,,Yes,O,CBD,,,
Drip N Drop Vapor Shop,243 Poquonnock Rd,,Groton,CT,6340,US,https://drip-n-drop-vapor-shop.business.site/,8603336485,dripanddropvaporshop@gmail.com,2016-02-27,2019-03-20,,V,,,,
Northern Lights,771 Long Hill Rd,,Groton,CT,6340,US,http://www.northernlightspipes.com,8604050777,,2018-12-13,,Yes,S,CBD,,,
The Vapor Place,516 Gold Star Hwy,,Groton,CT,6340,US,http://thevapor.place/,8604468273,info@thevapor.place,2019-03-03,,Yes,V,CBD,Yes,,
Sunshine Daydream,2941 Boston Post Rd,,Guilford,CT,6437,US,,2034838908,,2018-08-10,2020-02-05,Yes,H,CBD,,,
The Vape Loft,381 Boston Post Rd,,Guilford,CT,6437,US,http://www.thevapeloft.net/,2038158730,jeff@thevapeloft.net,2015-02-25,2018-12-26,Yes,V,CBD,,,
Hampden Smoke Shop,1461 Dixwell Ave,,Hamden,CT,6514,US,,2038595311,,2018-10-22,,Yes,S,CBD,,,
Slow Puffs,3030 Whitney Ave Unit 6,,Hamden,CT,6518,US,http://www.slowpuffs.com/,2036269660,slowpuffs@gmail.com,2019-11-16,2019-11-16,Yes,S,CBD,Yes,,
Smoker's Discount World,1394 Dixwell Ave,,Hamden,CT,6514,US,,2032486099,,2018-11-01,,,S,,,,
Angel Grocery Smoke Shop,636 Park St,,Hartford,CT,6106,US,,,,2019-07-18,,,T,,,,
M&J Hookah Tobacco Shop,869 New Britain Ave,,Hartford,CT,6106,US,,8602064644,,2019-12-03,2019-12-03,Yes,S,CBD,,,
Stairway Thru Heaven,944 Maple Ave,,Hartford,CT,6114,US,,8609560787,sthhartford@gmail.com,2018-10-26,2020-10-07,Yes,S,CBD,Yes,,
Grateful Head Shop,25 Oak St,,Manchester,CT,6040,US,http://headshop860.com,8604321533,gratefulheadstore@gmail.com,2018-11-05,2018-11-05,Yes,H,CBD,,,
Moon Flower Boutique,310 Main St,,Manchester,CT,6040,US,,8606434381,moonflowertattoos@gmail.com,2018-11-24,,,H,,,,
Smoke Zone Smoke Shop,844 Main St,,Manchester,CT,6040,US,,8604320814,ctsmokezonem2@gmail.com,2018-11-02,,Yes,S,CBD,,,
Smokers Dream World,435 Main St,,Manchester,CT,6040,US,,8606471111,,2020-03-11,2020-03-11,Yes,S,CBD,Yes,,
Tobacco City,662 Center St,,Manchester,CT,6040,US,,8606451521,tobaccocity@live.com,2019-05-23,,,S,,Yes,,
"Your CBD Store - Manchester, CT",59 Tolland Turnpike,,Manchester,CT,6042,US,https://cbdrx4u.com/,8607918368,,2019-09-11,2019-09-11,Yes,C,CBD,,,
Amazing Intimate Essentials - Meriden,1919 N Broad St,,Meriden,CT,6450,US,,2032355512,,2020-06-18,,Yes,O,CBD,,,
Smok'n Vape,177 Broad St,,Meriden,CT,6450,US,,2032354809,,2018-08-06,2020-01-16,Yes,V,CBD,,,
The Vapor Edge,111 Hanover Street,,Meriden,CT,6451,US,http://www.thevaporedge.net/,4752357705,thevaporedge@icloud.com,2018-08-10,2020-02-05,Yes,V,CBD,,,
Artisan Vapor & CBD,77 Berlin Rd Ste 4,,Middletown,CT,6457,US,https://artisanvaporandcbd.com/store/artisan-vapor-cbd-cromwell/,8607886751,info@artisanvaporcompany.com,2018-01-26,2021-07-14,Yes,V,CBD,,,
Mindbrakes,646 Main St,,Middletown,CT,6457,US,https://mindbrakes.com/,2038896402,info@mindbrakes.com,2021-10-22,,Yes,C,CBD,,,
Slow Puffs,700 Washington St,,Middletown,CT,6457,US,,8603019141,slowpuffs@gmail.com,2018-10-24,2020-02-25,Yes,V,CBD,Yes,,
Smoke 911,608 Main St,,Middletown,CT,6457,US,https://www.smoke911llc.com/,8603589848,smokeshop911@gmail.com,2018-08-06,2019-11-16,Yes,S,CBD,,,
The Vape Shop,346 S Main St,,Middletown,CT,6457,US,,8603448273,thevapeshopct@aol.com,2018-08-10,2019-02-17,,V,,,,
Your CBD Store,650 S Main St,,Middletown,CT,6457,US,https://cbdrx4u.com/find-us/connecticut/middletown,8608942979,,2021-06-02,,Yes,C,CBD,,,
Blazin Vibes,16 Red Bush Ln,,Milford,CT,6461,US,,2032831424,blazinvibesllc@gmail.com,2018-11-18,,Yes,H,CBD,,,
Bohemian High LLC,156 Bridgeport Ave,,Milford,CT,6460,US,http://www.bohemianhigh.com,2033014097,info@bohemianhigh.com,2018-10-28,,Yes,H,CBD,,,
E-Six Vapors,232 Boston Post Rd,,Milford,CT,6460,US,http://www.esixvapors.com/,2033014862,e.sixvapors@gmail.com,2014-08-28,2019-03-20,,V,,,,
Puff City,874 Boston Post Rd,,Milford,CT,6460,US,https://www.puffcity.com/milford/,2032839606,puffcitymilford@gmail.com,2018-11-02,2021-10-27,Yes,S,CBD,Yes,,
Smoke Junction,487 Bridgeport Ave,,Milford,CT,6460,US,,2033019956,,2020-02-18,2020-02-18,,T,,,,
Smoke N' Convenience Junction,762 Boston Post Rd,,Milford,CT,6460,US,https://www.smokejunctionct.com/,2038774069,,2020-02-16,2020-02-16,,S,,,,
U Vape,463 Bridgeport Ave,,Milford,CT,6460,US,,2036932061,uvape8727@yahoo.com,2018-08-26,2022-02-03,Yes,V,CBD,,,
"Your CBD Store - Milford, CT",972 Boston Post Rd,,Milford,CT,6460,US,https://cbdrx4u.com/,2033010333,milfordcbd@rx4u.com,2019-09-11,2019-09-11,Yes,C,CBD,,,
Brand Cigars Of Monroe,230 Roosevelt Dr Ste 5,,Monroe,CT,6468,US,http://www.brandcigarsmonroe.com,2032618274,brandcigars@gmail.com,2018-11-06,,Yes,S,CBD,,,
Your CBD Store,574 Monroe Turnpike,,Monroe,CT,6468,US,https://cbdrx4u.com/find-us/connecticut/monroe,4752311255,monroe0121@cbdrx4u.com,2021-06-02,,Yes,C,CBD,,,
Cloud Nine Shoppe,333 N Main St,,Moosup,CT,6354,US,http://cloudnineshoppe.com/,8605645797,,2019-01-05,,Yes,H,CBD,,,
Cobra Vape & Smoke Shop,500 Main St,,New Britain,CT,6051,US,,8602240444,,2018-08-10,2020-02-05,Yes,S,CBD,Yes,,
Jimmy's Quality Smoke Shop,64 W Main St,,New Britain,CT,6052,US,,8602292074,,2018-11-06,2018-11-06,,S,,,,
Mile Zero Smoke Shop,1535 Stanley St,,New Britain,CT,6053,US,,8607598657,,2020-01-08,,Yes,S,CBD,Yes,,
Your CBD Store,48 Elm St,,New Canaan,CT,6840,US,https://cbdrx4u.com/find-us/connecticut/new-canaan,2035947656,,2021-06-02,,Yes,C,CBD,,,
Artisan Vapor & CBD,78 Church St,,New Haven,CT,6510,US,https://artisanvaporandcbd.com/store/artisan-vapor-cbd-new-haven/,2038915956,artisanvaporonline@gmail.com,2018-08-06,2021-07-14,Yes,V,CBD,,,
Grab N Go Mart,784 Chapel St,,New Haven,CT,6510,US,,2035533636,,2021-10-26,2021-10-26,Yes,S,CBD,,,
Mile Zero 2 Smoke Shop,786 Chapel St,,New Haven,CT,6510,US,,2035533088,,2021-10-26,,Yes,S,CBD,,,
PuffCity,410 Blake St Unit 2,,New Haven,CT,6515,US,,2035351464,,2021-10-27,,Yes,S,CBD,,,
The White Buffalo,748 Chapel St,,New Haven,CT,6510,US,,4752386181,whitebuffalovapors@gmail.com,2018-08-10,2020-02-05,Yes,V,CBD,,,
Tobacco Land,164 Amity Rd,,New Haven,CT,6515,US,,2033893213,,2021-10-28,2021-10-28,,S,,,,
The Fog Factory,391 Colman St,,New London,CT,6320,US,,8605749073,fogfactoryvapeshop@gmail.com,2018-08-10,2020-02-05,Yes,V,CBD,Yes,,
New Milford Vapor & Smoke Shop,129 Danbury Rd,,New Milford,CT,6776,US,http://www.vaporandsmokeshop.com/,8607995370,elekpro@msn.com,2018-08-06,2020-01-15,Yes,S,CBD,Yes,,
Your CBD Store,5 Church St,,New Milford,CT,6776,US,https://cbdrx4u.com/find-us/connecticut/new-milford,8607997871,newmilford652@cbdrx4u.com,2021-06-02,,Yes,C,CBD,,,
Artisan Vapor & CBD Newington,2545 Berlin Turnpike,,Newington,CT,6111,US,https://www.artisanvaporcompany.com/,8605948800,info@artisanvaporcompany.com,2016-09-20,2019-10-25,Yes,V,CBD,,,
J & J Tobacco,3273 Berlin Turnpike,,Newington,CT,6111,US,https://www.jjtobacco.com/,8606660439,jjtobacco3273@yahoo.com,2018-07-24,2019-06-06,,T,,,,
Old Glory,2335 Berlin Turnpike,,Newington,CT,6111,US,http://www.oldglory.com,8606651400,,2018-11-05,,Yes,H,CBD,,,
Songbirds,2551 Berlin Tpke,,Newington,CT,6111,US,,8606657287,,2019-01-05,,Yes,S,CBD,,,
Brand Cigars Newtown,266 S Main St Ste D6,,Newtown,CT,6470,US,,2034267777,newtowncigars@gmail.com,2018-10-15,2021-08-20,Yes,S,CBD,Yes,,
Sergey's Smoke & Nautical Gift Shop,170 Flanders Rd #D2,,Niantic,CT,6357,US,http://www.sergeyssmokeshops.com/,8607396800,,2018-11-29,,Yes,S,CBD,,,
Safer Vaporz,342 State St,,North Haven,CT,6473,US,http://www.safervaporz.com/,2037453386,safervaporz@gmail.com,2015-05-01,2019-05-07,Yes,V,CBD,,,
"Your CBD Store - North Haven, CT",75 Washington Ave #B,,North Haven,CT,6473,US,https://cbdrx4u.com/,2032347779,milfordcbd@rx4u.com,2019-09-11,2019-09-11,Yes,C,CBD,,,
Amazing Intimate Essentials,232 Norwich-Westerly Rd,,North Stonington,CT,6359,US,https://amazingstores.com/,8605358503,,2018-08-06,2018-10-30,Yes,O,CBD,,,
Smoker's Discount World in CT,351 Boston Post Rd #9,,North Windham,CT,6256,US,,8604501343,,2018-08-10,2019-06-16,,S,,,,
Merritt Smoke Shop,345 Main Ave,,Norwalk,CT,6851,US,http://merrittsmoke.business.site,2032958199,,2018-10-23,,,S,,,,
Norwalk Smoke Shop,365 Westport Ave,,Norwalk,CT,6851,US,http://www.vaporandsmokeshop.com,2038458886,info@vaporandsmokeshop.com,2018-08-06,2019-10-23,Yes,S,CBD,,,
Smokey Bear,43 N Main St,,Norwalk,CT,6854,US,,2038382222,,2021-10-28,2021-10-28,Yes,S,CBD,Yes,,
Utopia,150 Connecticut Ave,,Norwalk,CT,6854,US,http://www.utopiact.com/,2038388782,ray@utopiact.com,2018-08-26,2021-03-05,Yes,H,CBD,Yes,,
Organic Health And Wellness,520R Boswell Ave First Floor,,Norwich,CT,6360,US,http://www.ohwect.com,8602222775,ohwect@gmail.com,2020-03-21,2020-03-21,Yes,C,CBD,,,
The Vapor Place,276 W Main St,,Norwich,CT,6360,US,http://www.thevapor.place/,8608868273,newenglandvapor@yahoo.com,2018-09-30,,,V,,,,
Natural Paths - Alternative Solutions,1610 Boston Post Rd,,Old Saybrook,CT,6475,US,http://www.shopnaturalpath.com,8608778273,support@shopnaturalpath.com,2020-02-29,,Yes,C,CBD,Yes,,
Northeast Vapor Supplies,1610 Boston Post Rd,,Old Saybrook,CT,6475,US,http://www.nevaoor.com,8603918514,sales@nevapor.com,2014-09-01,2020-02-29,Yes,V,CBD,Yes,,
Old Glory,1804 Boston Post Rd,,Old Saybrook,CT,6475,US,https://oldglory.com/,8603999808,,2019-01-08,2019-01-08,,H,,,,
Shoreline Tobacco Plaza,1393 Boston Post Rd,,Old Saybrook,CT,6475,US,,8603884811,,2019-06-25,2019-06-25,Yes,S,CBD,Yes,,
Sam's Smoke Junction,71 Oxford Rd #5,,Oxford,CT,6478,US,https://www.smokejunctionct.com,2038884995,,2020-02-13,,,S,,,,
Bestway Smoke & Convenience,380 Liberty St,,Pawcatuck,CT,6379,US,,8604955163,,2020-08-18,,Yes,T,CBD,Yes,,
Your CBD Store,38 W Broad St,,Pawcatuck,CT,6379,US,https://cbdrx4u.com/find-us/connecticut/pawcatuck,8604950380,pawcatuck680@cbdrx4u.com,2021-06-02,,Yes,C,CBD,,,
Grafitti Smoke and Vape Shop,13 Prospect St,,Plainfield,CT,6354,US,,8603171016,,2018-10-22,,Yes,S,CBD,,,
Mighty Vape & Smoke Shop,52 West Main St,,Plainville,CT,6062,US,,8608460917,52mightyvape@gmail.com,2020-11-21,,Yes,H,CBD,Yes,,
CBD Relief CT,352 CT-2,,Preston,CT,6365,US,https://cbdamericanshaman.com/,8608921407,cbdreliefct@gmail.com,2019-11-11,2020-10-29,Yes,C,CBD,,,
Prospect Smoke Shop,50 Waterbury Rd #F,,Prospect,CT,6712,US,https://prospect-smoke-shop.business.site/,2037580170,,2020-02-05,2020-02-05,Yes,S,CBD,Yes,,
The Vapor Edge,6 New Haven Rd Ste 2,,Prospect,CT,6410,US,http://thevaporedge.net/,4752359384,thevaporedge@icloud.com,2018-08-10,2020-02-05,Yes,V,CBD,,,
Neighborhood Smoke & Vape,357 Cromwell Ave,,Rocky Hill,CT,6067,US,http://www.neighborhoodsmokeandvape.com,8602570301,,2018-08-06,2019-10-23,Yes,S,CBD,,,
"Your CBD Store - Rocky Hill, CT",2350 Main St,,Rocky Hill,CT,6067,US,https://cbdrx4u.com/,8605131441,rockyhill457@cbdrx4u.com,2019-09-11,2019-09-11,Yes,C,CBD,,,
Sergeys Smoke Shop,1 New London Rd #22,,Salem,CT,6420,US,http://www.sergeyssmokeshops.com/,8608590774,,2019-12-18,2019-12-18,Yes,S,CBD,Yes,,
Dead Menz Handz,56 Wakeley St Ext,,Seymour,CT,6483,US,,4756755662,deadmenzhandz@gmail.com,2020-06-29,,Yes,V,CBD,,,
Smooth Vaporz,7 Franklin St,,Seymour,CT,6483,US,https://smoothvaporz.com/,2034638132,smoothvaporz@gmail.com,2018-08-10,2020-02-05,,V,,,,
Puff City Shelton,405 River Rd,,Shelton,CT,6484,US,https://www.puffcity.com/,2039221780,puffcityshelton@gmail.com,2020-08-09,2020-08-09,Yes,S,CBD,Yes,,
Smoke World,350 Bridgeport Ave,,Shelton,CT,6484,US,http://www.smokeworldshelton.com/,2035385454,contact@smokeworldshelton.com,2018-08-06,2019-11-16,,S,,,,
Your CBD Store,1243 Hopmeadow St,,Simsbury,CT,6070,US,https://cbdrx4u.com/find-us/connecticut/simsbury,8602171433,connect@ycbdsimsbury.com,2021-06-02,,Yes,C,CBD,,,
Your CBD Store,869 Sullivan Ave Ste 7,,South Windsor,CT,6074,US,https://cbdrx4u.com/find-us/connecticut/south-windsor,8607304338,southwindsor0133@cbdrx4u.com,2021-06-02,,Yes,C,CBD,,,
KM Smoke Shop,385 Main St S,,Southbury,CT,6488,US,,2035861792,,2019-12-26,,,S,,,,
Mir Smoker Club,1079 Queen St Ste 15,,Southington,CT,6489,US,https://mirsmokerclub.business.site/,8604101159,,2018-11-27,2020-01-21,,S,,Yes,,
Silver City Vapors,1049 Queen St,,Southington,CT,6489,US,http://www.silvercityvapors.com/,8604799172,silvercityvapors@gmail.com,2018-02-10,2019-01-24,Yes,V,CBD,,,
Timeless CBD,456 N Main St,,Southington,CT,6489,US,https://www.timelesscbd.com/,8604003019,info@timelesscbd.com,2020-12-08,,Yes,C,CBD,,,
"Your CBD Store - Southington, CT",1049 Queen St #9,,Southington,CT,6489,US,https://cbdrx4u.com/,8607471223,southington268@cbdrx4u.com,2019-09-11,2019-09-11,Yes,C,CBD,,,
Bulls Head Cigar,51 High Ridge Rd,,Stamford,CT,6905,US,,2033590740,,2019-07-29,2019-07-29,Yes,S,CBD,,,
Mohegan Smoke,946 Hope St,,Stamford,CT,6905,US,,2034067966,,2022-02-10,2022-02-10,Yes,S,CBD,Yes,,
Mohegan Smoke Shop,900 High Ridge Rd,,Stamford,CT,6905,US,https://mohegansmokeshopgmail.com/,2035693430,mohegansmokeshop@gmail.com,2022-02-10,2022-02-10,Yes,S,CBD,Yes,,
Stamford Vapor and Smoke,221 Hope St,,Stamford,CT,6906,US,http://www.vaporandsmokeshop.com,2032769058,info@vaporandsmokeshop.com,2018-08-06,2019-06-16,Yes,S,CBD,,,
The CBD Curators,180 Bedford St,,Stamford,CT,6901,US,https://thecbdcurators.com/,2032153843,rmacarthur@thecbdcurators.com,2020-05-13,,Yes,C,CBD,,,
The Glass Room 3,79 Atlantic St,,Stamford,CT,6901,US,,2039685214,,2019-01-05,2019-01-05,Yes,H,CBD,,,
Billows & Blaze Smoke Shop,1056 Stratford Ave,,Stratford,CT,6615,US,,2038708592,,2019-07-25,2019-07-25,,S,,,,
KN Smoke Shop,7365 Main St,,Stratford,CT,6614,US,,4752824438,,2019-12-26,,,S,,,,
Martin's News & Smoke,2339 Barnum Ave,,Stratford,CT,6615,US,http://www.martinssmoke.com,2033752816,info@martinssmoke.com,2018-08-10,2020-02-05,Yes,S,CBD,Yes,,
Royal Smoke Shop,1277 W Broad St,,Stratford,CT,6615,US,,2032904930,,2020-02-11,,Yes,S,CBD,Yes,,
S.A. Cigar Junction,1040 Barnum Ave Ste 2,,Stratford,CT,6614,US,https://sa-cigar-junction.business.site/,2033781600,,2018-08-06,2019-11-05,,S,,,,
Stratford Cigar & Smoke Shop,2340 Broadbridge Ave,,Stratford,CT,6614,US,https://stratfordcigarandsmokeshop.business.site/,2033456873,,2019-05-19,,Yes,T,CBD,Yes,,
Stratford News Smoke & Vape,665 Honeyspot Rd,,Stratford,CT,6615,US,http://www.stratfordvapeshop.com/,2032865889,,2018-08-10,2020-02-05,Yes,S,CBD,Yes,,
Smokers Club,644 Main St,,Torrington,CT,6790,US,,8604820236,,2020-03-11,,,T,,,,
Smooth Vaporz,954 E Main St,,Torrington,CT,6790,US,https://smoothvaporz.com/,8604844697,smoothvaporz@gmail.com,2018-09-30,,,V,,,,
Vape Empire,451 Main St,,Torrington,CT,6790,US,,8602014962,,2019-05-30,,,V,,,,
Wasteland Gift Shop,137 Water St,,Torrington,CT,6790,US,,8604822000,,2018-08-26,2020-02-25,Yes,H,CBD,,,
Turnpike Smoke Shop,1030 Norwich-New London Turnpike,,Uncasville,CT,6382,US,,8608482345,musakazam@hotmail.com,2021-06-11,2021-06-11,Yes,S,CBD,,,
Vapor Express,260 Norwich-New London Turnpike,,Uncasville,CT,6382,US,,8604604891,vaporexpressct1@gmail.com,2019-08-11,,Yes,V,CBD,,,
Puffin Vapor & Leaf,54 Hartford Turnpike,,Vernon,CT,6066,US,http://www.puffinvl.com/,8605120265,info@puffinvl.com,2018-08-06,2020-01-15,Yes,S,CBD,Yes,,
Rock and Smoke,352 Hartford Turnpike #12,,Vernon,CT,6066,US,https://www.rockandsmoke.com/,8604540032,info@rockandsmoke.com,2018-08-06,2019-11-02,Yes,H,CBD,,,
Smokers Paradise,458 Talcottville Rd,,Vernon,CT,6066,US,,8604548687,,2020-03-14,,Yes,S,CBD,,,
Your CBD Store,425 Talcottville Rd Ste D,,Vernon,CT,6066,US,https://cbdrx4u.com/find-us/connecticut/vernon,8603758477,vernon0139@cbdrx4u.com,2021-06-02,2021-08-14,Yes,C,CBD,,,
Crawford's Cigar Shoppe,435 Hartford Tpke,,Vernon Rockville,CT,6066,US,,8608751466,,2019-07-06,2019-12-21,,T,,,,
Puff City Wallingford,722 N Colony Rd Ste A,,Wallingford,CT,6492,US,https://www.puffcity.com/,2036269598,puffcitywallingford@gmail.com,2020-08-09,2020-08-09,Yes,S,CBD,Yes,,
Silver City Vapors,10 Willard Ave Ste A,,Wallingford,CT,6492,US,http://www.silvercityvapors.com/,2036784346,silvercityvapors@gmail.com,2014-09-02,2019-02-07,Yes,V,CBD,,,
The Remedy,43 N Colony Rd,,Wallingford,CT,6492,US,https://theremedy.care/,2036843790,info@theremedy.care,2022-02-28,2022-02-28,Yes,C,CBD,,,
Wallingford Tobacco,898 N Colony Rd,,Wallingford,CT,6492,US,,2032656099,,2019-09-13,,,T,,,,
Lava Smoke Shop,154 Meriden Rd,,Waterbury,CT,6705,US,,2035274074,lavasmokeshopct@gmail.com,2018-08-06,2019-07-31,Yes,S,CBD,Yes,,
Lifestyles,858 Lakewood Rd,,Waterbury,CT,6706,US,http://shop-lifestyles.com,2037576196,contact@shop-lifestyles.com,2018-12-08,2018-12-08,Yes,H,CBD,Yes,,
Shock N Awe,1069 Huntingdon Ave,,Waterbury,CT,6704,US,,2037578874,shocknawellc@sbcglobal.net,2018-08-06,2019-11-05,Yes,H,CBD,Yes,,
Smoke And Hookah Outlet,840 Wolcott St,,Waterbury,CT,6705,US,https://www.smokeandhookahoutlet.com/,2035284332,,2018-08-06,2018-11-13,,S,,Yes,,
Smooth Vaporz,437 Watertown Ave Ste 3,,Waterbury,CT,6708,US,https://smoothvaporz.com/,2035276406,smoothvaporz@gmail.com,2018-08-10,2020-02-05,Yes,V,CBD,,,
Vape & Smoke,635 Lakewood Rd,,Waterbury,CT,6704,US,http://www.vapeandsmoke.com/,2035738488,vape.smoke@outlook.com,2018-10-25,2019-02-25,,S,,,,
Tobacco World,1156 Main St,,Watertown,CT,6795,US,,8604176356,,2020-02-19,,,T,,,,
Artisan Vapor & CBD West Hartford,27 LaSalle Rd,,West Hartford,CT,6107,US,https://www.artisanvaporcompany.com/,8607264090,artisanvaporonline@gmail.com,2018-07-24,2019-10-25,Yes,V,CBD,,,
Songbirds Vape & Smoke,1111 New Britain Ave,,West Hartford,CT,6110,US,,8602321673,songbirdsvs@yahoo.com,2018-09-16,,Yes,V,CBD,,,
Cigarette Express,305 Captain Thomas Blvd,,West Haven,CT,6516,US,,2039337744,,2021-10-26,,Yes,S,CBD,Yes,,
West Haven Vapors,38 Saw Mill Rd,,West Haven,CT,6516,US,http://westhavenvapor.com/,2039330001,steveheard@heardinsurance.com,2018-08-26,2020-02-25,Yes,V,CBD,,,
Franny's Farmacy,31 Church Ln,,Westport,CT,6880,US,https://frannysfarmacy.com/,2035574397,westport@frannysfarmacy.com,2021-01-06,,Yes,C,CBD,,,
Merritt Country Store,337 Main St,,Westport,CT,6880,US,https://merrittcountrystore.wordpress.com/,2034548828,,2018-08-06,2020-01-15,,O,,,,
Fatdaddy Vapors,500 Silas Deane Hwy,,Wethersfield,CT,6109,US,,8604364884,fatdaddyvapors@gmail.com,2018-06-10,2019-03-20,,V,,,,
Bench Shop,786 Main St,,Willimantic,CT,6226,US,,8604238331,,2018-10-27,,,H,,,,
Smoke Zone Smoke Shop,920 Main St,,Willimantic,CT,6226,US,,8609428278,,2019-01-05,,Yes,S,CBD,,,
Sun Mart Smoke Shop & Convenience Store,1242 Main St,,Willimantic,CT,6226,US,http://sun-mart-smoke-shop.business.site/,8604237036,a1sunmart@outlook.com,2020-01-14,,Yes,S,CBD,Yes,,
U Vape,738 Main St,,Willimantic,CT,6226,US,http://www.uvapeus.com/,8607867936,,2018-08-26,2020-02-25,Yes,V,CBD,,,
Your CBD Store,5 River Rd Unit C01,,Wilton,CT,6897,US,https://cbdrx4u.com/find-us/connecticut/wilton,2032107770,wilton0179@cbdrx4u.com,2021-06-02,,Yes,C,CBD,,,
CBD American Shaman North Windham,361 Boston Post Rd Unit 4R,,Windham,CT,6256,US,,8604659894,bbugg21@yahoo.com,2019-11-08,,Yes,C,CBD,,,
Windsor Smoker's Discount,82 Poquonock Ave,,Windsor,CT,6095,US,,8606838978,,2019-09-15,,,S,,,,
Smoker's Discount World,29 Ella Grasso Tpke,,Windsor Locks,CT,6096,US,,8606234715,,2019-05-14,,,S,,,,
Lifestyles of Wolcott,1515 Wolcott Rd,,Wolcott,CT,6716,US,https://www.shop-lifestyles.com/,8605890022,contact@shop-lifestyles.com,2019-01-05,,Yes,H,CBD,,,