Shop Name,Address 1,Address 2,City,State/Province,Zip/Postcode,Country,Website,Phone,Email,Added,Updated,CBD,Biz Type,MJ,Kratom,Buyer name ,Title 
CBD American Shaman - Alcoa,1082 Hunters Crossing,,Alcoa,TN,37701,US,https://cbdamericanshaman.com/,8653921011,,2019-11-11,,Yes,C,CBD,,,
Saffire Vapor,743 Louisville Rd,,Alcoa,TN,37701,US,https://saffirevapor.com/,8652335347,customerservice@saffirevapor.com,2018-08-06,2020-01-01,Yes,V,CBD,,,
Smokeyz Discount Tobacco & Beer,2754 Alcoa Hwy Ste E,,Alcoa,TN,37701,US,,8657241036,,2018-11-03,,,S,,,,
Vapor Max,209 N Calderwood St,,Alcoa,TN,37701,US,,8659843050,maryvillealcoavapormax@gmail.com,2018-09-11,,Yes,V,CBD,,,
Diamond Vape and Smoke,5303 Mt View Rd,,Antioch,TN,37013,US,,6158353750,,2022-03-28,2022-03-28,Yes,S,CBD,Yes,,
True Discount Lotto Land,25900 Main St,,Ardmore,TN,38449,US,http://truediscountlottoland.com/,9314278211,tdaly38449@yahoo.com,2019-12-19,,,T,,,,
Tobacco World Smoke Shop,9775 US-64,,Arlington,TN,38002,US,http://www.tobaccoworldsmokeshop.com/,9014808199,info@tobaccoworldsmokeshop.com,2020-02-25,2020-02-25,Yes,S,CBD,,,
Clear Sky Vapors,110 Hutton Pl,,Ashland City,TN,37015,US,https://clearskyvapors.com/,6158457200,,2022-03-25,2022-03-25,Yes,V,CBD,,,
Hemp Island,232 Hutton Pl Ste 116,,Ashland City,TN,37015,US,https://thehempisland.com,6157924464,info@thehempisland.com,2021-01-26,,Yes,C,CBD,,,
The Good Vape Shop + CBD,1990 TN-49,,Ashland City,TN,37015,US,https://the-good-vape-shop.business.site/,6153985171,thegoodvapeshop@gmail.com,2020-12-02,,Yes,V,CBD,Yes,,
Down-to-Earth Lifestyle & Gifts,203 E Madison Ave,,Athens,TN,37303,US,,4232520629,down2earth.tn@mail.com,2020-12-24,,Yes,C,CBD,,,
Friendly City Vapors,719 Congress Pkwy S #100,,Athens,TN,37303,US,,4232520010,andrew@friendlycityvapors.com,2018-08-06,2019-12-22,Yes,V,CBD,,,
Froglick Farms Merchantile & Sundries,107 New Englewood Rd,,Athens,TN,37303,US,https://www.froglickfarms.com,4232718383,sales@froglickfarms.com,2021-11-19,,Yes,C,CBD,,,
Green-Lite Health CBD and Hemp Dispensary,408 Congress Pkwy N,,Athens,TN,37303,US,https://greenlitehealthdispensary.com/,4234055943,greenlitehealth@gmail.com,2021-01-18,,Yes,C,CBD,,,
Tobacco Outlet,1860 Decatur Pike,,Athens,TN,37303,US,,4236492818,,2020-07-14,,,T,,Yes,,
Vapenotiq Vapors,107 N White St,,Athens,TN,37303,US,,4232447841,vapenotiqvapors@gmail.com,2018-08-27,2020-02-26,Yes,V,CBD,,,
Atoka Tobacco,382 Atoka Mclaughlin Dr,,Atoka,TN,38004,US,,9018404902,atokatobacco@bigriver.net,2019-07-19,,Yes,S,CBD,,,
Bluff City Vapes & CBD,2965 N Germantown Pkwy Ste 120,,Bartlett,TN,38133,US,http://www.bluffcityvapes.com/index.html,9013862150,contact@bluffcityvapes.com,2015-02-27,2019-03-14,Yes,V,CBD,,,
Mad Hatter's Tea & Gifts,5846 Stage Rd,,Bartlett,TN,38134,US,https://madhatterswonderland.com/,9012731375,hatterms@madhattersus.com,2020-01-13,,Yes,C,CBD,Yes,,
Tobacco & Vape,2805 Bartlett Blvd,,Bartlett,TN,38134,US,,9019376929,,2018-09-22,2020-07-19,Yes,T,CBD,,,
VaporWize Bartlett,6848 Stage Rd,,Bartlett,TN,38134,US,https:/www.vaporwize.com,9012498625,vaporwize@gmail.com,2018-08-06,2020-01-09,Yes,V,CBD,,,
Zooks Vapor,3051 Kirby Whitten Rd Ste 5,,Bartlett,TN,38134,US,http://zooksvapor.com/,9017468510,zooksvapor@aol.com,2018-09-19,,Yes,V,CBD,,,
Tri-Healthy CBD Tri-Cities,4571 US-11E,,Bluff City,TN,37618,US,https://www.tri-healthy.com/,4235383532,trihealthybiz@gmail.com,2020-06-01,2020-06-01,Yes,C,CBD,,,
Bolivar Discount Cigarettes,113 N Jones St,,Bolivar,TN,38008,US,,7316587861,bolivardiscountcigarettes@gmail.com,2022-02-16,2022-02-16,Yes,S,CBD,Yes,,
Kindly Green Organic CBD Oil,7061 Moores Ln #100,,Brentwood,TN,37027,US,http://kindly.green/,6156195463,,2021-02-24,,Yes,C,CBD,,,
Kron CBD,123 Franklin Rd,,Brentwood,TN,37027,US,,6152833122,kron@kronlife4.me,2021-02-28,,Yes,C,CBD,,,
Nashville CBD Solutions,150 Pewitt Dr,,Brentwood,TN,37027,US,https://www.tncbdsolutions.com/,6158731269,info@tncbdsolutions.com,2020-07-13,,Yes,C,CBD,,,
The Holistic Connection,1722 General George Patton Dr #100A,,Brentwood,TN,37027,US,https://theholisticconnectiontn.com/,6158647014,info@theholisticconnectiontn.com,2021-04-27,,Yes,C,CBD,,,
CBD Plus USA - Bristol,508 Volunteer Parkway,,Bristol,TN,37620,US,https://cbdplususa.com/,8334223758,info@cbdplususa.com,2019-08-15,,Yes,C,CBD,,,
Parkway Vapor,740 Volunteer Pkwy Ste 4,,Bristol,TN,37620,US,http://parkway-vapor.business.site/,4239566652,mixmaster@volcanovapor.org,2020-02-03,2021-10-31,Yes,V,CBD,,,
The Answer,32 6th St,,Bristol,TN,37620,US,https://theanswer.love/,4233835181,trevor@theanswer.love,2020-07-18,,Yes,C,CBD,,,
The Hemp Cove,32 6th St,,Bristol,TN,37620,US,https://theanswer.love/,4233835181,trevor@theanswer.love,2020-12-17,2020-12-17,Yes,C,CBD,,,
West Tennessee Vapors,2556 N Washington Ave,,Brownsville,TN,38012,US,http://www.westtnvape.com/,7317414168,westtnvape@yahoo.com,2019-06-06,2019-06-06,Yes,V,CBD,,,
Mountain Hemp Farm,1092 Winningham Rd,,Byrdstown,TN,38549,US,https://mtnhempfarms.com/,9313979488,info@mtnhempfarms.com,2021-03-11,,Yes,C,CBD,,,
Black Owl Hemp Clinic,235 US-641 N,,Camden,TN,38320,US,https://blackowlhempclinic.com/,7312132553,blackowl.ky@gmail.com,2020-11-20,,Yes,C,CBD,,,
Discount Cigarettes,269 W Main St,,Camden,TN,38320,US,,7312138236,,2019-08-12,,Yes,S,CBD,,,
Pot O' Gold,161 W Main St,,Camden,TN,38320,US,,7315847656,,2020-11-08,,Yes,O,CBD,Yes,,
The Vape Spot,179 W Main St,,Camden,TN,38320,US,,7315841111,,2018-08-06,2020-01-02,Yes,V,CBD,,,
Cumberland Cannabis Co.,106 3rd Ave W,,Carthage,TN,37030,US,https://www.cumberlandcannabisco.com/,6157671212,customerservice@cumberlandcannabisco.com,2020-12-04,,Yes,C,CBD,,,
All Things Groovy,24 Frazier Ave,,Chattanooga,TN,37405,US,,4232673737,,2019-07-17,,,H,,,,
Be Green Hemp,7540 E Brainerd Rd,,Chattanooga,TN,37421,US,https://begreenhempcbd.com/,4235417711,begreenhempcbd@gmail.com,2020-11-19,,Yes,C,CBD,,,
Bell's Smoke Shop,115 Browns Ferry Rd,,Chattanooga,TN,37419,US,,4238251110,,2019-07-22,,,T,,,,
Bell's Smoke Shop,2700 Broad St,,Chattanooga,TN,37408,US,,4232670785,,2019-07-22,,,S,,,,
CBD American Shaman Chattanooga,330 E Main St,,Chattanooga,TN,37408,US,https://cbdamericanshaman.com/,4235415193,cbdamericanshamanse@gmail.com,2019-11-11,,Yes,C,CBD,,,
CBD American Shaman Hixson,5756 TN-153 Ste 104,,Chattanooga,TN,37343,US,http://cbdamericanshaman.com,4235416800,cbdashixson@gmail.com,2020-04-10,,Yes,C,CBD,,,
CBD Plus USA - Chattanooga,7200 Shallowford Rd Ste 111,,Chattanooga,TN,37421,US,https://cbdplususa.com/,8334223758,,2019-08-13,,Yes,C,CBD,,,
Chattanooga Bud Dispensary,5618 Old Mission Rd,,Chattanooga,TN,37411,US,https://chattanoogabuddispensary.com/,7706179940,chattanoogabuddispensary@gmail.com,2021-10-08,2021-10-08,Yes,C,CBD,,,
Chattanooga Bud Dispensary - Shallowford Rd,7022 Shallowford Rd Ste 3,,Chattanooga,TN,37421,US,https://chattanoogabuddispensary.com/,7706179940,chattanoogabuddispensary@gmail.com,2021-10-08,2022-01-19,Yes,C,CBD,,,
Chattanooga Bud Dispensary - TN-58,4850 TN-58 Ste 110,,Chattanooga,TN,37416,US,https://chattanoogabuddispensary.com/,7706179940,chattanoogabuddispensary@gmail.com,2021-10-08,2022-01-19,Yes,C,CBD,,,
Chattanooga Vapor Co.,7540 E Brainerd Rd Ste 101,,Chattanooga,TN,37421,US,http://chattanoogavaporco.com/,4233050098,chattanoogavaporco@gmail.com,2018-08-29,2020-03-01,Yes,V,CBD,,,
Chattanooga Vapor Co.,440 Cherokee Blvd,,Chattanooga,TN,37405,US,http://chattanoogavaporco.com/,4235515919,chattanoogavaporco@gmail.com,2018-08-29,2020-03-01,Yes,V,CBD,,,
Dab City Tobacco & Vape,480 Greenway View Dr Ste 105,,Chattanooga,TN,37419,US,,4233865518,,2021-05-24,2022-02-11,Yes,S,CBD,,,
Elations,5811 Ringgold Rd,,Chattanooga,TN,37412,US,http://www.shopstarship.com,4238937190,kelly@starshipent.com,2018-10-21,,,S,,,,
FarmToMed,3874 Hixson Pike,,Chattanooga,TN,37415,US,https://www.farmtomed.com/,4232503268,farmtomed@gmail.com,2021-01-04,,Yes,C,CBD,,,
FarmToMed,502 N Market St Ste 110,,Chattanooga,TN,37405,US,https://www.farmtomed.com/,4232503268,farmtomed@gmail.com,2021-01-04,2021-01-04,Yes,C,CBD,,,
Five Leaf Wellness,17 Patten Pkwy,,Chattanooga,TN,37402,US,http://fiveleafwellness.com/,4236813595,fiveleafwellness711@gmail.com,2020-07-01,,Yes,C,CBD,,,
Grass Roots Chattanooga,301 E Martin Luther King Blvd,,Chattanooga,TN,37404,US,,4237139229,grassrootshealthchattanooga@gmail.com,2018-10-30,,Yes,H,CBD,,,
Harry's Tobacco Mart,4850 TN-58 Ste 185,,Chattanooga,TN,37416,US,https://www.harrysstores.com/,4238556818,info@harrysstores.com,2019-12-02,,,T,,,,
Hemp House,512 Tremont St Ste C,,Chattanooga,TN,37405,US,https://www.hemphousechatt.com/,4235314367,hemphousechatt@gmail.com,2018-10-30,,Yes,H,CBD,,,
Hipster Vibes,3829 Hixson Pike,,Chattanooga,TN,37415,US,http://hipstervibes.com,4238057974,hipstervibes423@gmail.com,2018-11-30,2020-01-28,Yes,H,CBD,,,
Mountain Oak Vapors of Chattanooga TN,2265 Gunbarrel Rd,,Chattanooga,TN,37421,US,http://www.mountainoakvapors.com/,4235214511,administrator@mountainoakvapors.com,2018-08-06,2019-12-29,Yes,V,CBD,,,
Pipe One,6215 Lee Hwy #119,,Chattanooga,TN,37421,US,,4238927771,,2020-02-03,2020-02-03,,H,,,,
Roll One Smoke Shop,714 Central Ave,,Chattanooga,TN,37403,US,,4237102043,,2022-03-29,2022-03-29,Yes,S,CBD,,,
Smoke Stack,4729 TN-58,,Chattanooga,TN,37416,US,,4233865146,,2020-03-01,,Yes,C,CBD,Yes,,
Snapdragon Hemp,4830 TN-58 #124,,Chattanooga,TN,37416,US,https://www.snapdragonhemp.com,,snapdragonhemp@gmail.com,2021-05-18,,Yes,C,CBD,,,
Super Tobacco Mart,1003 Ashland Terrace,,Chattanooga,TN,37415,US,http://super-tobacco-mart.business.site/,4236828363,,2020-04-15,,Yes,S,CBD,,,
"Super Tobacco, Vapor and Hookah",7401 E Brainerd Rd Ste 120,,Chattanooga,TN,37421,US,,4235416666,supertobacco12310@yahoo.com,2022-02-14,2022-02-14,Yes,S,CBD,,,
Vapor Island,6847 Lee Hwy,,Chattanooga,TN,37421,US,,4238052406,vapor_island@yahoo.com,2018-08-06,2021-06-12,,V,,,,
Vapor Tonics,8031 E Brainerd Rd,,Chattanooga,TN,37421,US,http://vaportonics.com/,4238151777,info@vaportonics.com,2018-09-15,,,V,,,,
Vapor Tonics,810 Broad St,,Chattanooga,TN,37402,US,http://vaportonics.com/,4237990236,administrator@vaportonics.com,2018-09-15,,,V,,,,
Vapor Tonics of Hixson Chattanooga,4812 Hixson Pike #114,,Chattanooga,TN,37402,US,https://vaportonics.com/,4237084322,info@vaportonics.com,2018-09-15,,,V,,,,
Black Rose Smoke Shop,279 Dover Rd,,Clarksville,TN,37040,US,,9315422818,,2022-02-11,2022-02-11,Yes,S,CBD,Yes,,
Canna 365 Hemp CBD Super Store,700 N Riverside Dr Ste C,,Clarksville,TN,37040,US,,9316145474,canna365tn@gmail.com,2020-06-22,,Yes,C,CBD,,,
Chuckin Clouds - Clarksville East,2400 Madison St Ste 8,,Clarksville,TN,37043,US,https://www.chuckinclouds.com/,9312337888,,2019-03-26,,,V,,,,
Chuckin' Clouds,2680 Trenton Rd Ste 100,,Clarksville,TN,37040,US,http://www.chuckinclouds.com/default.asp,9312331041,chuckincloudslab@gmail.com,2018-10-18,2018-10-18,,V,,,,
Clarksville CBD,655 N Riverside Dr,,Clarksville,TN,37040,US,http://www.clarksvillecbd.net/,9315531036,clarksvillecbd@gmail.com,2020-12-05,,Yes,C,CBD,,,
Discount Tobacco Outlet,1812 Madison St,,Clarksville,TN,37043,US,,9315729069,,2019-10-13,,,T,,,,
Discount Tobacco Outlet,1653 Fort Campbell Blvd,,Clarksville,TN,37042,US,,9319067473,,2019-11-07,,,T,,,,
Emerald City CBD,1770 Madison St Ste A,,Clarksville,TN,37043,US,https://www.emeraldcitycbd.shop/,9312636599,emeraldcitycbd@gmail.com,2020-12-31,,Yes,C,CBD,,,
Fallout Vapor,2609 Fort Campbell Blvd Ste A,,Clarksville,TN,37042,US,,6153397589,falloutvapes@gmail.com,2018-08-06,2019-12-20,Yes,V,CBD,,,
Good Deal Everything,1610 Fort Campbell Blvd,,Clarksville,TN,37042,US,https://gooddealeverything.com/,6155762732,gooddealeverything@gmail.com,2022-04-26,2022-04-26,Yes,S,CBD,,,
Infinity E Cigs & Vape Lounge,113 N Riverside Dr,,Clarksville,TN,37040,US,,9319192888,infinity.e.cigs@aol.com,2018-08-06,2019-12-25,Yes,V,CBD,,,
Nova Vapors,1467 Tiny Town Rd Ste B,,Clarksville,TN,37042,US,http://www.novavapors.com/,8009166682,,2015-08-05,2019-02-13,Yes,V,CBD,,,
Nova Vapors,700 N Riverside Dr Ste D,,Clarksville,TN,37040,US,http://www.novavapors.com/,8009166682,,2014-10-04,2019-02-13,Yes,V,CBD,,,
Pro Vapor,1839 Madison St,,Clarksville,TN,37043,US,http://www.myprovapor.com/,9315426688,info@myprovapor.com,2018-08-06,2019-12-31,Yes,V,CBD,,,
Pro Vapor - Tiny Town,1761 Tiny Town Rd Ste B,,Clarksville,TN,37042,US,http://www.myprovapor.com,9315531551,,2018-08-06,2019-12-31,Yes,V,CBD,,,
Rony's Smoke Shop,419 N 2nd St,,Clarksville,TN,37040,US,,9315910030,,2020-02-11,,Yes,T,CBD,,,
Saffire Vapor,3075 Wilma Rudolph Blvd Ste 2,,Clarksville,TN,37040,US,https://saffirevapor.com/,9318962733,contact@saffirevapor.com,2018-08-06,2020-01-01,Yes,V,CBD,,,
Smoke 4 Less,1728 Memorial Dr,,Clarksville,TN,37043,US,,9318026566,,2020-02-17,,,T,,,,
Smoker's Choice and Market,1320 Fort Campbell Blvd,,Clarksville,TN,37042,US,,9318962477,senaybelay@yahoo.com,2020-03-03,2020-03-03,Yes,S,CBD,,,
The Holistic Connection,2680 Trenton Rd Ste 200,,Clarksville,TN,37040,US,https://theholisticconnectiontn.com/,9312636524,info@theholisticconnectiontn.com,2021-04-27,2021-04-27,Yes,C,CBD,,,
The Holistic Connection,373 Dover Rd,,Clarksville,TN,37067,US,https://theholisticconnectiontn.com/,6155251636,info@theholisticconnectiontn.com,2021-04-27,2021-04-27,Yes,C,CBD,,,
Total Vapor,2801 Wilma Rudolph Blvd,,Clarksville,TN,37040,US,http://www.mytotalvapor.com/,9315516212,info@mytotalvapor.com,2018-09-26,2019-11-18,Yes,V,CBD,,,
Vapor USA,3001 Fort Campbell Blvd,,Clarksville,TN,37042,US,http://vaporusaftcampbellblvd.com/,9315468331,,2019-10-03,,,V,,,,
Vapor USA,226 Dover Rd Ste A,,Clarksville,TN,37042,US,https://vaporusadoverroad.com/,9319194845,,2018-08-29,2020-03-01,,V,,,,
Veteran Grown LLC,1527 Wilma Rudolph Blvd,,Clarksville,TN,37040,US,https://www.veterangrownllc.com/,9314441999,veterangrown@gmail.com,2020-12-12,,Yes,C,CBD,,,
Your CBD Store,1577-A Fort Campbell Blvd,,Clarksville,TN,37042,US,https://cbdrx4u.com/find-us/tennessee/clarksville,9314011105,,2021-06-10,,Yes,C,CBD,,,
Affordable Vapes & CBD,4602 N Lee Hwy,,Cleveland,TN,37312,US,https://cbdshopcleveland.com/,4232056110,3vipers2018@gmail.com,2020-11-16,,Yes,V,CBD,,,
Babylon Pipes & Vapor,2313 Treasury Dr SE,,Cleveland,TN,37323,US,http://www.babylonpipesandvapor.com/,4237905555,babylonpipesandvapor@yahoo.com,2020-08-15,,Yes,S,CBD,,,
CBD Plus USA,704 Paul Huff Parkway St,,Cleveland,TN,37312,US,https://cbdplususa.com/,4232256240,,2020-11-29,,Yes,C,CBD,,,
Mountain Oak Vapors of Cleveland TN,7667 N Lee Highway,,Cleveland,TN,37312,US,http://www.mountainoakvapors.com/,8443907589,administrator@mountainoakvapors.com,2018-08-06,2019-12-29,Yes,V,CBD,,,
Reefers CBD Dispensary,4681 N Lee Hwy Ste A,,Cleveland,TN,37312,US,https://www.reeferscbddispensary.com/,4237900709,reeferscbd@gmail.com,2021-02-01,,Yes,C,CBD,,,
Reefers CBD Dispensary,2171 APD 40,,Cleveland,TN,37323,US,https://www.reeferscbddispensary.com/,4237900192,reeferscbd@gmail.com,2021-02-01,,Yes,C,CBD,,,
Smoke Shop & Beverages,2659 APD 40,,Cleveland,TN,37323,US,https://smoke-shop-beverages.business.site/,4234788081,,2019-05-13,,,T,,,,
The Fix Vape Shop,2374 Blue Springs Rd SE,,Cleveland,TN,37311,US,,4235994956,thefixvapeshop@gmail.com,2018-08-06,2020-01-02,Yes,V,CBD,,,
Vapenotiq Hemp & CBD Dispensary,2573 Georgetown Rd NW suite a,,Cleveland,TN,37311,US,,8889954214,,2020-12-13,,Yes,C,CBD,Yes,,
Smoker Friendly,933 N Charles G Seivers Blvd,,Clinton,TN,37716,US,https://smokerfriendly.com/,8654638164,,2020-07-10,,Yes,S,CBD,,,
Chattanooga Vapor Co.,5032 Ooltewah Ringgold Rd Ste 3,,Collegedale,TN,37363,US,http://chattanoogavaporco.com/,4232696352,chattanoogavaporco@gmail.com,2018-08-29,2020-03-01,Yes,V,CBD,,,
Cloud 9 Smoke Shop,396 New Byhalia Rd,,Collierville,TN,38017,US,https://cloud9smokeshops.com/,9013165619,info@cloud9smokeshops.com,2019-08-26,,Yes,S,CBD,Yes,,
Create A Cig,875 W Poplar Ave Ste 22,,Collierville,TN,38017,US,https://www.createacig.com,9013165808,createacigmemphis@gmail.com,2018-10-20,2018-10-20,Yes,V,CBD,,,
TN Roots CBD,348 New Byhalia Rd Ste 9A,,Collierville,TN,38017,US,https://tnrootscbd.com/,9018007671,tnrootscbd@gmail.com,2020-12-15,,Yes,C,CBD,,,
Tobacco SuperStore,694 W Poplar Ave,,Collierville,TN,38017,US,http://tobaccosuper.com/,9018508801,,2020-03-01,,Yes,T,CBD,,,
"Your CBD Store - Collierville, TN",910 W Poplar Ave Ste 2,,Collierville,TN,38017,US,https://cbdrx4u.com/,9013168775,colliervilletn@cbdrx4u.com,2019-09-17,2019-09-17,Yes,C,CBD,,,
Cell Touch And Vape CBD,105 E James Campbell Blvd #3,,Columbia,TN,38401,US,,9315058485,celltouchandvape@gmail.com,2020-12-14,2020-12-14,Yes,V,CBD,Yes,,
Discount Tobacco Outlet Inc,613 S James Campbell Blvd #B,,Columbia,TN,38401,US,,9313885568,,2019-11-13,,,T,,,,
e-Vaperz,1907 Carmack Blvd Ste C,,Columbia,TN,38401,US,http://e-vaperz.com/,9315482251,info@e-vaperz.com,2014-08-28,2019-02-13,Yes,V,CBD,Yes,,
Hempy's CBD Healthstore,1116 Nashville Hwy #106B,,Columbia,TN,38401,US,https://hempys-cbd-healthstore-shopping-center.business.site/,9315058455,hempyscolumbia@gmail.com,2021-01-29,,Yes,C,CBD,,,
Kountry Kloudz,1806 Carmack Blvd Ste B,,Columbia,TN,37211,US,,9315488383,kountrykloudz@gmail.com,2019-05-08,2019-05-08,Yes,S,CBD,,,
Nashville Vapor,1900 Shady Brook St #C,,Columbia,TN,38401,US,https://www.nashvillevapor.com/,9315488400,info@nashvillevapor.com,2018-08-06,2019-12-30,Yes,V,CBD,,,
Tobacco & Beer,1390 Hampshire Pike,,Columbia,TN,38401,US,,9313802216,,2020-05-05,,,T,,,,
"Vapor Cafe - Columbia, TN",136 Bear Creek Pike Ste B,,Columbia,TN,38401,US,http://vaporcafeshop.com/,9315058155,,2018-09-15,,,V,,,,
Your CBD Store - Spring Hill,1506 Nashville Hwy,,Columbia,TN,38401,US,https://cbdrx4u.com/find-us/tennessee/columbia-spring-hill,9312238787,columbia524@cbdrx4u.com,2020-12-07,2021-06-10,Yes,C,CBD,,,
Active Wellness Products,620 S Jefferson Ave Ste 202,,Cookeville,TN,38501,US,https://activepainmgmt.com/,9315267246,activewellnessproducts@gmail.com,2020-11-16,,Yes,C,CBD,,,
Body Partz Body Piercing Retail And Smoke Shop,899 S Jefferson Ave Ste C,,Cookeville,TN,38501,US,,9315203320,tinaec2007@gmail.com,2019-10-17,,Yes,S,CBD,,,
CBD American Shaman - Cookeville,770 S Jefferson Ave Ste B,,Cookeville,TN,38501,US,https://cbdamericanshaman.com/,9315593604,paul@uppercumberlandcbd.com,2019-11-11,,Yes,C,CBD,,,
Discount Vape,586 S Jefferson Ave Ste N,,Cookeville,TN,38501,US,,9316460900,,2019-04-07,,Yes,V,CBD,,,
Doc's Vape Escape,109 S Jefferson Ave,,Cookeville,TN,38501,US,http://www.docsvape.com/,9318541846,docsvapeescape@outlook.com,2014-09-27,2019-04-07,Yes,V,CBD,,,
Evolve 7 Smoke Shop,650 S Jefferson Ave Ste 108,,Cookeville,TN,38501,US,,9318549990,,2019-06-28,,Yes,S,CBD,Yes,,
Saffire Vapor,512 S Willow Ave,,Cookeville,TN,38506,US,https://saffirevapor.com/,9318540033,contact@saffirevapor.com,2018-08-06,2020-01-01,Yes,V,CBD,,,
Smoke Station,1228 N Washington Ave,,Cookeville,TN,38501,US,,9315256026,,2020-03-01,,,T,,,,
Smokes & Beverage,2305 Dodson Branch Rd #A,,Cookeville,TN,38501,US,,9315281232,,2019-10-07,2019-10-07,Yes,S,CBD,,,
The Holistic Connection,921 S Willow Ave,,Cookeville,TN,38501,US,https://theholisticconnectiontn.com/,9316512700,info@theholisticconnectiontn.com,2021-04-27,2021-04-27,Yes,C,CBD,,,
Vape Zone,696 S Willow Ave Ste 4,,Cookeville,TN,38501,US,,9313722640,gklcinc@msn.com,2014-09-26,2019-02-13,Yes,V,CBD,,,
Scenic City Hemp Co.,4744 US-64,,Copperhill,TN,37317,US,https://sceniccityhempco.com/,4235484367,sceniccityhempco@gmail.com,2021-01-13,,Yes,C,CBD,,,
Create A Cig Cordova,465 N Germantown Pkwy #108,,Cordova,TN,38018,US,https://www.createacig.com/,9014536184,createacigmemphis@gmail.com,2018-10-20,,Yes,V,CBD,,,
Hub City Hemp - Cordova,2200 N Germantown Pkwy Ste 14,,Cordova,TN,38016,US,https://www.hubcityhempcbd.com/,9019309885,,2021-02-08,,Yes,C,CBD,,,
Tobacco Zone,1319 N Germantown Pkwy,,Cordova,TN,38016,US,,9013093008,tbazone@att.net,2018-11-07,2019-06-09,,S,,,,
Vapor World Memphis,420 S Germantown Pkwy Ste 104,,Cordova,TN,38018,US,https://www.vaporworldcentralark.com/,9014356157,vaporworldcentralarkansas@gmail.com,2018-08-29,2020-03-01,Yes,V,CBD,,,
VaporWize,8095 Macon Rd Suite 103,,Cordova,TN,38018,US,,9012493704,vaporwize@gmail.com,2018-09-19,,,V,,,,
Whatever Shop,981 N Germantown Pkwy,,Cordova,TN,38018,US,https://www.whatevershopmemphis.com/,9016543678,info@whatevershopmemphis.com,2018-08-29,2020-03-01,Yes,S,CBD,Yes,,
"Your CBD Store - Cordova, TN",680 N Germantown Pkwy #42,,Cordova,TN,38018,US,https://cbdrx4u.com/,9014536600,cbd3507@gmail.com,2019-09-17,2019-09-17,Yes,C,CBD,,,
Cosmic Ties,4406 Hooper Hwy,,Cosby,TN,37722,US,https://cosmic-ties.business.site/,4234158767,,2018-11-25,2018-11-25,,H,,,,
Mother Nature's Helpful Hemp,204 US-51 Ste A,,Covington,TN,38019,US,,9012378021,mnahemp@gmail.com,2021-03-11,,Yes,C,CBD,,,
Smokin,967 US-51,,Covington,TN,38019,US,,9014761728,,2020-03-21,,Yes,T,CBD,,,
Tobacco Junction,105 Mueller Brass Rd,,Covington,TN,38019,US,,9013139413,,2019-11-07,,,S,,,,
Cann-I-Help Hemp Company,142 West Ave,,Crossville,TN,38555,US,https://cannihelptn.com/,9317871223,cannihelptn@gmail.com,2020-06-22,,Yes,C,CBD,,,
Crossville Vapor,1269 W Ave Ste 102,,Crossville,TN,38555,US,https://crossvillevapor.com/,9313370884,crossvillevapor@gmail.com,2022-03-18,2022-03-18,Yes,S,CBD,,,
Mo Thangz,3213 US-70 N,,Crossville,TN,38571,US,,9314566181,,2018-11-27,2020-01-10,,H,,Yes,,
Plum Crazy Vapor,1660 N Main St,,Crossville,TN,38555,US,,9313370707,plumcrazyvapor@gmail.com,2016-05-22,2019-01-10,Yes,V,CBD,,,
Vapor's Choice,151 Elmore Rd #101,,Crossville,TN,38555,US,,9314843500,,2019-10-02,,Yes,V,CBD,,,
All Tobacco,109 S Hwy 25 Ste 70,,Dandridge,TN,37725,US,,8653972238,,2019-07-17,,Yes,S,CBD,,,
Bell's Smoke Shop,260 16th Ave Unit 49,,Dayton,TN,37321,US,,4235709945,,2019-07-22,,,T,,,,
FarmToMed,4553 Rhea County Hwy,,Dayton,TN,37321,US,https://www.farmtomed.com/,4232855623,farmtomed@gmail.com,2021-01-04,,Yes,C,CBD,,,
Plum Crazy Vapor,260 16th Ave #25,,Dayton,TN,37321,US,,4234289285,plumcrazyvapor@gmail.com,2021-02-10,,Yes,V,CBD,,,
Smiley Tobacco & Beverage,420 Market St,,Dayton,TN,37321,US,,4237755233,,2019-09-24,,,S,,,,
Secret City Vapor of Winchester,2590 Decherd Blvd,,Decherd,TN,37324,US,http://www.secretcityvapors.com/,9316369001,customerservice@secretcityvapors.com,2020-02-15,,,V,,,,
The Juice Bar,2115 Decherd Blvd,,Decherd,TN,37324,US,https://thejuicebartn.com/,9314618896,,2018-08-06,2020-01-02,Yes,V,CBD,Yes,,
Clear Sky Vapor,2000 TN-46,,Dickson,TN,37055,US,https://clearskyvapors.com/,6153758638,ek.fasteddie@gmail.com,2014-09-26,2019-02-12,Yes,V,CBD,,,
Dickson Tobacco & Beer,1832 TN-46,,Dickson,TN,37055,US,,6154468777,,2019-09-05,,,T,,,,
Fallout Vapor,332 Henslee Dr,,Dickson,TN,37055,US,,6155707447,,2018-08-06,2019-12-20,Yes,V,CBD,,,
Hemp House Plus,1408 US-70 Ste B,,Dickson,TN,37055,US,https://hemphouseplus.com,6155709700,sales@hemphouseplus.com,2021-01-26,,Yes,C,CBD,,,
Natures Fixx,1646 TN-46,,Dickson,TN,37055,US,https://www.naturesfixxtn.com/,6153758743,info@naturesfixxtn.com,2020-07-14,,Yes,C,CBD,,,
Rudy's Canna Connect LLC,1834 TN-46 S,,Dickson,TN,37055,US,https://rudyscannaconnectllc.com/,6153304954,,2021-01-15,2021-08-14,Yes,C,CBD,,,
Saffire Vapor,181 Thornton Dr,,Dickson,TN,37055,US,https://saffirevapor.com/,6153260810,customerservice@saffirevapor.com,2020-02-13,,Yes,V,CBD,,,
The Vapor Shop,434 Hwy 46 S,,Dickson,TN,37055,US,,6154464300,thevaporshop12@gmail.com,2018-09-12,2019-08-06,,V,,,,
Tobacco & Beer Market,330 Henslee Dr,,Dickson,TN,37055,US,,6154902902,,2020-05-06,,,T,,Yes,,
4EverEcig CBD Hemp and Vape Shop,2542 Lebanon Pike,,Donelson,TN,37214,US,https://www.4everecig.com/,6158912107,4everecig@gmail.com,2014-09-03,2019-02-12,Yes,V,CBD,,,
A1 CBD 4 You,1503 E Court St,,Dyersburg,TN,38024,US,,7312590377,a1cbd4you@gmail.com,2020-11-15,,Yes,C,CBD,,,
Tobacco Dock,190 US-51 BYP,,Dyersburg,TN,38024,US,,7312861008,,2019-11-07,,,T,,,,
Vape N Smoke,1755 St John Ave,,Dyersburg,TN,38024,US,,7314786233,,2018-09-14,,,V,,,,
West Tennessee Vapors,865 US-51 Bypass N,,Dyersburg,TN,38024,US,,7313776168,westtnvape@yahoo.com,2019-06-06,2019-06-06,Yes,V,CBD,,,
Chattanooga Bud Dispensary - Ringgold Rd,4330 Ringgold Rd Unit 9,,East Ridge,TN,37412,US,https://chattanoogabuddispensary.com/,7706179940,chattanoogabuddispensary@gmail.com,2021-10-08,2022-01-19,Yes,C,CBD,,,
Chattanooga Vapor Co,5716 Ringgold Rd Ste 107,,East Ridge,TN,37412,US,http://chattanoogavaporco.com/,4232696231,chattanoogavaporco@gmail.com,2019-08-02,,,V,,,,
Hemp House,6016 Ringgold Rd Ste 104,,East Ridge,TN,37412,US,https://hemphousechatt.com/,4237714367,dwayne@hemphousechatt.com,2021-01-26,,Yes,C,CBD,,,
Snapdragon Hemp - Tennessee,6210 Greengold Rd,,East Ridge,TN,37412,US,https://www.snapdragonhemp.com/,4234448273,snapdragonhemp@gmail.com,2019-08-16,,Yes,C,CBD,,,
CBD Plus USA - Elizabethton,1018 Over Mountain Dr,,Elizabethton,TN,37643,US,https://cbdplususa.com/,8334223758,info@cbdplususa.com,2019-08-15,,Yes,C,CBD,,,
Discount Tobacco,520 N Roan St,,Elizabethton,TN,37643,US,,4235432766,inquiry@redi-mart.com,2019-11-01,,,T,,,,
Rocky Top Vapor Elizabethton,1026 Over Mountain Dr,,Elizabethton,TN,37643,US,https://www.rockytopvapor.com/,4235430520,rockytopvapor@gmail.com,2018-08-06,2020-01-01,Yes,V,CBD,,,
Crafty Vapors,4870 E Main St,,Erin,TN,37061,US,,9312893258,craftyvapors@yahoo.com,2018-06-25,2019-07-04,,V,,,,
Fairview Vapor,2440 Fairview Blvd Ste 101,,Fairview,TN,37062,US,,6152669107,ek.fasteddie@gmail.com,2022-03-25,2022-04-26,Yes,V,CBD,,,
L7 Vapors,11316 Station W Dr Ste 101,,Farragut,TN,37934,US,http://l7vapors.com/,8653921510,support@l7vapors.com,2018-08-06,2019-12-28,Yes,V,CBD,,,
Elk River Vapor Shop,1517 Huntsville Hwy Ste A,,Fayetteville,TN,37334,US,http://www.elkrivervaporshop.com/,9314385599,shane@elkrivervaporshop.com,2014-09-01,2019-04-03,Yes,V,CBD,Yes,,
Lions Gate Vapor,1629 Huntsville Hwy Ste C,,Fayetteville,TN,37334,US,,9312513054,jim.price@att.net,2014-10-10,2018-12-24,Yes,V,CBD,,,
Battleground Vapors,595 Hillsboro Rd #339,,Franklin,TN,37064,US,http://www.battlegroundvapors.com,6157915552,bgvapors@gmail.com,2018-06-10,2019-03-14,,V,,,,
Cool Springs Wines & Spirits,1935 Mallory Ln,,Franklin,TN,37067,US,http://coolspringswines.com/,6156479363,coolspringswines@gmail.com,2019-09-17,2019-09-17,Yes,T,CBD,,,
Gabber Dunes Hemp,400 Downs Blvd Ste 110,,Franklin,TN,37064,US,http://gabberduneshempreviews.com/,6154728675,rodney@gabberduneshemp.com,2020-10-08,,Yes,C,CBD,,,
Grassland CBD + Hemp Dispensary,2187 Hillsboro Rd Ste 300,,Franklin,TN,37069,US,,6159390704,grasslandcbd@comcast.net,2021-01-14,2021-07-03,Yes,C,CBD,,,
Livegreen CBD Oil Franklin,1113 Murfreesboro Rd Ste 414,,Franklin,TN,37064,US,https://thelivegreenstore.com/,6155512969,info@thelivegreenstore.com,2021-03-19,,Yes,C,CBD,,,
Magical Vapors Franklin,102 Lumber Dr,,Franklin,TN,37064,US,,6152369920,,2018-08-15,2020-02-11,Yes,V,CBD,,,
Marleys Gallery,3065 Mallory Ln #105,,Franklin,TN,37067,US,http://www.smokeshopinnashville.com/,6152243694,m_ghazi82@yahoo.com,2018-08-06,2019-10-20,,S,,,,
Saffire Vapor,9200 Carothers Pkwy Ste 102,,Franklin,TN,37067,US,https://saffirevapor.com/,6154656587,customerservice@saffirevapor.com,2018-08-06,2020-01-01,Yes,V,CBD,,,
Vapor Cafe,1113 Murfreesboro Rd Ste 406,,Franklin,TN,37064,US,http://vaporcafeshop.com/,6154353313,cpierce@vaporcafeshop.com,2018-09-18,,Yes,V,CBD,,,
Your CBD Store,1735 Galleria Blvd #1047,,Franklin,TN,37064,US,https://cbdrx4u.com/find-us/tennessee/cool-springs,6154656084,,2021-06-10,,Yes,C,CBD,,,
CBD Central,335 W Main St Ste E,,Gallatin,TN,37066,US,https://cbdcentraltn.com/,6152068742,cbdcentraltn@gmail.com,2020-11-24,,Yes,C,CBD,,,
Discount Tobacco Outlet,206 W Broadway,,Gallatin,TN,37066,US,,6155277510,,2019-10-13,,,T,,,,
Foghog Vapors,1101 Nashville Pike Ste 180,,Gallatin,TN,37066,US,,6159897216,foghogvapor@gmail.com,2018-08-06,2019-12-22,Yes,V,CBD,,,
Gaslight Vapor,837 Nashville Pike,,Gallatin,TN,37066,US,https://gaslightvapor.com/,6159897501,service@gaslightvapor.com,2018-08-06,2019-12-22,,V,,,,
Smokes For Less,911 S Water Ave,,Gallatin,TN,37066,US,,6154511699,,2019-10-09,2019-10-09,Yes,T,CBD,,,
Smokeville Smokeshop,211 W Main St,,Gallatin,TN,37066,US,https://www.smokevillesmokeshopgallatin.com/,6155277549,smokevillesmokeshop@gmail.com,2022-05-13,2022-05-13,Yes,S,CBD,Yes,,
Tobacco Shop,351 E Main St,,Gallatin,TN,37066,US,,6152301920,,2020-03-03,,,T,,,,
Elk River Vapor Shop,608 Glades Rd,,Gatlinburg,TN,37738,US,http://www.elkrivervaporshop.com/,8654121028,shane@elkrivervaporshop.com,2018-06-22,2019-07-02,Yes,V,CBD,,,
Green Eye Hemp Cafe,1359 East Pkwy Ste B,,Gatlinburg,TN,37738,US,https://greeneyehempcafe.com/,18653259223,info@greenideashemp.com,2021-01-16,2021-01-16,Yes,C,CBD,,,
IX Nubes Vape Lounge,738 Parkway #4,,Gatlinburg,TN,37738,US,https://www.ixnubes.com/,8653654242,ixnubesvapelounge@yahoo.com,2018-08-06,2019-12-25,Yes,V,CBD,,,
Seventh Heaven Gifts and Smoke Shop,745 Parkway #5,,Gatlinburg,TN,37738,US,,8654303203,seventhheavengifts@gmail.com,2019-12-23,,,S,,,,
Smokey's Market & Tobacco,952 Parkway,,Gatlinburg,TN,37738,US,http://smokeysmktandtobacco.weebly.com/,8654365308,,2019-10-09,,,S,,,,
Smoky Grass Station,458 Parkway Ste 6,,Gatlinburg,TN,37738,US,https://www.smokygrassstation.com/,8653251155,joseph@smokymountaingrassstation.com,2021-07-31,2021-08-12,Yes,S,CBD,Yes,,
Smoky Mountain Farmacy,745 Parkway #6,,Gatlinburg,TN,37738,US,https://smokymountainfarmacy.com/,4236083681,smokymountainfarmacy@gmail.com,2021-01-04,,Yes,C,CBD,,,
Smoky Mountain Organics,644 Parkway Ste 3B,,Gatlinburg,TN,37738,US,https://smokymountainorganics.com,8652777317,customerservice@smokymountainorganics.com,2021-01-04,2021-01-04,Yes,C,CBD,,,
Tennessee Hemp Care,454 Parkway,,Gatlinburg,TN,37738,US,https://www.tennesseehempcare.shop/,8654121248,tnhempcare@gmail.com,2020-08-25,,Yes,C,CBD,Yes,,
The Hemp Store,611 Parkway Ste F-3,,Gatlinburg,TN,37738,US,,8654380513,,2020-12-16,,Yes,C,CBD,,,
Vapor Vibez - Kirby,1817 Kirby Pkwy Ste 4,,Germantown,TN,38138,US,,9012071573,,2019-10-03,,Yes,V,CBD,,,
Discount Tobacco Outlet,911 Rivergate Pkwy,,Goodlettsville,TN,37072,US,,6158590911,,2019-11-11,,Yes,T,CBD,,,
Eagle's Smoke Shop,111 Northcreek Blvd,,Goodlettsville,TN,37072,US,,6158556555,,2019-10-01,,,S,,,,
Good Deal Everything,720 Rivergate Pkwy,,Goodlettsville,TN,37072,US,https://gooddealeverything.com/,6152398469,gooddealeverything@gmail.com,2022-04-26,2022-04-26,Yes,S,CBD,,,
Hempy's CBD Healthstore,766 Rivergate Pkwy,,Goodlettsville,TN,37072,US,,6154486423,hempysrivergate@gmail.com,2021-01-29,,Yes,C,CBD,,,
"Your CBD Store - Rivergate, TN",811 Rivergate Pkwy #A,,Goodlettsville,TN,37072,US,https://cbdrx4u.com,6154486441,rivergate409@cbdrx4u.com,2020-07-22,2020-07-22,Yes,C,CBD,,,
Gold Spectrum CBD,6248 Kingsport Hwy,,Gray,TN,37615,US,https://goldspectrumtn.com/,4232076172,,2021-01-13,,Yes,C,CBD,,,
CoolVape,1959 US-41 Ste 6,,Greenbrier,TN,37073,US,,6156431301,,2019-08-16,,Yes,V,CBD,,,
Eagle Market N Tobacco,1305 2 Tusculum Blvd,,Greeneville,TN,37745,US,,4235255885,,2022-04-19,2022-04-19,,S,,,,
Greene Hemp Company,615 E Andrew Johnson Hwy,,Greeneville,TN,37745,US,https://www.greenehempcompany.com/,4238239742,greenehempcompany@gmail.com,2021-01-18,2021-01-18,Yes,C,CBD,,,
Greeneville Vapor,402 E Bernard Ave,,Greeneville,TN,37745,US,,4238239913,greenevillevapor@gmail.com,2018-08-06,2019-12-23,Yes,V,CBD,,,
Kiker's Tobacco Outlet #2,207 Asheville Hwy,,Greeneville,TN,37743,US,,4235255187,,2019-12-26,2019-12-26,,T,,,,
Redi Mart Discount Tobacco,820 Tusculum Blvd,,Greeneville,TN,37745,US,https://www.redi-mart.com/,4238239658,,2020-02-08,,,T,,,,
Uprooted Health,1000 Snapps Ferry Rd,,Greeneville,TN,37745,US,https://www.cbduprooted.com/,4235250389,info@cbduprooted.com,2020-12-11,,Yes,C,CBD,,,
Roane Smoke Shop,1034 S Roane St,,Harriman,TN,37748,US,,8658826136,,2020-02-10,,,T,,,,
Vapor Fox,1099 Roane St Ste 2,,Harriman,TN,37763,US,,8652859656,vapormax10@gmail.com,2018-09-15,2020-12-13,Yes,V,CBD,,,
Smokey's Tobacco Outlet,14450 Scott Hwy,,Helenwood,TN,37755,US,,4235692302,sto@highland.net,2020-03-20,,Yes,T,CBD,,,
Plaza's Discount Cigarettes,345 E Main St,,Henderson,TN,38340,US,,7315200031,,2019-09-29,,,T,,,,
Simple City CBD,126 N Church Ave,,Henderson,TN,38340,US,https://www.simplecitycbd.org/,7314355050,simplecitycbd@att.net,2021-01-11,,Yes,C,CBD,,,
American Discount Tobacco Center,620 W Main St,,Hendersonville,TN,37075,US,,6159917181,,2019-07-17,2019-07-17,,S,,,,
Good Deal Everything,799 W Main St,,Hendersonville,TN,37075,US,https://gooddealeverything.com/,6154310468,gooddealeverything@gmail.com,2022-04-26,2022-04-26,Yes,S,CBD,,,
Nova Vapors,247 W Main St Ste K,,Hendersonville,TN,37075,US,http://www.novavapors.com/,6154312761,,2018-08-06,2019-12-30,Yes,V,CBD,,,
Saffire Vapor,206 Indian Lake Blvd Ste 10,,Hendersonville,TN,37075,US,https://saffirevapor.com/,6154310436,customerservice@saffirevapor.com,2018-09-13,,Yes,V,CBD,,,
SmokeVille Smokeshop,699 W Main St Ste 201,,Hendersonville,TN,37075,US,http://smokevillesmokeshop.com/,6159914919,smokevillesmokeshop@gmail.com,2019-01-16,,Yes,S,CBD,Yes,,
TN Vapor,394 W Main St Ste A1,,Hendersonville,TN,37075,US,,6154475571,,2018-09-28,2021-06-15,Yes,V,CBD,,,
"Your CBD Store - Hendersonville, TN",240 E Main St Ste B,,Hendersonville,TN,37075,US,https://cbdrx4u.com/,6155907364,hendersonville@cbdrx4u.com,2019-09-17,2019-09-17,Yes,C,CBD,,,
Hippy Dippy Gypsy,4824 Old Hickory Blvd,,Hermitage,TN,37076,US,,6159150127,,2018-11-24,,,H,,,,
Lazy Boy Smoke Shop,5764 Old Hickory Blvd,,Hermitage,TN,37076,US,,,lazyboycbd@gmail.com,2020-07-28,,Yes,S,CBD,Yes,,
Mellow Vape 2,3875 Lebanon Pike,,Hermitage,TN,37076,US,http://www.mellowvape.com/,6159425408,admin@mellowvape.com,2018-08-06,2019-12-29,Yes,V,CBD,Yes,,
Smoke USA/Vape USA,3466 Lebanon Pike,,Hermitage,TN,37076,US,,6156518632,,2019-08-09,,Yes,S,CBD,,,
American Tobacco Outlet,8513 Hixson Pike Ste C,,Hixson,TN,37343,US,,4238470024,,2019-07-18,,,T,,,,
CBD Plus USA,5721 TN-153 Ste 111,,Hixson,TN,37343,US,https://cbdplususa.com/,4237024516,,2020-11-29,,Yes,C,CBD,,,
Chattanooga Vapor Co.,5450 TN-153 Ste 144,,Hixson,TN,37343,US,http://chattanoogavaporco.com,4234684072,chattanoogavaporco@gmail.com,2018-08-29,2019-08-02,,V,,,,
Dallas Bay Vape Shop,8505 Hixson Pike Ste A,,Hixson,TN,37343,US,,4237775537,,2018-08-15,2020-02-11,Yes,V,CBD,,,
Mountain Oak Vapors of Hixson,5721 TN-153 Ste 105,,Hixson,TN,37343,US,http://www.mountainoakvapors.com/,4234983070,,2018-08-06,2019-12-23,Yes,V,CBD,,,
Snapdragon Hemp,5104 TN-153,,Hixson,TN,37343,US,,4234448273,snapdragonhemp@gmail.com,2019-08-16,,Yes,C,CBD,,,
Tribal Vapors,6401 Hixson Pike Ste C-1,,Hixson,TN,37343,US,,4238052056,,2018-08-06,2020-01-04,Yes,V,CBD,,,
Little Bit Of Everything,2700 Eastend Dr,,Humboldt,TN,38343,US,,7312934257,,2020-06-14,,Yes,T,CBD,,,
The Hippie Hut,2180 Hawks Loop,,Humboldt,TN,38343,US,,7314871380,hippiehutcbd@gmail.com,2020-12-16,,Yes,C,CBD,,,
Vapor Station,207 Main St,,Jacksboro,TN,37757,US,,4235666134,,2018-09-28,,Yes,V,CBD,,,
731 Hemp CBD,581 Old Hickory Blvd Ste G,,Jackson,TN,38305,US,https://731hempcbd.com/,7314263016,731hemp@gmail.com,2020-11-15,,Yes,C,CBD,,,
Hemp Life,19 N Star Dr #P,,Jackson,TN,38305,US,https://hemp-life-cannabis-store.business.site/,7314316152,hemplifee@gmail.com,2021-01-26,,Yes,C,CBD,,,
Hub City Hemp,105A Devonshire Square,,Jackson,TN,38305,US,https://www.hubcityhempcbd.com/,7316976607,,2021-02-08,,Yes,C,CBD,,,
Smoke Shop,721 Old Hickory Blvd,,Jackson,TN,38305,US,,7316683614,,2018-09-12,2020-02-27,,S,,Yes,,
Smoke Shop II,799 Hollywood Dr,,Jackson,TN,38301,US,,7314234811,799smokeshop@gmail.com,2020-02-27,,Yes,S,CBD,,,
Tobacco Place II,1660 S Highland Ave #A,,Jackson,TN,38301,US,,7314259440,,2019-10-17,,,T,,,,
Tobacco World Smoke Shop,1996 N Highland Ave,,Jackson,TN,38305,US,http://www.tobaccoworldsmokeshop.com/,7313007133,info@tobaccoworldsmokeshop.com,2018-09-26,,,S,,,,
Victory Vapor,1345 S Highland Ave #B,,Jackson,TN,38301,US,,7317363099,,2018-08-29,2020-03-01,Yes,V,CBD,,,
Victory Vapor North,865 Vann Dr Ste A,,Jackson,TN,38305,US,,7313004030,victoryvapornorth@gmail.com,2018-08-29,2020-03-01,,V,,,,
West Tennessee Vapors,621 Old Hickory Blvd Ste H,Hamilton Hills Shopping Center,Jackson,TN,38305,US,http://www.westtnvape.com/,7317364000,westtnvape@yahoo.com,2019-06-06,2019-06-06,Yes,V,CBD,,,
Your CBD Store,1081 Vann Dr #114,,Jackson,TN,38305,US,https://cbdrx4u.com/,7317362868,jackson623@cbdrx4u.com,2020-12-07,,Yes,C,CBD,,,
Blue Whale Vapor of Jefferson City,921 TN-92 #B,,Jefferson City,TN,37760,US,https://www.badfisheliquid.com/,8652629383,bluewhalevapor@gmail.com,2018-07-03,2019-07-22,Yes,V,CBD,,,
Custom Vapor Headquarters,518 E Broadway Blvd,,Jefferson City,TN,37760,US,,8652629072,customvaporhq@gmail.com,2014-09-26,2019-04-06,Yes,V,CBD,,,
Tobacco & More,478 E Broadway Blvd,,Jefferson City,TN,37760,US,,8654758327,,2020-05-23,2022-03-09,Yes,S,CBD,,,
Catch 22,805 W Walnut St,,Johnson City,TN,37604,US,https://catch-22-tobacco-shop.business.site/,4232320670,,2019-01-08,,Yes,H,CBD,,,
Catch 22,2708 N Roan St #8,,Johnson City,TN,37601,US,,4232820180,,2019-01-08,,Yes,H,CBD,,,
CBD Plus USA - Johnson City,612 Lyle St Ste 115,,Johnson City,TN,37604,US,https://cbdplususa.com/,8334223758,info@cbdplususa.com,2019-08-15,2019-08-15,Yes,C,CBD,,,
CBD Plus USA - Johnson City - Roan,2244 N Roan St,,Johnson City,TN,37601,US,https://cbdplususa.com/,8334223758,info@cbdplususa.com,2019-08-16,2019-08-16,Yes,C,CBD,,,
Discount Tobacco,608 W Market St,,Johnson City,TN,37604,US,http://www.smokerfriendlytn.com/,4239289401,,2019-08-24,,Yes,T,CBD,,,
Discount Tobacco,5025 Bobby Hicks Hwy #102,,Johnson City,TN,37615,US,,4232070427,inquiry@redi-mart.com,2019-09-20,,,S,,,,
Mountain Roots Hemp Dispensary and Cafe,120 W Main St,,Johnson City,TN,37604,US,https://mountainrootshemp.com/,4237223300,realmountainroots@gmail.com,2021-03-10,,Yes,C,CBD,,,
Planet Vapor,2244 N Roan St #103,,Johnson City,TN,37601,US,,4237223101,,2021-07-21,,,V,,,,
Rocky Top Vapor Johnson City,2617 N Roan St #110,,Johnson City,TN,37601,US,https://www.rockytopvapor.com/,4236310727,rockytopvapor@gmail.com,2018-08-06,2020-01-01,Yes,V,CBD,,,
The Hemp Shop,2106 N Roan St #6,,Johnson City,TN,37601,US,https://www.the1hempshop.com/,4233289199,the1hempshop@gmail.com,2020-12-16,,Yes,C,CBD,,,
Tri-City Wholesale Tobacco,4726 N Roan St,,Johnson City,TN,37615,US,,4236100991,,2020-01-16,,,S,,,,
Vape On,1407 W Market St,,Johnson City,TN,37604,US,https://vape-bear.myshopify.com/,4239288273,vapeonjc@gmail.com,2018-09-22,,Yes,V,CBD,Yes,,
Vapor Delirium,2913 Boones Creek Rd Ste 7,,Johnson City,TN,37615,US,,4239561547,vapordelirium@gmail.com,2014-09-30,2019-06-09,,V,,,,
Volunteer Vapors,1342 Milligan Hwy,,Johnson City,TN,37601,US,,4232023632,donnieg1977@hotmail.com,2018-08-29,2020-03-01,Yes,V,CBD,Yes,,
Delta Nine Delivery,1000 W Jackson Blvd Ste 9,,Jonesborough,TN,37659,US,https://deltaninedelivery.com/,4239487199,cbd@deltaninedelivery.com,2020-12-20,,Yes,C,CBD,,,
East Tennessee Hemp Company,107 E Main St,,Jonesborough,TN,37659,US,https://canna419.com/,4232681084,easttennesseehempcompany@gmail.com,2020-12-26,,Yes,C,CBD,,,
OMM Discount Tobacco,400 W Jackson Blvd,,Jonesborough,TN,37659,US,,4239134619,,2020-01-31,,,S,,,,
Chattanooga Vapor Co.,310 Kimball Crossing Dr,,Kimball,TN,37347,US,http://chattanoogavaporco.com/,4235515919,chattanoogavaporco@gmail.com,2018-08-29,2020-03-01,Yes,V,CBD,,,
Advanced Botanicals of Tennessee Kratom and CBD,3032 N John B Dennis Hwy,,Kingsport,TN,37660,US,https://advancedbotanicalstn.com/,4237652765,,2020-11-16,,Yes,C,CBD,Yes,,
Apotheca,1526 E Stone Dr,,Kingsport,TN,37660,US,,4232263769,,2022-04-13,2022-04-13,Yes,C,CBD,Yes,,
Catch 22,2633 Fort Henry Dr,,Kingsport,TN,37664,US,,4232466744,,2019-01-08,2019-01-14,Yes,H,CBD,,,
CBD Plus USA - Kingsport,1101 E Stone Dr Ste 3B,,Kingsport,TN,37660,US,https://cbdplususa.com/,8334223758,info@cbdplususa.com,2019-08-15,,Yes,C,CBD,,,
Discount Tobacco,3440 Fort Henry Dr,,Kingsport,TN,37664,US,,4237659300,inquiry@redi-mart.com,2019-10-31,,Yes,S,CBD,,,
Northeast Tennessee Hemp Co. CBD,3493 Bloomingdale Rd,,Kingsport,TN,37660,US,https://www.northeasttennesseehempco.com/,4233900647,northeasttennesseehempco@outlook.com,2021-02-25,,Yes,C,CBD,,,
Planet Vapor,1001 E Stone Dr Ste E,,Kingsport,TN,37664,US,http://www.myplanetvapor.com/,4233901512,planetvapor1@gmail.com,2014-09-13,2019-02-13,Yes,V,CBD,,,
Rocky Top Vapor Kingsport,1233 N Eastman Rd Ste 330,,Kingsport,TN,37664,US,https://www.rockytopvapor.com/,4237650707,rockytopvapor@gmail.com,2018-08-06,2020-01-01,Yes,V,CBD,,,
AA Tobacco and Mart,6017 Chapman Hwy,,Knoxville,TN,37920,US,,8652475054,,2019-07-15,,,T,,,,
Alternative Health CBD & Hemp,7213 Kingston Pike,,Knoxville,TN,37919,US,,8658517575,alternativehealth420@gmail.com,2020-11-17,,Yes,C,CBD,,,
Apotheca,10809 Kingston Pike,,Knoxville,TN,37934,US,http://www.thehookahhookup.net,8652880420,knox2@thehookahhookup.net,2022-01-28,2022-01-28,Yes,C,CBD,Yes,,
Apotheca,5710 Kingston Pike Ste D,,Knoxville,TN,37919,US,http://www.thehookahhookup.net,8653132665,knox2@thehookahhookup.net,2018-12-30,2021-08-30,Yes,C,CBD,Yes,,
CBD American Shaman Fountain City,3026 Tazewell Pike,,Knoxville,TN,37918,US,,8652008344,cbdamericanshamanfountaincity@gmail.com,2020-09-24,,Yes,C,CBD,,,
CBD American Shaman Knoxville Tn,150 Lovell Rd Ste 102,,Knoxville,TN,37934,US,,8653921011,3foxes.fl@gmail.com,2019-11-08,,Yes,C,CBD,,,
CBD Plus USA - Knoxville 1,5411 Kingston Pike,,Knoxville,TN,37919,US,https://cbdplususa.com/,8334223758,,2019-08-14,,Yes,C,CBD,,,
CBD Plus USA - Knoxville 2,2901 Tazewell Pike,,Knoxville,TN,37918,US,https://cbdplususa.com/,8334223758,,2019-08-14,,Yes,C,CBD,,,
CBD Plus USA - Knoxville 3,109 Moss Grove Blvd Ste 109,,Knoxville,TN,37922,US,https://cbdplususa.com/,8334223758,,2019-08-14,2019-08-14,Yes,C,CBD,,,
Chapman Highway Hemp Solutions,4509 Chapman Hwy,,Knoxville,TN,37920,US,,8655569639,chapmanhempsolutions@yahoo.com,2020-12-01,,Yes,C,CBD,,,
Cigars & More,7600 Kingston Pike Ste 1548,,Knoxville,TN,37919,US,,8654700090,,2019-09-27,,,T,,,,
Clouds Over Knox,2315 Chapman Hwy,,Knoxville,TN,37920,US,,8652474932,info@cloudsoverknox.com,2020-12-02,,Yes,V,CBD,,,
D20 Vape,6931 Maynardville Pike #A,,Knoxville,TN,37918,US,,8653773473,d20vape@gmail.com,2018-07-03,2019-07-22,,V,,,,
Discount Puffs N' Ale,5452 Millertown Pike,,Knoxville,TN,37924,US,,8652004683,setu.kalariya@gmail.com,2019-10-18,,,S,,,,
Fantasy World Ecig & Smoke Shop,120 S Peters Rd #7,,Knoxville,TN,37923,US,http://fantasyworldknoxville.com,8656916775,,2018-08-06,2018-11-10,,V,,,,
Fire in the Hole,6714 Central Avenue Pike Ste G,,Knoxville,TN,37912,US,https://fithknox.com/,8657665484,info@fithknox.com,2020-08-12,2020-08-12,Yes,H,CBD,Yes,,
Hemp Connect CBD Dispensary,506 Lovell Rd,,Knoxville,TN,37932,US,https://www.hemp-connect.com,8652758899,support@hemp-connect.com,2020-07-04,,Yes,C,CBD,,,
Hemp House,1645 Downtown W Blvd UNIT 10,,Knoxville,TN,37919,US,https://hemphouseknoxville.com/,8658518899,andy@hemphouseknoxville.com,2021-01-26,,Yes,C,CBD,,,
High 5,114 Carr St,,Knoxville,TN,37919,US,http://high5knoxville.com/,8653125290,high5knox@yahoo.com,2019-01-14,,Yes,H,CBD,Yes,,
Knoxville Hemp Dispensary,5833 Clinton Hwy #103,,Knoxville,TN,37912,US,,8652478067,,2021-02-25,,Yes,C,CBD,Yes,,
Knoxville Vapor,5201 Kingston Pike Unit 4,,Knoxville,TN,37919,US,,8654665107,knoxvillevapor@gmail.com,2018-09-12,,,V,,,,
L7 Vapors Karns,7817 Oak Ridge Hwy Ste 2,,Knoxville,TN,37931,US,http://www.l7vapors.com/,8653335450,sales@l7vapors.com,2018-08-06,2019-12-28,Yes,V,CBD,,,
Mama's CBD,402 N Cedar Bluff Rd #7,,Knoxville,TN,37923,US,http://mamas-cbd.com/,8652178876,mamascbd@gmail.com,2021-03-17,2021-08-14,Yes,C,CBD,,,
Middlebrook Discount Tobacco and Liquor,3325 Middlebrook Pike,,Knoxville,TN,37921,US,,8659713265,,2020-01-19,2020-01-19,,S,,,,
Monkey Vapors,5833 Clinton Hwy,,Knoxville,TN,37912,US,https://monkeyvapors.net/,8653323552,,2018-08-06,2019-05-03,Yes,V,CBD,,,
Monkey Vapors,9165 Kingston Pike,,Knoxville,TN,37917,US,,8652823163,,2019-05-03,2019-05-03,Yes,V,CBD,,,
Monkey Vapors,6625 Maynardville Pike #110,,Knoxville,TN,37918,US,https://monkeyvapors.net/,8652478134,bjkk_4@yahoo.com,2019-05-03,2019-05-03,Yes,V,CBD,,,
Mountain Oak Vapors of Knoxville TN,150 Lovell Rd #100,,Knoxville,TN,37934,US,http://www.mountainoakvapors.com/,8652887343,administrator@mountainoakvapors.com,2018-08-06,2019-12-29,Yes,V,CBD,,,
Mr Tobacco,4409 Chapman Hwy Ste T,,Knoxville,TN,37920,US,,8655737973,,2020-01-22,,,T,,,,
Noble Kava,1328 N Broadway,,Knoxville,TN,37917,US,,8658517982,greenprojekt@yahoo.com,2019-05-06,,Yes,C,CBD,Yes,,
Off the Wall,8805 Kingston Pike Ste 103,,Knoxville,TN,37923,US,,8656933722,otw420@yahoo.com,2019-01-14,,Yes,H,CBD,Yes,,
Saffire Vapor,11521 Parkside Dr,,Knoxville,TN,37934,US,https://saffirevapor.com/,8653921420,contact@saffirevapor.com,2018-08-06,2020-01-01,Yes,V,CBD,,,
Saffire Vapor,5543 Clinton Hwy,,Knoxville,TN,37912,US,https://saffirevapor.com/,8653128790,customerservice@saffirevapor.com,2018-08-06,2020-01-01,Yes,V,CBD,,,
Smoke Rings Smoke Shop,1707 Cumberland Ave,,Knoxville,TN,37916,US,,8652008903,,2019-01-16,,Yes,H,CBD,Yes,,
Smoky Mountain Organics,8018 Kingston Pike,,Knoxville,TN,37919,US,https://smokymountainorganics.com,8652475949,customerservice@smokymountainorganics.com,2021-01-04,,Yes,C,CBD,,,
Tennessee Vapor Factory,8817 Kingston Pike Ste 107,,Knoxville,TN,37923,US,http://tennesseevaporfactory.com/,8652813407,tennesseevaporfactory@gmail.com,2018-08-06,2020-01-02,,V,,,,
The Hookah Hook-Up - Knoxville,2110 Cumberland Ave,,Knoxville,TN,37916,US,http://www.thehookahhookup.net,8655400839,,2018-11-19,,Yes,S,CBD,,,
The Treehouse Remedy,9727 Kingston Pike #C,,Knoxville,TN,37922,US,https://thetreehouseremedy.com/,8659511901,hello@thetreehouseremedy.com,2020-12-08,2020-12-08,Yes,C,CBD,,,
The Vape Shop,5026 Clinton Hwy,,Knoxville,TN,37912,US,https://www.knoxvillevapeshop.com/,8652005183,thevapeshop@yahoo.com,2018-08-06,2020-01-02,Yes,V,CBD,,,
Tobacco etc,2915 Sanderson Rd,,Knoxville,TN,37921,US,https://tobacco-etc.business.site/,8654443943,,2020-06-26,,Yes,S,CBD,Yes,,
Tobacco King,2001 N Broadway #H,,Knoxville,TN,37917,US,,8655243736,,2019-12-14,,,T,,,,
Tobacco King,7815 Oak Ridge Hwy,,Knoxville,TN,37931,US,,8656903077,,2019-11-29,,,T,,,,
Up 'n Smoke,930 E Emory Rd,,Knoxville,TN,37938,US,,8659470423,,2019-10-18,,,T,,,,
Up In Smoke,4909 Millertown Pike,,Knoxville,TN,37917,US,,8653290059,,2019-10-20,,,T,,,,
Vape N Stuff,8310 Asheville Hwy,,Knoxville,TN,37924,US,,8654104103,vapenstuffsp@yahoo.com,2018-10-25,,,V,,,,
Vapor Max,7603 Clinton Hwy,,Knoxville,TN,37931,US,,8659388277,,2018-09-24,2018-11-13,,V,,,,
Vapor Trails,3603 Chapman Hwy,,Knoxville,TN,37920,US,http://www.vaportrailsinc.com/,8652498186,vaportrailsvapeshop@gmail.com,2018-09-15,,Yes,V,CBD,,,
Vaporfix,7325 Kingston Pike,,Knoxville,TN,37919,US,https://vaporfi-knoxville.business.site/,8652995200,info@vaporfix.com,2021-06-15,,Yes,V,CBD,,,
Vintage Vapors Knoxville,112 Jack Dance St,,Knoxville,TN,37919,US,https://www.vintagevaporsknox.com/,8653153837,vintagevaporsknox@gmail.com,2018-08-29,2020-03-01,Yes,V,CBD,,,
Wicked Ink Tattoo & Body Piercing,6162 Clinton Hwy,,Knoxville,TN,37912,US,,8652199800,wicked.ink.tattoos.piercings@gmail.com,2018-10-26,,,S,,,,
Brookside CBD Wellness Center,3609 Outdoor Sportsman Pl #3,,Kodak,TN,37764,US,https://www.brooksidecbd.com/,8654658066,brooksidecbd@gmail.com,2020-11-21,,Yes,C,CBD,,,
Simply Comfort By Design,602 Waldron Rd,,La Vergne,TN,37086,US,https://www.simplycbdlavergne.com/,6154714083,simplycbdllc@gmail.com,2020-12-27,2020-12-27,Yes,C,CBD,,,
Smoke Club 13,5234 Murfreesboro Rd,,La Vergne,TN,37086,US,https://smokeclub13tn.com/,6152130474,michaelsnaguib@gmail.com,2021-06-16,,Yes,V,CBD,,,
Cafe Vapor Lounge,505 Ellington Dr Ste B,,Lafayette,TN,37083,US,,6156880388,cafevaporlounge@gmail.com,2015-09-20,2019-02-12,Yes,V,CBD,,,
The Vape Ape,1002 Scottsville Rd,,Lafayette,TN,37083,US,,6156881500,,2018-05-22,2019-06-18,Yes,V,CBD,,,
Tobacco Mercantile,102 N Massachusetts Ave #14,,LaFollette,TN,37766,US,,4235620890,,2020-07-13,,,T,,,,
Hifive Supply,3400A Old Hickory Blvd,,Lakewood,TN,37138,US,https://hifive-supply.business.site/,6155417624,hifivesupply@gmail.com,2018-12-18,,Yes,H,CBD,,,
Music Trip,909 N Locust Ave #106,,Lawrenceburg,TN,38464,US,,9317625745,,2021-03-09,2021-03-09,Yes,O,CBD,,,
Sterling Vapor,1726 N Locust Ave,,Lawrenceburg,TN,38464,US,http://www.ecigsejuice.com/,9312018121,sterlingvapor@outlook.com,2014-09-07,2019-01-31,Yes,V,CBD,,,
Tobacco Outlet,1960 N Locust Ave,,Lawrenceburg,TN,38464,US,,9317661234,,2020-07-14,,Yes,T,CBD,,,
4EverEcig,1027 W Main St,,Lebanon,TN,37087,US,https://www.4everecig.com/,6154708233,4everecig@gmail.com,2018-07-03,2019-07-18,Yes,V,CBD,,,
4EverEcig CBD Hemp and Vape Shop,704 S Cumberland St,,Lebanon,TN,37087,US,https://www.4everecig.com/,6155479351,4everecig@gmail.com,2014-09-03,2019-04-20,Yes,V,CBD,,,
Blu's Everything Hemp,210 W Gay St,,Lebanon,TN,37087,US,,6154504047,bluhemp1369@gmail.com,2020-10-22,,Yes,C,CBD,,,
CBD Plus USA - Lenoir City,830 US-321 Ste 400,,Lenoir City,TN,37771,US,https://cbdplususa.com/,8334223758,,2019-08-14,,Yes,C,CBD,,,
Pure Wellness CBD Dispensary,521 Hwy 321 Ste 3,,Lenoir City,TN,37771,US,,8653171354,purewellness74@gmail.com,2021-02-08,,Yes,C,CBD,Yes,,
Vape n Stuff,521 US-321 Ste 5,,Lenoir City,TN,37771,US,,8658163600,,2018-10-17,,,V,,,,
Vapenotiq Vapors Shop,200 S C St Ste A,,Lenoir City,TN,37771,US,,8889954214,vvlenoircity@gmail.com,2017-11-25,2022-04-12,Yes,V,CBD,,,
Vapor Bane,1107 US-321,,Lenoir City,TN,37771,US,https://vaporbane.us/,8658166090,info@vaporbane.com,2018-09-15,2019-10-14,Yes,V,CBD,,,
Better Days Hemp And Vape,1348 N Ellington Pkwy,,Lewisburg,TN,37091,US,,9314222080,betterdayshempvape@gmail.com,2020-06-19,,Yes,V,CBD,,,
JZ Vapor Store,1348 N Ellington Pkwy,,Lewisburg,TN,37091,US,,9314222080,,2019-12-23,,Yes,V,CBD,,,
Luna Vapor,304 N Ellington Pkwy,,Lewisburg,TN,37091,US,http://lunavaportn.com/,9316372470,lunavaporlewisburg@gmail.com,2018-09-08,2021-03-18,Yes,V,CBD,,,
Mad Smoke & Vape,1350 N Ellington Pkwy,,Lewisburg,TN,37091,US,,9314225622,,2022-04-21,2022-04-21,Yes,S,CBD,Yes,,
CBD Hemp Connection,590 W Church St Ste A,,Lexington,TN,38351,US,,7313165358,cbdhempcon1@yahoo.com,2020-06-25,,Yes,C,CBD,,,
Hub City Hemp - Lexington,600 W Church St,,Lexington,TN,38351,US,https://www.hubcityhempcbd.com/,7317475818,,2021-02-08,,Yes,C,CBD,,,
Lung Busters Vape Shop,455 W Church St,,Lexington,TN,38351,US,,7316146290,mary0326@hotmail.com,2019-12-12,,,V,,,,
The Tobacco Shop,534 W Church St,,Lexington,TN,38351,US,http://www.lexingtontobaccoshop.com/,7312499414,,2020-04-23,2020-04-23,,T,,,,
LakeTime CBD Solutions,107 E Court Sq,,Livingston,TN,38570,US,https://shop.laketime.online/,9318234367,social@laketime.online,2021-03-05,,Yes,C,CBD,,,
Harry's Tobacco & Beverage Mart,1562 TN-72,,Loudon,TN,37774,US,https://tobacco-and-beverage-mart.business.site/,8654580570,,2020-05-27,,,T,,,,
Burnt Smoke & Vape,660 Myatt Dr Ste 104,,Madison,TN,37115,US,http://burntsmokeandvapellc.com/,6157197893,burntsmokevape@gmail.com,2018-10-15,2019-03-15,Yes,S,CBD,,,
Mellow Vape,2214 Gallatin Pike N,,Madison,TN,37115,US,http://www.mellowvape.com/,6152607653,admin@mellowvape.com,2018-08-06,2019-12-29,Yes,V,CBD,Yes,,
Nashville Vapor of Rivergate,2139 Gallatin Pike N,,Madison,TN,37115,US,https://www.nashvillevapor.com/,6154542471,info@nashvillevapor.com,2015-02-20,2018-12-25,Yes,V,CBD,,,
Smoke For Less,1105 Gallatin Pike N,,Madison,TN,37115,US,,6158658830,,2020-02-18,2020-02-18,Yes,S,CBD,,,
Madisonville CBD,603 Englewood Rd,,Madisonville,TN,37354,US,https://madisonvillecbd.com/,4234053160,madisonvillecbd@gmail.com,2021-03-17,,Yes,C,CBD,,,
Madville Vapors #1,4137 US-411 Ste C,,Madisonville,TN,37354,US,,4235458273,madvillevapors@gmail.com,2019-09-19,,Yes,V,CBD,,,
Enchanted Planet,26 Sitz Dr,,Manchester,TN,37355,US,,9319546121,alisha@enchanted-planet.com,2018-11-05,,Yes,H,CBD,,,
Greenlight Hemp Company,189 Relco Dr,,Manchester,TN,37355,US,,9318080222,greenlighthempco@outlook.com,2021-01-18,,Yes,C,CBD,,,
Manchester Tobacco & Beverage,1854 Hillsboro Blvd,,Manchester,TN,37355,US,,9317280049,,2020-01-06,,,T,,,,
Mid-Tn Vapor Shop,117 W Main St,,Manchester,TN,37355,US,http://www.midtnvaporshop.com/,9317238278,midtnvaporshop@gmail.com,2014-09-13,2019-02-12,,V,,,,
Octopus E-Juice at All Things E-Cigs,315 Hillsboro Blvd,,Manchester,TN,37355,US,http://www.octopusejuice.com/,9319540354,jamie@octopusejuice.com,2018-08-06,2019-12-30,Yes,V,CBD,,,
Right Turn Clyde's,199 Relco Dr.,,Manchester,TN,37355,US,,9314501865,brian.r@rtclyde.com,2020-07-14,,Yes,V,CBD,,,
Southern Healing Enterprises,120 N Spring St,,Manchester,TN,37355,US,https://www.southernhealingenterprises.com,9312737466,s.h.e.cbd1@gmail.com,2022-01-13,2022-01-13,Yes,C,CBD,,,
Tasty Vape Shop,101 Murfreesboro Hwy,,Manchester,TN,37355,US,,9317236428,tastyvapeshop@gmail.com,2014-09-06,2019-02-12,Yes,V,CBD,,,
The Juice Bar Vape & CBD Shop,1415 Hillsboro Blvd Ste 101,,Manchester,TN,37355,US,https://thejuicebartn.com/,9319541420,thejuicebarmanchester@gmail.com,2018-08-06,2020-01-02,Yes,V,CBD,Yes,,
Vapor Smoke Shop,2161 Hillsboro Blvd Ste 7,,Manchester,TN,37355,US,,9317289787,,2020-12-13,,Yes,S,CBD,Yes,,
Next Door Records,631 N Lindell St,,Martin,TN,38237,US,,7315872380,,2018-12-14,,Yes,H,CBD,,,
Vintage & Vapor Marketplace,511 Elm St,,Martin,TN,38237,US,,7312817373,vintageandvapor@gmail.com,2018-09-19,,Yes,V,CBD,,,
411 Discount Tobacco & Beer,2729 US-411,,Maryville,TN,37801,US,http://411-discount-tobacco-beer.business.site/,8659840730,,2019-07-13,,Yes,S,CBD,,,
411 Vape Center,5221 US-411 S,,Maryville,TN,37801,US,,8658568881,411vapecenter@gmail.com,2014-09-19,2019-03-08,,V,,,,
Broadway Vapors,2012 E Broadway Ave,,Maryville,TN,37804,US,http://www.broadwayvapors.net/,8656808723,info@broadwayvapors.net,2018-07-03,2019-07-22,,V,,,,
CBD Plus USA - Maryville,2636 US-411 S Ste A,,Maryville,TN,37801,US,https://cbdplususa.com/,83342237580003,info@cbdplususa.com,2019-08-15,2019-10-24,Yes,C,CBD,,,
Discount Tobacco Mart,403 Foothills Mall Dr,,Maryville,TN,37801,US,,8659819640,,2019-10-11,,,T,,,,
Dreaming Tree Alternative Wellness Solutions,1909 Sevierville Rd Ste C,,Maryville,TN,37804,US,,8659808800,,2022-03-10,2022-03-10,Yes,C,CBD,,,
Maryville Smoke Shop,2318 Market Pl Dr,,Maryville,TN,37801,US,,8652685199,,2022-04-04,2022-04-04,Yes,S,CBD,Yes,,
Smokers' Discount,2164 E Broadway Ave,,Maryville,TN,37804,US,,8659848544,,2020-03-15,,Yes,T,CBD,,,
This Ole Vape Shop & CCM Customs,106 Calderwood Hwy,,Maryville,TN,37801,US,,8659808273,,2018-07-03,2019-07-22,,V,,,,
Tru Vapors,1907 Sevierville Rd,,Maryville,TN,37804,US,https://tru-vapors.business.site/,8652682972,truvapors@gmail.com,2018-08-06,2020-01-04,Yes,V,CBD,,,
Vape Street Lounge,331 Whitecrest Dr Ste 4,,Maryville,TN,37801,US,http://vapestreetlounge.com/,8657241687,info@vapestreetlounge.com,2015-12-29,2019-01-06,,V,,,,
Hometown Vape Lounge,2356 Cedar St,,McKenzie,TN,38201,US,,7312071251,,2016-11-06,2018-11-11,Yes,V,CBD,,,
Enchanted Planet,532 Sunnyside Heights,,McMinnville,TN,37110,US,,9314144161,alisha@enchanted-planet.com,2022-04-20,2022-04-20,Yes,H,CBD,,,
Hempnotix CBD Products,719 N Chancery St,,McMinnville,TN,37110,US,https://www.hempnotixcbdproducts.com/,9314144199,hempnotix@yahoo.com,2021-01-28,,Yes,C,CBD,,,
LLEAF Dispensaries,810 Sparta St,,McMinnville,TN,37110,US,https://www.shoplleaf.com/,9314745323,shoplleaf@gmail.com,2021-03-19,2021-03-19,Yes,C,CBD,,,
McMinnville Hemp Dispensary,901 N Chancery St,,McMinnville,TN,37166,US,https://www.lunsfordfamilyfarm.com/,9313049835,lunsfordfamilyfarm@gmail.com,2021-01-10,,Yes,C,CBD,,,
The Fog House,1100 Smithville Hwy Ste 106,,McMinnville,TN,37110,US,,9315078273,thefoghousetn@gmail.com,2018-10-25,2019-04-07,Yes,V,CBD,,,
901 CBD Shop,2764 Bartlett Blvd,,Memphis,TN,38134,US,http://901cbd.com/,9018719291,tonyfalasca@memphiscbdoil.com,2020-11-15,2020-11-15,Yes,C,CBD,,,
AP Tobacco Shop,3878 Austin Peay Hwy,,Memphis,TN,38128,US,https://a-p-tobacco-shop.business.site/,9013723303,,2018-06-06,2018-10-13,,T,,,,
Blue Nile Hookah & Vapor,4205 Hacks Cross Rd Ste 110,,Memphis,TN,38125,US,https://blue-nile-hookah-vapor.business.site/,9012758379,,2019-07-27,2019-07-27,,L,,,,
CBD Plus Dispensary,2690 Kirby Whitten Rd #107,,Memphis,TN,38133,US,,9012758447,cbdplusdispensary@gmail.com,2022-04-25,2022-04-25,Yes,C,CBD,,,
Cloud 9 Smoke & Vape Shop,376 N Cleveland St,,Memphis,TN,38104,US,https://cloud9smokeshops.com/,9015850941,info@cloud9smokeshops.com,2021-10-20,,Yes,S,CBD,,,
Cloud 9 Smoke & Vape Shop,3986 Park Ave,,Memphis,TN,38111,US,https://cloud9smokeshop.business.site/,9013165619,cloud901memphis@gmail.com,2021-10-20,2021-10-20,Yes,S,CBD,,,
Cloud 9 Smoke Shop,2125 Sycamore View Rd,,Memphis,TN,38134,US,https://cloud9smokeshop.business.site/,9012496741,cloud901memphis@gmail.com,2018-10-20,2021-10-20,Yes,S,CBD,,,
Create A Cig,2889 Poplar Ave,,Memphis,TN,38111,US,https://www.createacig.com,9013761349,createacigmemphis@gmail.com,2018-10-20,2019-04-06,Yes,V,CBD,,,
Create A Cig - Midtown,10 N McLean Blvd,,Memphis,TN,38104,US,https://www.createacig.com/,9016333439,,2019-04-03,,Yes,V,CBD,Yes,,
Hemp2oh,3670 S Houston Levee Rd Ste 104,,Memphis,TN,38017,US,https://shophemp2oh.com/,9014723004,info@shophemp2oh.com,2021-01-27,2021-01-27,Yes,C,CBD,,,
HighPoint Hemp Dispensary,630 N Highland Ave Ste 101,,Memphis,TN,38122,US,http://highpointbudbar-com.3dcartstores.com/,9014866778,dg@hemphighpoint.com,2020-09-24,2020-09-24,Yes,C,CBD,,,
I40 Vape Shop,6195 Macon Rd Unit 5,,Memphis,TN,38134,US,,9014408071,i40vapememphis@gmail.com,2018-08-06,2019-12-25,Yes,V,CBD,,,
Metro Hemp Supply,4750 Poplar Ave,,Memphis,TN,38117,US,https://www.metrohempsupply.com/,9019225264,sales@metrohempsupply.com,2021-03-15,,Yes,C,CBD,,,
Mid South Vapors - Memphis,7825 Winchester Rd Ste 115,,Memphis,TN,38125,US,https://www.msvapors.com/,9014178905,sales@msvapors.com,2019-05-03,,,V,,,,
Ounce of Hope,553 Cooper St,,Memphis,TN,38104,US,http://ounceofhope.com,9015721663,collinbercier@hotmail.com,2019-07-23,,Yes,C,CBD,,,
Raw Vibez Smoke Shop,2389 Lamar Ave Ste 101,,Memphis,TN,38114,US,,9013619642,rawvibesmoke@gmail.com,2019-01-25,,Yes,S,CBD,Yes,,
Smoke and Tobacco Shop,5304 Winchester Rd,,Memphis,TN,38118,US,http://smoke-and-tobacco-shop.business.site/,9013563488,,2020-02-17,,Yes,S,CBD,,,
Smokemania,2760 N Germantown Pkwy Ste 288,,Memphis,TN,38133,US,,9013104388,smokemania901@gmail.com,2021-10-21,,,S,,,,
Smokeology Smoke Shop,1624 Union Ave,,Memphis,TN,38104,US,,9017469097,smokeologyunion@gmail.com,2021-10-21,,Yes,S,CBD,,,
Smokeology Smoke Shop,640 S Highland St,,Memphis,TN,38111,US,https://www.smokeologysmokeshop.com/,9014408588,smokeology640@gmail.com,2018-11-19,,Yes,S,CBD,,,
Smoker's Outlet,6 S Main St,,Memphis,TN,38103,US,,9015752299,,2020-03-10,,,S,,,,
South Main Hemp,364 S Front St Ste 2B,,Memphis,TN,38103,US,https://www.southmainhemp.com/,9013084977,southmainhemp@gmail.com,2021-01-05,,Yes,C,CBD,,,
Southern Leaf Hemp Co.,4721 Poplar Ave,,Memphis,TN,38117,US,https://www.southernleafhemp.co/,9016728467,aaron@southernleafhemp.com,2021-01-05,,Yes,C,CBD,,,
Super Smokers Shop,2564 Appling Rd Ste 101,,Memphis,TN,38133,US,https://sites.google.com/site/supersmokershop/,9012130616,smokersshop1@gmail.com,2019-12-13,2019-12-13,Yes,S,CBD,,,
The Other Side Smoke Shop,7444 Winchester Rd Ste 101,,Memphis,TN,38125,US,https://www.theothersidesmokeshop.com/,9017912215,theothersidesmokeshop@gmail.com,2021-10-22,2021-10-22,Yes,S,CBD,Yes,,
Tobacco And Vape Hookah Cloud,4520 Summer Ave Ste 1,,Memphis,TN,38122,US,,9019225110,,2021-10-20,,,S,,,,
Tobacco Express,4520 Summer Ave,,Memphis,TN,38122,US,,9019225110,,2020-07-05,,Yes,T,CBD,,,
Tobacco SuperStore,4071 Summer Ave,,Memphis,TN,38122,US,https://tobaccosuper.com/main/,9013242747,,2018-09-26,,Yes,T,CBD,,,
Tobacco World,4621 Quince Rd,,Memphis,TN,38117,US,,9015092078,,2019-12-14,2019-12-14,Yes,S,CBD,Yes,,
United Smoke Shop,2618 Frayser Blvd,,Memphis,TN,38127,US,,9013530420,,2019-11-04,,Yes,S,CBD,,,
Vape Karma,2465 Whitten Rd #105,,Memphis,TN,38133,US,,9014339777,,2021-10-22,2021-10-22,Yes,V,CBD,,,
Vapor World Bartlett,7505 US-64 Ste 102,,Memphis,TN,38133,US,https://vapor-world-bartlett.business.site/,9012077779,,2018-08-29,2020-03-01,Yes,V,CBD,,,
VaporWize,567 S Highland St,,Memphis,TN,38111,US,http://www.vaporwize.com/,9012075973,vaporwize@gmail.com,2015-02-27,2018-11-13,,V,,,,
VaporWize,2821 N Houston Levee Rd Ste 103,,Memphis,TN,38016,US,http://www.vaporwize.com/,9014215223,vaporwize@gmail.com,2018-08-06,2020-01-09,Yes,V,CBD,,,
Vaporwize East Memphis,5030 Poplar Ave,,Memphis,TN,38117,US,http://www.vaporwize.com/,9012494337,,2018-08-29,2020-03-01,,V,,,,
VaporWize Hacks Cross,7960 Winchester Rd Ste 107,,Memphis,TN,38125,US,https://vaporwize-hacks-cross.business.site/,9014408347,,2021-10-23,2021-10-23,Yes,V,CBD,,,
Whatever,575 S Highland St,,Memphis,TN,38111,US,https://www.whatevershopmemphis.com/,9014524731,info@whatevershopmemphis.com,2018-08-29,2020-07-21,Yes,S,CBD,,,
Whatever Shop,2027 Madison Ave,,Memphis,TN,38104,US,https://www.whatevershopmemphis.com/,9015900048,info@whatevershopmemphis.com,2018-08-29,2020-03-01,Yes,S,CBD,Yes,,
Wild Hare Smoke Shop,1619 Madison Ave,,Memphis,TN,38104,US,,9017252270,,2018-12-22,,Yes,S,CBD,Yes,,
Wizards,1999 Madison Ave,,Memphis,TN,38104,US,https://wizardsmemphis.com/,9017266800,wizxtoo@bellsouth.net,2018-08-29,2020-03-01,Yes,H,CBD,Yes,,
Your CBD Store - Hacks Cross,3315 Hacks Cross Rd Ste 106,,Memphis,TN,38125,US,https://cbdrx4u.com/find-us/tennessee/hacks-cross,9015721814,,2021-06-10,,Yes,C,CBD,,,
"Your CBD Store - Memphis, TN",3157 Poplar Ave,,Memphis,TN,38111,US,https://cbdrx4u.com/,9015903075,cbd3507@gmail.com,2019-09-17,2019-09-17,Yes,C,CBD,,,
FF Vapors,1021 E Williamson St,,Milan,TN,38358,US,http://ffvapors.com/,7312385004,ffvapors@gmail.com,2018-08-06,2019-12-20,Yes,V,CBD,,,
The Herbal Connection,3020 Baird St Ste B,,Milan,TN,38358,US,,7312382019,mamahardee7@gmail.com,2021-09-03,2021-09-03,Yes,C,CBD,,,
The Shop On Main Street,1125 S Main St,,Milan,TN,38358,US,https://www.theshoponmainmilan.com,7312383300,hello@theshoponmainmilan.com,2022-01-04,2022-01-04,Yes,C,CBD,,,
Smoke Signals,8390 US-51 #108,,Millington,TN,38053,US,,9018734130,,2018-11-07,2021-06-19,Yes,S,CBD,,,
Tobacco SuperStore #89,4734 Navy Rd,,Millington,TN,38053,US,http://tobaccosuper.com/,9018723210,,2020-01-15,,Yes,T,CBD,,,
VapEScape,7949 US-51 N,,Millington,TN,38053,US,https://www.vapescapelounge.com/,9018498273,rburns369@gmail.com,2014-09-24,2019-02-13,Yes,V,CBD,Yes,,
Your CBD Store,8570 S Highway 51N Ste 107,,Millington,TN,38053,US,https://cbdrx4u.com/find-us/tennessee/millington,9018521747,millington624@cbdrx4u.com,2021-06-10,,Yes,C,CBD,,,
Backstage Gifts,114 W Main St Ste B,,Morristown,TN,37814,US,,4235853366,backstagegifts@musfiber.com,2019-01-08,,Yes,H,CBD,,,
CBD Plus USA - Morristown,4329  W Andrew Johnson Hwy Ste 3,,Morristown,TN,37814,US,https://cbdplususa.com/,83342237580010,,2019-08-14,,Yes,C,CBD,,,
City Smoke Shop,1205 Shields Ferry Rd,,Morristown,TN,37814,US,https://city-smoke-shop-llc.business.site/,4235872262,,2018-10-18,2018-10-18,,S,,,,
Compassionate Buds Dispensary,527 Sulphur Springs Rd,,Morristown,TN,37813,US,http://compassionatebudsdispensary.com/,4238391100,,2020-12-15,2022-03-22,Yes,S,CBD,Yes,,
DeJa Vape,2704 E Andrew Johnson Hwy Ste 3,,Morristown,TN,37814,US,https://www.dejavape.com/,4238391117,deja_vape@yahoo.com,2014-09-26,2019-04-07,Yes,V,CBD,Yes,,
Morristown Tobacco Outlet,308 N Fairmont Ave,,Morristown,TN,37814,US,,4235865151,,2019-12-23,,,S,,,,
Stop & Go Smoke Shop,3486 W Andrew Johnson Hwy,,Morristown,TN,37814,US,,4233075173,,2019-11-27,,,S,,,,
Vape On Lounge Inc.,5972 W Andrew Johnson Hwy,,Morristown,TN,37814,US,,4238390353,vapeoninc@yahoo.com,2018-09-11,,,V,,,,
The Vape Place,4124 N Mt Juliet Rd,,Mount Juliet,TN,37122,US,http://www.thevapeplacetn.com/,6157546057,thevapeplacetn@gmail.com,2016-06-28,2019-02-13,Yes,V,CBD,,,
Tri City Wholesale Tobacco,160 Main St W,,Mt Carmel,TN,37645,US,,4233570328,,2020-01-16,,,T,,Yes,,
4EverEcig,1758 N  Rd,,Mt Juliet,TN,37122,US,https://www.4everecig.com/,6152882364,4everecig@gmail.com,2020-06-17,,Yes,V,CBD,Yes,,
Diamond Vape and Smoke,514 Pleasant Grove Rd,,Mt Juliet,TN,37122,US,https://diamond-vape-and-smoke.business.site/,6155534067,,2022-03-28,2022-03-28,Yes,S,CBD,Yes,,
Gladeville Smoke Shop,8702 Stewarts Ferry Pike #102,,Mt Juliet,TN,37122,US,,6154432226,,2019-11-14,,,T,,,,
Saffire Vapor,640 S Mt Juliet Rd,,Mt Juliet,TN,37122,US,https://saffirevapor.com/,6152883419,customerservice@saffirevapor.com,2018-08-06,2020-01-01,Yes,V,CBD,,,
Muletown Hemp,112 Hay Long Ave,,Mt Pleasant,TN,38474,US,https://muletownhemp.com/,9313255577,samantha@muletownhemp.com,2021-03-10,,Yes,C,CBD,,,
MJ Smokes,195 N Mt Juliet Rd,,Mt. Juliet,TN,37122,US,,6157540288,mjsmokesvapenglass@gmail.com,2022-05-05,2022-05-05,Yes,H,CBD,Yes,,
Corner Discount Tobacco,10 Beaver Rd,,Munford,TN,38058,US,,9018373430,,2019-08-31,,Yes,T,CBD,,,
69 Vape N Smoke,1627 NW Broad St,,Murfreesboro,TN,37129,US,https://cbd-hemp-69-vapesmoke.business.site,6159627792,69vapensmoke@gmail.com,2022-02-10,2022-02-10,Yes,S,CBD,Yes,,
Cason Smoke For Less,517 Cason Ln #B,,Murfreesboro,TN,37128,US,,6158969090,,2019-07-31,,,S,,,,
CBD American Shaman Memorial,3250 Memorial Blvd Unit B,,Murfreesboro,TN,37129,US,https://cbdamericanshaman.com/,6292015971,americanshamancbd615@gmail.com,2020-02-21,2020-02-21,Yes,C,CBD,,,
Century 21 Music & More,125 Lasseter Dr,,Murfreesboro,TN,37130,US,https://www.century21musicandmore.com/,6158909168,century21musicandmore@gmail.com,2018-11-12,2018-11-12,Yes,H,CBD,,,
Community Vapor,2466 Old Fort Pkwy,,Murfreesboro,TN,37128,US,,6159078273,communityvapor@outlook.com,2014-08-28,2019-04-06,Yes,V,CBD,,,
Discount Tobacco Outlet Inc,2510 S Church St #B,,Murfreesboro,TN,37127,US,,6158955099,,2019-11-13,,Yes,T,CBD,,,
Enchanted Planet,525 SE Broad St,,Murfreesboro,TN,37130,US,,6158491994,alisha@enchanted-planet.com,2019-01-08,2022-05-11,Yes,H,CBD,Yes,,
Five Star Vape Store,1403 Greenland Dr Ste A,,Murfreesboro,TN,37130,US,,6159566942,,2018-08-06,2019-12-21,,V,,,,
Frog Brigade Farmacy,1370 W Clark Blvd,,Murfreesboro,TN,37129,US,https://bellbuckleoriginal.com/,6152952285,,2021-01-09,,Yes,C,CBD,Yes,,
Gen 1:29 CBD Hemp Oil,1200 Park Ave,,Murfreesboro,TN,37128,US,https://www.usacbdoil.us/,6152008699,accounting@gen129cbdoil.com,2021-01-12,,Yes,C,CBD,,,
Good Deal Everything,225 N Rutherford Blvd,,Murfreesboro,TN,37130,US,https://gooddealeverything.com/,6156246732,gooddealeverything@gmail.com,2022-04-26,2022-04-26,Yes,S,CBD,,,
Kaleidoscope Vapor Lounge,3325 Memorial Blvd Ste E,,Murfreesboro,TN,37129,US,http://kaleidoscopevapor.co/,6156310631,info@kaleidoscopevapor.co,2018-08-06,2019-12-27,Yes,V,CBD,,,
Kaleidoscope Vapor Lounge,2992 S Church St Ste B,,Murfreesboro,TN,37128,US,http://kaleidoscopevapor.co/,6156036656,info@kaleidoscopevapor.co,2018-08-06,2019-12-27,Yes,V,CBD,,,
Magical Vapors Murfreesboro,517 W Main St,,Murfreesboro,TN,37129,US,https://magical-vapors-murfreesboro2.business.site/,6156246868,,2019-05-02,2019-12-03,,V,,,,
Magical Vapors Murfreesboro 2,3284 Franklin Rd,,Murfreesboro,TN,37128,US,http://magical-vapors-murfreesboro2.business.site/,6292018008,,2019-12-03,,,V,,,,
Manson Tobacco And Beer,4125 Manson Pike,,Murfreesboro,TN,37129,US,http://manson-tobacco-and-beer.business.site/,6159628196,,2020-01-06,2020-01-06,,S,,,,
Saffire Vapor,425 N Thompson Ln,,Murfreesboro,TN,37129,US,https://saffirevapor.com/,6156246281,contact@saffirevapor.com,2018-08-06,2020-01-01,Yes,V,CBD,,,
Smoke Token,1312 Memorial Blvd Ste G,,Murfreesboro,TN,37130,US,,6156247882,,2019-01-16,,Yes,S,CBD,,,
The Barn CBD and Hemp,941 New Salem Rd,,Murfreesboro,TN,37129,US,https://thebarnofmurfreesboro.com/,6155563303,lowrider.59@comcast.net,2020-12-21,,Yes,C,CBD,,,
The Holistic Connection,527 N Thompson Ln,,Murfreesboro,TN,37129,US,https://theholisticconnectiontn.com/,6155251636,info@theholisticconnectiontn.com,2021-04-27,2021-04-27,Yes,C,CBD,,,
TN Vapor & Hemp,3006 S Rutherford Blvd,,Murfreesboro,TN,37127,US,,6155464807,,2018-09-26,2020-03-07,Yes,V,CBD,,,
Vapesboro,1675 Middle Tennessee Blvd,,Murfreesboro,TN,37140,US,,6156056424,admin@vapesboro.com,2015-07-19,2019-01-01,Yes,V,CBD,,,
Vapor 69,1004 Memorial Blvd Ste H,,Murfreesboro,TN,37129,US,https://smoke-shop-vape-and-pipes.business.site/,6158092031,,2020-02-21,,Yes,S,CBD,Yes,,
Avail Vapor - Bellevue,7108 Hwy 70 S Ste C1,,Nashville,TN,37221,US,http://www.availvapor.com,6154542101,custservice@availvapor.com,2018-06-10,2019-06-18,Yes,V,CBD,,,
Canvast Supply Co.,935 E Trinity Ln,,Nashville,TN,37216,US,https://canvastsupplyco.com/,6152199141,hello@canvastsupplyco.com,2020-09-22,2020-11-05,Yes,C,CBD,,,
Clara Jane Hemp Dispensary,1132 4th Ave S,,Nashville,TN,37210,US,,6154311687,hello@clarajanenashville.com,2019-04-06,,Yes,C,CBD,,,
Craft Vapor,7648 Hwy 70S #14,,Nashville,TN,37221,US,,6157502536,,2019-09-03,,,V,,,,
Discount Tobacco Shoppe,2501 Lebanon Pike,,Nashville,TN,37214,US,,6158891321,dto1dsr@gmail.com,2019-11-19,2019-11-19,Yes,T,CBD,,,
Discount Tobacco Shoppe,3237 Gallatin Pike,,Nashville,TN,37216,US,,6152285067,,2019-11-19,,Yes,S,CBD,Yes,,
Elevated Smoke and Vape Shop,1813 8th Ave S,,Nashville,TN,37203,US,https://elevated615.com/,6159224115,elevated615@gmail.com,2018-11-05,,Yes,S,CBD,Yes,,
Elliston Place Smoke Shop,2204 Elliston Pl Ste H,,Nashville,TN,37203,US,,6154573314,ellistonsmokeshop@gmail.com,2018-10-21,2019-04-07,Yes,S,CBD,,,
Evolution VaporZ,2221 Murfreesboro Pike,,Nashville,TN,37217,US,http://www.evolutionvaporznashville.com/,6158180530,evolutionofsmyrna@gmail.com,2018-08-06,2021-03-19,,V,,,,
Good Deal Everything,3805 Gallatin Pike,,Nashville,TN,37216,US,https://gooddealeverything.com/,6158913664,gooddealeverything@gmail.com,2022-04-26,2022-04-26,Yes,S,CBD,,,
Good Deal Everything,310 White Bridge Pike,,Nashville,TN,37209,US,https://gooddealeverything.com/,6158913219,gooddealeverything@gmail.com,2022-04-26,2022-04-26,Yes,S,CBD,,,
Hermitage Discount Tobacco & Beer,3682 Bell Rd,,Nashville,TN,37214,US,,6153910033,,2019-11-25,,Yes,S,CBD,,,
Hokus Pokus Vapor,4118 Gallatin Pike,,Nashville,TN,37216,US,http://www.hokuspokusvapor.com/,6154545489,hokuspokusvapor@hotmail.com,2018-08-06,2018-11-10,Yes,V,CBD,,,
Jenna's Adult Toy Box,2531 Dickerson Pike,,Nashville,TN,37207,US,http://jennastoybox.com/,6152582257,,2018-10-27,,,H,,,,
LabCanna East,1006 Gallatin Ave,,Nashville,TN,37206,US,https://labcanna.com/,6158353474,retail.east@labcanna.com,2021-03-04,,Yes,C,CBD,,,
Magical Vapors,5320 Nolensville Pike,,Nashville,TN,37211,US,,6157309511,themagicalvapors@gmail.com,2018-08-15,2020-02-11,Yes,V,CBD,,,
Marleys Smoke Shop,6410 Charlotte Pike Ste 116,,Nashville,TN,37209,US,http://www.smokeshopnashville.com/,6158353603,m_ghazi82@yahoo.com,2018-08-06,2019-10-20,Yes,S,CBD,Yes,,
Nashville CBD Solutions,4004 Hillsboro Pike Ste 150R,,Nashville,TN,37215,US,https://www.tncbdsolutions.com/,6159425264,info@tncbdsolutions.com,2019-03-01,2019-03-01,Yes,H,CBD,,,
Nashville CBD Solutions,7625 Hwy 70 S,,Nashville,TN,37221,US,https://www.tncbdsolutions.com/,6157129796,info@tncbdsolutions.com,2020-07-13,2020-07-13,Yes,C,CBD,,,
Nashville Smoke & Ale,15551 Old Hickory Blvd,,Nashville,TN,37211,US,http://www.nashvillesmokeandale.com/,6154994942,nashvillesmokeale@gmail.com,2018-11-23,,Yes,S,CBD,,,
Nashville Vapor,5908 Charlotte Pike #A,,Nashville,TN,37209,US,https://www.nashvillevapor.com/,6158734335,info@nashvillevapor.com,2018-08-06,2019-12-30,Yes,V,CBD,,,
Perfect Plant Hemp Co.,300 White Bridge Pike Ste B,,Nashville,TN,37209,US,https://www.perfectplanthempco.com/,6159537679,info@perfectplanthempco.com,2019-03-01,2019-08-14,Yes,C,CBD,,,
Royal Discount Tobacco,3843 Dickerson Pike,,Nashville,TN,37207,US,,6158687557,,2019-06-20,,,S,,,,
Saffire Vapor,15540 Old Hickory Blvd,,Nashville,TN,37211,US,https://saffirevapor.com,6157126409,customerservice@saffirevapor.com,2018-08-06,2020-01-01,Yes,V,CBD,,,
Saffire Vapor,7060 Charlotte Pike,,Nashville,TN,37209,US,https://saffirevapor.com/,6156518524,customerservice@saffirevapor.com,2018-08-06,2020-01-01,Yes,V,CBD,,,
Saffire Vapor,522 Donelson Pike,,Nashville,TN,37214,US,https://saffirevapor.com/,6159426180,customerservice@saffirevapor.com,2018-08-06,2020-01-01,Yes,V,CBD,,,
Smoke & Vape For Less,6207 Charlotte Pike,,Nashville,TN,37209,US,http://smokeandvape4less.com/,6159153103,,2019-05-13,2019-05-13,Yes,S,CBD,,,
Smoke Depot,563 Stewarts Ferry Pike,,Nashville,TN,37214,US,,6153914171,,2020-02-18,,,S,,,,
Smoke Mountain Kratom & Vape,2609 Gallatin Pike,,Nashville,TN,37216,US,,6154994596,,2019-12-30,2019-12-30,Yes,V,CBD,Yes,,
Smoke N Glass,818 Murfreesboro Pike Ste 107,,Nashville,TN,37217,US,,6158180765,smokenglass818@gmail.com,2020-02-19,,Yes,S,CBD,Yes,,
Smoke Token,409 Harding Pl,,Nashville,TN,37211,US,http://www.smoketoken.com/,6158912675,smoketokenshop@gmail.com,2019-01-16,2019-01-16,Yes,S,CBD,,,
The Holistic Connection,2407 8th Ave S #102,,Nashville,TN,37204,US,https://theholisticconnectiontn.com/,6155251636,info@theholisticconnectiontn.com,2021-04-27,,Yes,C,CBD,,,
Vape N CBDream,411 Harding Pl,,Nashville,TN,37211,US,,6159205896,,2018-12-25,2019-02-13,Yes,V,CBD,,,
Tobacco Post,687 Sharps Ferry Rd,,Newbern,TN,38059,US,,7316279665,,2020-05-23,,Yes,T,CBD,Yes,,
H&H Vapors,108 Church St #A,,Newport,TN,37821,US,,4232376596,hhvapors@live.com,2014-08-29,2019-12-11,Yes,V,CBD,Yes,,
"Newport Tennessee Hemp, CBD and Kratom",108 Church St #A,,Newport,TN,37821,US,,4232376596,hhvapors@live.com,2021-02-26,,Yes,C,CBD,Yes,,
Newport Vapor,647 Cosby Hwy,,Newport,TN,37821,US,,4232483288,newportvapor@gmail.com,2021-02-26,,Yes,V,CBD,Yes,,
5th & Nine Vape Co.,118 Bus Terminal Rd,,Oak Ridge,TN,37830,US,,8656850236,,2018-08-06,2019-12-12,Yes,V,CBD,Yes,,
CBD American Shaman,266 E Main St,,Oak Ridge,TN,37830,US,https://cbdofoakridge.com/,8652725045,rockdrbrown@gmail.com,2020-11-27,,Yes,C,CBD,,,
CBD Plus USA - Oak Ridge,100 Tulsa Rd Ste 4,,Oak Ridge,TN,37830,US,https://cbdplususa.com/,83342237580012,,2019-08-14,2019-08-14,Yes,C,CBD,,,
Secret City Vapor,176 Randolph Rd,,Oak Ridge,TN,37830,US,https://www.secretcityvapors.com/,8652723860,customerservice@secretcityvapors.com,2018-08-06,2021-01-12,Yes,V,CBD,,,
Smoky Mountain Smokes,122 E Division Rd,,Oak Ridge,TN,37830,US,https://smoky-mountain-smokes.business.site/,8654833788,smokymtnsmokes@gmail.com,2019-10-14,,Yes,T,CBD,,,
The Vault Vapor Lounge,9133 Oak Ridge Hwy,,Oak Ridge,TN,37830,US,http://www.thevaultvaporshop.com/,8658964002,thevaultvaporlounge@gmail.com,2018-08-06,2020-01-03,Yes,V,CBD,,,
CBD Plus,7085 US-64 Ste 2,,Oakland,TN,38060,US,,9018138429,cbdplusdispensary@gmail.com,2022-04-29,2022-04-29,Yes,C,CBD,,,
Oakland Tobacco & Vape,7265 US-64,,Oakland,TN,38060,US,,9014658433,,2020-01-31,2020-01-31,Yes,S,CBD,,,
Tobacco Superstore,7072 US-64,,Oakland,TN,38060,US,https://www.tobaccosuper.com/,9014658286,,2019-12-17,,Yes,T,CBD,,,
VaporWize Oakland,7716 US-64,,Oakland,TN,38060,US,,9012356994,vaporwizeorders@gmail.com,2019-12-13,2022-03-07,Yes,V,CBD,,,
Ocoee Botanicals Hemp & Hydro,409 US-64,,Ocoee,TN,37361,US,https://ocoeebotanicals.com/,4232999943,ocoeebotanicals@gmail.com,2021-07-25,,Yes,C,CBD,,,
Ocoee Hemp & CBD Co,134 Creekside Dr,,Ocoee,TN,37361,US,,4232999154,,2021-02-21,,Yes,C,CBD,,,
Ocoee Vapor Company,4133 US-411,,Ocoee,TN,37361,US,,4232999126,ocoeevaporcompany@yahoo.com,2019-08-12,,Yes,V,CBD,,,
4EverEcig,14827 Lebanon Rd,,Old Hickory,TN,37128,US,https://www.4everecig.com/,6156518050,4everecig@gmail.com,2018-06-06,2019-06-20,Yes,V,CBD,,,
4EverEcig - Lakewood,3400 Old Hickory Blvd #A,,Old Hickory,TN,37138,US,https://www.4everecig.com/,6153570083,4everecig@gmail.com,2018-07-03,2019-07-18,Yes,V,CBD,,,
Hifive Supply,4710 Old Hickory Blvd,,Old Hickory,TN,37138,US,,6158408105,hifivesupply@gmail.com,2018-11-17,2018-11-17,Yes,H,CBD,,,
Lebanon Market,14866 Lebanon Rd,,Old Hickory,TN,37138,US,,6157588120,lebanon_market@yahoo.com,2019-09-19,,,T,,,,
Anderson Discount Tobacco #1,705 Main St,,Oliver Springs,TN,37840,US,https://andersondiscounttobacco1.business.site/,8654352662,,2019-07-18,,,T,,,,
Vapor Fox,355 E Tri County Blvd,,Oliver Springs,TN,37840,US,,8657305008,,2019-10-09,,,V,,,,
Vapor Max,19792 Alberta St,,Oneida,TN,37841,US,,4235693053,,2015-01-19,2018-12-25,Yes,V,CBD,,,
Collegedale Tobacco & Beverage Mart,9409 Apison Pike,,Ooltewah,TN,37363,US,,4236150021,,2019-08-26,,Yes,T,CBD,,,
Hemp House,9203 Lee Hwy Ste 10,,Ooltewah,TN,37363,US,https://hemphousechatt.com/,4237714223,laura@hemphousechatt.com,2021-01-26,,Yes,C,CBD,,,
Emporium 419,1102 Mineral Wells Ave,,Paris,TN,38242,US,https://www.emporium419.com/,7319244419,,2021-01-01,,Yes,C,CBD,,,
The Vape Hut,211 Tyson Ave,,Paris,TN,38242,US,,7316419000,,2018-09-22,,Yes,V,CBD,,,
Anna Mae's Vapery,2256 Parkway,,Pigeon Forge,TN,37863,US,http://www.iloveannamae.com/,8653667886,questions@iloveannamae.com,2014-08-31,2019-04-20,Yes,V,CBD,,,
Blue Whale Vapor of Pigeon Forge,155 E Wears Valley Rd Ste 11,,Pigeon Forge,TN,37863,US,https://www.badfisheliquid.com/,8654557525,bluewhalevapor.pigeonforge@gmail.com,2018-07-03,2019-07-22,Yes,V,CBD,,,
Green Valley CBD,3152 Parkway Ste 2,,Pigeon Forge,TN,37863,US,https://cbdgreenvalley.com/,8653654600,greenvalleycbd1@yahoo.com,2021-01-18,,Yes,C,CBD,,,
Green Valley CBD,513 Wears Valley Rd Unit 3,,Pigeon Forge,TN,37863,US,http://cbdgreenvalley.com,8659089960,greenvalleycbd1@yahoo.com,2019-01-16,2020-12-27,Yes,C,CBD,Yes,,
Sevier Vapor - Pigeon Forge,2631 Parkway Ste 6,,Pigeon Forge,TN,37863,US,https://seviervapor.com/,8652864246,info@seviervapor.com,2018-08-06,2020-01-01,Yes,V,CBD,,,
Smoky Cigar Smoke Shop,2631 Pkwy #2,,Pigeon Forge,TN,37863,US,,8653661372,,2022-03-11,2022-03-11,Yes,S,CBD,Yes,,
Smoky Mountain Organics,2274 Parkway,,Pigeon Forge,TN,37863,US,https://smokymountainorganics.com/,8653651915,customerservice@smokymountainorganics.com,2020-07-17,2020-07-17,Yes,C,CBD,,,
The Hookah Hook-up,3526 Parkway Ste 1,,Pigeon Forge,TN,37863,US,http://www.thehookahhookup.net,8654539823,email@hookahhookup.net,2018-12-30,,Yes,S,CBD,Yes,,
Tobacco King,335 Wears Valley Rd #4,,Pigeon Forge,TN,37863,US,,8654290909,,2019-12-14,,,S,,,,
East TN Vapors,5661 US-11E Ste 4,,Piney Flats,TN,37686,US,,4235388300,,2019-10-02,,Yes,V,CBD,,,
Redi Mart Discount Tobacco,5661 Highway 11 E #6,,Piney Flats,TN,37686,US,https://www.redi-mart.com/,4235384219,inquiry@redi-mart.com,2020-02-08,,Yes,T,CBD,,,
Vapor City,203 S Broadway Ste C,,Portland,TN,37148,US,,6158053931,vaporcity@comcast.net,2018-09-23,,,V,,,,
eVape Lounge,603 E Emory Rd Ste 108,,Powell,TN,37849,US,https://evapeloungeknox.com/,8658590366,evape_loungetn@yahoo.com,2018-09-30,,Yes,V,CBD,,,
Elk River Vapor Shop,201 Village Square Ste A,,Pulaski,TN,38478,US,http://www.elkrivervaporshop.com/,9314385599,shane@elkrivervaporshop.com,2014-09-01,2019-04-03,Yes,V,CBD,Yes,,
New Start Vapor,790 US-51 N Ste 22,,Ripley,TN,38063,US,,7316354009,,2018-10-01,,Yes,V,CBD,,,
Smoker Friendly,567 US-51,,Ripley,TN,38063,US,http://smokerfriendly.com/,7316352202,,2020-03-06,,,T,,,,
Smoking Joe's Tobacco Rockwood,651 N Gateway Ave,,Rockwood,TN,37854,US,,8653548793,,2020-03-23,,,S,,,,
CBD & Hemp Organics,1989 Winfield Dunn Pkwy Ste 13,,Sevierville,TN,37876,US,https://www.ch-organics.net/,8653666179,c.h.organicstn@gmail.com,2020-11-23,,Yes,C,CBD,,,
CBD Plus USA - Sevierville,234 E Main St,,Sevierville,TN,37862,US,https://cbdplususa.com/,8334223758,info@cbdplususa.com,2019-11-07,2019-11-07,Yes,C,CBD,,,
Discount Tobacco King,737 Dolly Parton Pkwy #2,,Sevierville,TN,37862,US,,8654535510,,2019-09-27,,,T,,,,
Happy Discount Tobacco,514 W Main St,,Sevierville,TN,37862,US,,8652869900,,2019-11-06,,,S,,,,
Happy Hippie,832 Parkway,,Sevierville,TN,37862,US,,8653663142,happyhippie832@gmail.com,2018-11-18,,Yes,H,CBD,,,
Knoxville Vapor,1811 Parkway Ste 103,,Sevierville,TN,37862,US,http://knoxvillevapor.com/,8652865301,knoxvillevapor@gmail.com,2014-09-07,2019-12-26,Yes,V,CBD,,,
Ol' Smokey's Discount Tobacco,539 Dolly Parton Pkwy,,Sevierville,TN,37862,US,,8654291518,,2020-01-31,2020-01-31,,S,,,,
Sevier Vapor - Sevierville,717 Winfield Dunn Pkwy,,Sevierville,TN,37876,US,https://seviervapor.com/,8652864245,info@seviervapor.com,2018-08-06,2020-01-01,Yes,V,CBD,,,
Smoke Boutique,302 W Main St Ste B,,Sevierville,TN,37862,US,https://smokeboutiquetn.wixsite.com/website,18654462211,smokeboutiquetn@yahoo.com,2021-01-10,,Yes,C,CBD,,,
Smoky Mountain Organics,728 Parkway,,Sevierville,TN,37862,US,https://smokymountainorganics.com,8652869659,customerservice@smokymountainorganics.com,2021-01-04,,Yes,C,CBD,,,
Vape N Stuff,11212 Chapman Hwy Ste 102,,Seymour,TN,37865,US,,8652994055,vapenstuff@yahoo.com,2018-09-15,2022-01-31,,V,,,,
Big Time's Vapor,1856 N Main St,,Shelbyville,TN,37160,US,https://bigtimesvapor.com/,9314924600,sales@bigtimesvapor.com,2022-02-11,2022-02-11,Yes,V,CBD,,,
Discount Tobacco Outlet,405 S Cannon Blvd,,Shelbyville,TN,37160,US,,9316850479,,2019-10-02,,,T,,,,
Little Hawk's Cool Shop,2521 US-231,,Shelbyville,TN,37160,US,,9316199460,,2018-11-06,,,S,,,,
Shelbyville Vapor,411 N Thompson St,,Shelbyville,TN,37160,US,https://shelbyvillevaporstore.com/,9312051676,jamesmervinprater@yahoo.com,2018-08-06,2020-01-01,Yes,V,CBD,,,
The Cloudy Vapor,1303 N Main St Ste A,,Shelbyville,TN,37160,US,,9314884103,thedailyvapor@gmail.com,2018-08-06,2020-01-02,Yes,V,CBD,,,
Discount Tobacco Shop,2905 Taft Hwy,,Signal Mountain,TN,37377,US,,4235170070,,2019-11-19,,,T,,,,
Discount Tobacco Outlet,302 W Broad St,,Smithville,TN,37166,US,https://www.discount-tobacco.com/,6155979348,,2019-10-15,2019-10-15,,T,,,,
Mid-Tn Vapor of Smithville,404 E Broad St,,Smithville,TN,37166,US,http://www.midtnvaporshop.com/,6152151616,,2018-06-25,2019-04-07,,V,,,,
Smithville Hemp Dispensary,458 W Broad St,,Smithville,TN,37166,US,https://www.lunsfordfamilyfarm.com/,9316296406,lunsfordfamilyfarm@gmail.com,2021-01-10,2021-01-10,Yes,C,CBD,,,
101 Vape And Smoke Outlet,1905 Almaville Rd,,Smyrna,TN,37167,US,https://www.101vapeoutletandsmoke.com/,6157685774,,2019-07-12,,Yes,S,CBD,,,
Community Vapor,550 Sam Ridley Pkwy W Ste 100,,Smyrna,TN,37167,US,,6156253908,,2022-03-25,2022-03-25,,V,,,,
Evolution Vaporz,291 Sam Ridley Pkwy E Ste 135,,Smyrna,TN,37167,US,http://evolutionofsmyrna.com/,6154625129,begraz100@yahoo.com,2018-08-06,2019-12-16,,V,,,,
Hempy n Jane's CBD Healthstore,329 Sam Ridley Pkwy W,,Smyrna,TN,37167,US,https://hempynjanessmyrna.com/,6159847946,hempysnjanessmyrna@gmail.com,2021-01-29,,Yes,C,CBD,,,
Magical Vapors,504 Enon Springs Rd E,,Smyrna,TN,37167,US,,6152670412,,2015-12-06,2019-01-06,Yes,V,CBD,,,
Nashville Vapor,900 Grammer Ln Ste 210,,Smyrna,TN,37167,US,https://www.nashvillevapor.com/,6156253492,info@nashvillevapor.com,2018-08-06,2019-12-30,Yes,V,CBD,,,
One Stop Smoke Shop,1872 Almaville Rd,,Smyrna,TN,37167,US,,6153553002,,2022-03-07,2022-03-07,Yes,T,CBD,,,
Reward Botanicals,6670 New Nashville Hwy #115,,Smyrna,TN,37167,US,https://www.rewardbotanicals.com/,16158234423,info@rewardbotanicals.com,2021-01-31,,Yes,C,CBD,,,
Saffire Vapor,801 Industrial Blvd Ste 145,,Smyrna,TN,37167,US,https://saffirevapor.com/,6159847906,contact@saffirevapor.com,2018-08-06,2021-01-14,Yes,V,CBD,,,
Simply CBD,244 S Lowry St,,Smyrna,TN,37167,US,http://simplycbdtn.com/,6159847697,simplycbdllc@gmail.com,2020-07-16,,Yes,C,CBD,,,
The Holistic Connection,1907 Almaville Rd,,Smyrna,TN,37167,US,https://theholisticconnectiontn.com/,6157685035,info@theholisticconnectiontn.com,2021-04-27,2021-04-27,Yes,C,CBD,,,
Bell's Smoke Shop,124 Harrison Ln,,Soddy-Daisy,TN,37379,US,,4233320626,,2019-07-22,,,T,,,,
Chattanooga Vapor Co.,8301 Dayton Pike,,Soddy-Daisy,TN,37379,US,http://chattanoogavaporco.com/,4237103258,chattanoogavaporco@gmail.com,2018-08-29,2020-03-01,Yes,V,CBD,,,
Somerville's Discount Tobacco,17380 US-64,,Somerville,TN,38068,US,,9014651671,,2019-10-16,,,S,,,,
Cigar Station,5075 Main St Ste A1,,Spring Hill,TN,37174,US,https://cigarstationtn.wixsite.com/cigar-station,6153024848,cigarstationtn@yahoo.com,2019-08-16,,Yes,T,CBD,,,
e-Vaperz,5407 Main St Ste 600,,Spring Hill,TN,37174,US,http://e-vaperz.com/,9314517836,info@e-vaperz.com,2018-05-22,2019-02-13,Yes,V,CBD,Yes,,
Hempy's,4910 Main St #118,,Spring Hill,TN,37174,US,https://www.hempynjanes.com/,6156141454,hempyscbd@gmail.com,2021-01-29,,Yes,C,CBD,,,
Old School Vapor Co.,1220 School St #7,,Spring Hill,TN,37174,US,http://www.oldschoolvaporcompanytn.com/,9314517747,orders.oldschoolvaporco@gmail.com,2018-09-30,,Yes,V,CBD,,,
Tobacco Warehouse,5441 Main St,,Spring Hill,TN,37174,US,,9314861050,,2022-03-15,2022-03-15,,T,,,,
Springfield CBD,305 10th Ave E,,Springfield,TN,37172,US,,6153808197,,2021-01-04,,Yes,C,CBD,,,
The Vapor Vendor,815 Memorial Blvd,,Springfield,TN,37172,US,https://www.thevaporvendor.com/,6159852157,thevaporvendor@aol.com,2014-10-03,2021-06-17,,V,,,,
Summertown CBD,4929 US-43,,Summertown,TN,38483,US,,9312428689,summertowncbd@gmail.com,2020-12-28,,Yes,C,CBD,,,
Koala Remedies & CBD,1342 TN-68,,Sweetwater,TN,37874,US,https://www.koalaremedies.com/,4233711036,koalaremedies@gmail.com,2021-02-25,,Yes,C,CBD,,,
Sweet Vapor,913 New Hwy 68,,Sweetwater,TN,37874,US,,4232716445,sweetvapor15@gmail.com,2016-08-01,2019-01-13,Yes,V,CBD,,,
Poppas Vapor Supply,1542 N Broad St,,Tazewell,TN,37879,US,https://poppas-vapor-supply.business.site/,4235266096,poppasvaporsupply@outlook.com,2021-02-09,,Yes,V,CBD,,,
Legendary Vapors,152 Davy Crockett Mall,,Trenton,TN,38382,US,,7314705033,ahick101@gmail.com,2019-12-08,2019-12-08,Yes,V,CBD,,,
Discount Outlet,930 N Jackson St #B,,Tullahoma,TN,37388,US,,9318413926,,2018-11-08,,,S,,,,
Discount Tobacco Outlet,312 E Lincoln St,,Tullahoma,TN,37388,US,,9314549713,,2019-10-02,,Yes,T,CBD,,,
Electric Smoke Vapor House,322 S Anderson St,,Tullahoma,TN,37388,US,https://www.electricsmokevaporhouse.com/,9314542333,electricsmokevaporhouse@yahoo.com,2018-10-21,2019-02-21,Yes,V,CBD,,,
Lava Vapes Vapor Shop,504 N Jackson St Ste 104,,Tullahoma,TN,37388,US,,9316364163,,2014-10-10,2018-11-11,,V,,,,
Nature's Elite,1802 N Jackson St #800,,Tullahoma,TN,37388,US,https://www.natureselitetn.com/,9312224258,natureselitetn@gmail.com,2021-03-04,2021-03-04,Yes,C,CBD,,,
Octopus E-Juice at Vape Spot,1905 N Jackson St Ste 950,,Tullahoma,TN,37388,US,http://www.octopusejuice.com/,9315635633,jamie@octopusejuice.com,2018-08-06,2019-12-30,Yes,V,CBD,,,
The Juice Bar #2,109 Cedar Ln,,Tullahoma,TN,37388,US,https://thejuicebartn.com/,9314618896,,2018-08-06,2020-01-02,Yes,V,CBD,Yes,,
Roll Ur Own Tobacco Shop,119 W Reelfoot Ave,,Union City,TN,38261,US,,7318858225,rollyourowntabacco@hotmail.com,2020-02-11,2020-08-15,Yes,T,CBD,,,
Tobacco SuperStore,2300 E Reelfoot Ave,,Union City,TN,38261,US,,7315400261,,2020-04-27,2020-04-27,Yes,T,CBD,,,
Treehouse CBD Shop,206 E Reelfoot Ave Ste 27,,Union City,TN,38261,US,,7315999941,cfoederer1@gmail.com,2020-12-09,,Yes,C,CBD,,,
Vintage & Vapor Marketplace,2204 W Reelfoot Ave,,Union City,TN,38261,US,,7315991204,,2019-09-28,,Yes,V,CBD,,,
Emerald Apothecary,918 E Main St,,Waverly,TN,37185,US,http://emerald-apothecary.com,6158708857,sales@emerald-apothecary.com,2020-04-29,2021-10-08,Yes,C,CBD,Yes,,
White House Vapor,618 Old State Rte 76,,White House,TN,37188,US,http://white-house-vapor.business.site/,6152857234,,2019-09-22,,Yes,V,CBD,Yes,,
Bullydog's,1057 Dinah Shore Blvd,,Winchester,TN,37398,US,https://bullydogscbd.com/,9314090152,bullydogscbd@gmail.com,2020-11-21,2021-08-14,Yes,C,CBD,,,
Wellness Emporium,110 W High St,,Woodbury,TN,37190,US,https://halfhillfarm.com,6154697778,wellnesswoodbury@gmail.com,2020-12-07,,Yes,O,CBD,,,