Shop Name,Address 1,Address 2,City,State/Province,Zip/Postcode,Country,Website,Phone,Email,Added,Updated,CBD,Biz Type,MJ,Kratom,Buyer name ,Title 
King's Vapor - Aberdeen Md,200 N Philadelphia Blvd Ste H,,Aberdeen,MD,21001,US,https://vapekvp.com/,4433277669,kingsvaporllc@gmail.com,2019-04-29,,Yes,V,CBD,,,
Smoke-King,16 Aberdeen Shopping Plaza,,Aberdeen,MD,21001,US,https://www.smokekingoutlet.com,6672295965,info@smokekingoutlet.com,2021-05-30,2022-03-14,Yes,S,CBD,Yes,,
Tobacco Outlet,3101 Emmorton Rd #A7,,Abingdon,MD,21009,US,https://tobacco-outlet.business.site/,4105695045,,2020-12-09,,Yes,S,CBD,Yes,,
Tobacco Republic,7091 Berry Rd Unit A,,Accokeek,MD,20607,US,,2407664797,republiccigars@gmail.com,2020-06-15,,Yes,T,CBD,,,
Aroma Annapolis,2029 West St,,Annapolis,MD,21401,US,https://aromaannapolis.com,4102673000,clare@goldleafmd.com,2021-07-19,2021-07-19,Yes,H,CBD,,,
Mr. Smoke Annapolis,2020 West St Ste D,,Annapolis,MD,21401,US,http://www.mrsmokemd.com,4102244642,mrsmokemd@gmail.com,2019-01-03,,Yes,S,CBD,Yes,,
Vape N Tobacco,1346 Cape St Claire Rd,,Annapolis,MD,21409,US,https://www.vapentobaccoannapolis.com/,4107570241,,2018-08-15,2020-04-17,Yes,S,CBD,,,
Vape180,903 Bay Ridge Rd,,Annapolis,MD,21403,US,http://www.vape180.com/,4102633767,,2018-08-06,2020-01-06,Yes,V,CBD,,,
Severna Smoke Supply & Ting's Cool Things,965 Ritchie Hwy,,Arnold,MD,21012,US,http://www.coolthingsinc.com/,4104322987,ourcoolcustomers@gmail.com,2018-10-29,2020-04-15,Yes,H,CBD,,,
BmoreVapes,905 Light St,,Baltimore,MD,21230,US,http://www.bmorevapes.com/,4108780157,sales@bmorevapes.com,2014-08-27,2019-03-25,,V,,,,
CBD Supply Maryland,7690 Belair Rd,,Baltimore,MD,21236,US,http://www.cbdsupplymaryland.com,4107779750,shop@cbdsupplymaryland.com,2020-02-06,2020-02-06,Yes,C,CBD,,,
Charm City Hemp,526 E Belvedere Ave,,Baltimore,MD,21212,US,https://www.charmcityhempstore.com/,4434383761,charmcityhemp@gmail.com,2019-10-14,2019-10-14,Yes,C,CBD,,,
Charm City Hemp - Hampden,1013 W 36th St,,Baltimore,MD,21211,US,https://www.charmcityhempstore.com/,8583494512,charmcityhemp@gmail.com,2019-12-14,,Yes,C,CBD,,,
Charmed Hemp,1802 Eastern Ave Unit 1,,Baltimore,MD,21231,US,http://charmedhemp.com,4436828213,cbdsales@carebalancedelivery.com,2019-11-11,2019-11-17,Yes,C,CBD,Yes,,
Charmed Hemp - W 29th St,348 W 29th St,,Baltimore,MD,21211,US,https://www.charmedhemp.com/,4437084400,cbdsales@carebalancedelivery.com,2021-10-08,,Yes,C,CBD,,,
City Tobacco & Vape Outlet,779 Washington Blvd,,Baltimore,MD,21230,US,,4437085586,,2018-08-06,2019-09-08,Yes,S,CBD,,,
Desires Novelty & Smoke Shop,1099 N Rolling Rd,,Baltimore,MD,21228,US,,4107880378,abott117@hotmail.com,2018-12-20,,,S,,,,
Discount Cigarettes,5716 Ritchie Hwy,,Baltimore,MD,21225,US,,4106090140,,2021-08-27,,,S,,,,
Doc's Smoke Shop,3721 Eastern Ave,,Baltimore,MD,21224,US,https://docssmokeshop.com/,4103273676,info@docssmokeshop.com,2019-01-03,2021-08-27,Yes,S,CBD,Yes,,
Down Under Smoke Shop,3998 Roland Ave Ste B,,Baltimore,MD,21211,US,https://www.smokedownunder.com/,4436816936,,2018-08-06,2019-09-16,Yes,H,CBD,Yes,,
EzHut Smoke Shop,1003 S Charles St,,Baltimore,MD,21230,US,,4102445019,ezhut1003@gmail.com,2020-07-11,,Yes,S,CBD,Yes,,
Firefly,3714 Eastern Ave,,Baltimore,MD,21224,US,,4107321232,,2018-10-27,,,S,,,,
Golden Cave Tobacco-Vape-Hookah,1301 N Charles St,,Baltimore,MD,21201,US,,4102440011,,2018-08-15,2019-05-30,,S,,,,
Hot Zone Tobacco,708 S Broadway,,Baltimore,MD,21231,US,,4434387180,,2018-10-22,2019-03-25,Yes,S,CBD,Yes,,
Innerzen,1008 W 36th St,,Baltimore,MD,21211,US,https://innerzen.shop/,4109296879,innerzenglobal@gmail.com,2019-11-02,2019-11-16,Yes,C,CBD,,,
Jamz Vaporium,8150 Fort Smallwood Rd,,Baltimore,MD,21226,US,https://www.jamzvaporium.com/,4438172042,,2022-02-07,2022-02-07,Yes,V,CBD,,,
Karmic Connection,508 S Broadway,,Baltimore,MD,21231,US,http://karmicconnection.com/,4105580428,karmicconnection508@gmail.com,2018-11-07,2018-11-08,,S,,,,
Kratom KVC Shop,1407 Sulphur Spring Rd #C,,Baltimore,MD,21227,US,https://www.baltimorekratom.com,2407552583,urmobileshop@gmail.com,2021-08-18,,Yes,C,CBD,Yes,,
Kratom Vapor CBD Shop 1,1000 Dundalk Ave,,Baltimore,MD,21224,US,,4432518425,kratomvapourcbd@gmail.com,2021-02-26,,Yes,S,CBD,Yes,,
Mona Lisa Tobacco & Gifts,1712 Thames St,,Baltimore,MD,21231,US,,4105220010,,2018-11-07,,,S,,,,
Mr. Smoke Baltimore,900 Light St,,Baltimore,MD,21230,US,,4439485495,mrsmokemd@gmail.com,2021-06-30,,Yes,S,CBD,,,
Parkville Vape House,7231 Harford Rd,,Baltimore,MD,21234,US,,4438334577,,2018-09-22,,,V,,,,
Patorco Smoke Shop & CBD Flower,1132 S Charles St,,Baltimore,MD,21230,US,https://www.pator.co,4437082559,officialpatorco@gmail.com,2020-12-14,2020-12-14,Yes,H,CBD,,,
"Romeo and Julieta Cigar, Tobacco And Vaporizer",2924 O'Donnell St,,Baltimore,MD,21224,US,,4434385414,,2018-08-06,2019-11-02,,S,,,,
Smoke District,503 W Cold Spring Ln,,Baltimore,MD,21210,US,,4438354711,store@thesmokedistrictstore.com,2021-08-29,2021-08-29,Yes,S,CBD,Yes,,
The Corner Store CBD,1114 Cathedral St Suite 2,,Baltimore,MD,21201,US,https://the-corner-store-glass-shop.business.site/,6673123010,,2020-12-18,,Yes,C,CBD,,,
The World Tobacco,602 S Broadway,,Baltimore,MD,21231,US,https://the-world-tobacco.business.site/,4103277300,,2021-08-30,,Yes,S,CBD,Yes,,
Tobacco Barrel,1415 Merritt Blvd #B,,Baltimore,MD,21222,US,,4102846777,,2021-08-30,2021-08-30,,T,,,,
Tobacco Barrel,3834 E Lombard St,,Baltimore,MD,21224,US,,4105344600,,2021-08-30,,,S,,,,
Tobacco Depot Overlea,6606 Belair Rd,,Baltimore,MD,21206,US,https://business,4104441744,,2021-08-31,,Yes,S,CBD,,,
Vapor CBD Baltimore,853 E Fort Ave,,Baltimore,MD,21230,US,,4434385297,,2021-09-01,,Yes,V,CBD,,,
Burns CBD,2123 Conowingo Rd,,Bel Air,MD,21014,US,https://www.burnscbd.com/,4433450078,sales@burnscbd.com,2020-11-21,,Yes,C,CBD,,,
Class 5 Vapors - Bel Air,2418 Churchville Rd,,Bel Air,MD,21015,US,http://www.class5vapors.com/,4109145918,,2018-08-15,2019-03-25,Yes,V,CBD,,,
Tobacco Stop,5 Bel Air S Pkwy # 1627,,Bel Air,MD,21015,US,,4105692092,,2020-03-09,,Yes,S,CBD,,,
Towson Vaporium - Bel Air,1323 Baltimore Pike,,Bel Air,MD,21014,US,,4437935648,towsonvaporium@gmail.com,2018-08-15,2020-02-11,Yes,V,CBD,,,
Vape Dojo Bel Air,138 N Bond St,,Bel Air,MD,21014,US,https://vapedojo.com/,4433716268,info@thevapelounge.com,2018-08-15,2019-05-30,Yes,V,CBD,,,
Vape Dojo Belcamp,1321 Riverside Pkwy Ste F-3,,Belcamp,MD,21017,US,https://vapedojo.com/,4433604204,info@vapedojo.com,2019-05-30,2019-05-30,Yes,V,CBD,,,
Delmarva Health thru CBD,10445 Old Ocean City Blvd Unit 3,,Berlin,MD,21811,US,https://delmarvahealththrucbd.com/,4106502292,nathan@dhtcbd.com,2021-05-08,2022-04-06,Yes,C,CBD,,,
Bethesda Hemp & Wellness LLC,8004 Norfolk Ave,,Bethesda,MD,20814,US,https://bethesdahempwellness.com,3013477122,andrea@cbdbethesda.com,2022-03-14,2022-03-14,Yes,C,CBD,,,
Funkypiece Smoke Shop & Glass Gallery,7814 Old Georgetown Rd,,Bethesda,MD,20814,US,http://www.funkypiece.com,2408003905,sales@funkypiece.com,2018-12-17,,Yes,S,CBD,Yes,,
One Flight Up Smoke Shop,5004 Governor Ritchie Hwy #A,,Brooklyn,MD,21225,US,http://www.oneflightupsmokeshop.com/,4107898600,,2018-08-06,2019-10-30,Yes,H,CBD,,,
The Vape It Store,309 Sunburst Hwy Unit 5,,Cambridge,MD,21613,US,https://thevapeitstores.com/,4432255386,vapeitofcambridge@gmail.com,2018-08-13,2020-02-09,,V,,,,
Global Discount Tobacco,7089 Allentown Rd,,Camp Springs,MD,20748,US,,2405585659,,2022-04-19,2022-04-19,,S,,,,
Vapist MD,6321 Old Branch Ave,,Camp Springs,MD,20748,US,http://www.vapistmd.com/,3013856871,vapistmd@comcast.net,2018-09-30,,,V,,,,
Discount Tobacco & Vapor Shop,4867 Marlboro Pike,,Capitol Heights,MD,20743,US,,3015682125,,2019-09-12,2019-09-12,Yes,S,CBD,,,
KVC Smoke Shop,6409 Frederick Rd,,Catonsville,MD,21228,US,https://catonsvillesmokeshop.com/,4104217903,,2021-03-01,,Yes,S,CBD,Yes,,
Peace of Sunshine,2 Mellor Ave,,Catonsville,MD,21228,US,http://www.peaceofsunshine.com,4107880942,peaceofsunshine@comcast.net,2019-01-03,,Yes,H,CBD,Yes,,
Tobacco Express,728 N Rolling Rd,,Catonsville,MD,21228,US,https://www.tobacco-express-728.com/,4436365144,tobaccoexpress827@gmail.com,2021-08-31,,Yes,S,CBD,Yes,,
Towson Vaporium - Catonsville,5602 Baltimore National Pike Ste 100,,Catonsville,MD,21228,US,,4109497844,,2018-08-15,2020-02-11,Yes,V,CBD,,,
Vapor Villa,730 Frederick Rd Ste 202,,Catonsville,MD,21228,US,https://www.vaporvilla.com/,4432512163,info@vaporvilla.com,2018-09-30,,,V,,,,
Chesapeake Vape,1607 Postal Rd,,Chester,MD,21619,US,https://chesapeakevape.com/,4432621747,chesapeakevape@gmail.com,2014-09-25,2019-03-25,,V,,,,
Cheverly Food Mart Cigar and Hookah,6435 Landover Rd,,Cheverly,MD,20785,US,,2404876861,,2022-01-04,2022-03-25,,S,,,,
Vape N Cigar,12447 Clarksville Pike,,Clarksville,MD,21029,US,https://www.vapencigarclarksville.com/,6672005185,,2021-09-01,,Yes,S,CBD,Yes,,
Sam's Shop,9020 Woodyard Rd,,Clinton,MD,20735,US,,3018775140,,2021-10-24,,,S,,,,
CBD Plus USA - Cockeysville,9832 York Rd Ste 1C,,Cockeysville,MD,21030,US,https://cbdplususa.com/,8334223758,info@cbdplususa.com,2019-08-15,2019-08-15,Yes,C,CBD,,,
Hazy Daze,10621 York Rd,,Cockeysville,MD,21030,US,https://www.hazydazemd.com,4103527498,erickg@hazydazemd.com,2021-12-09,2021-12-09,,H,,,,
Place of Vapes,10037 York Rd,,Cockeysville,MD,21030,US,,4436892950,,2021-08-27,,Yes,V,CBD,,,
Smokin Treasures,10838 York Rd,,Cockeysville,MD,21030,US,https://smokintreasures.com/,4107477770,smokingtreasures@gmail.com,2019-01-07,,Yes,H,CBD,,,
Tobacco Etc,122 Cranbrook Road,,Cockeysville,MD,21030,US,https://www.tobacco-etc.com/,4106670009,tobacco.etc122@gmail.com,2018-10-28,,,S,,,,
Avail Vapor - College Park,10250 Baltimore Ave Ste C,,College Park,MD,20740,US,http://availvapor.com,2409656025,custservice@availvapor.com,2014-09-13,2019-06-18,Yes,V,CBD,,,
Mr. Smoke College Park,7313 Baltimore Ave Ste D,,College Park,MD,20740,US,http://mrsmokemd.com,2407145876,mrsmokemd@gmail.com,2019-01-03,2019-01-04,Yes,H,CBD,Yes,,
One Stop Shop,4509 College Ave,,College Park,MD,20740,US,,2407703128,1stopumd@gmail.com,2019-05-06,,,S,,,,
The Bamboo Eater,9935 Rhode Island Ave,,College Park,MD,20740,US,http://www.thebambooeater.com/,3014411012,thebambooeater9935@gmail.com,2018-10-18,2019-03-03,Yes,S,CBD,,,
Tobacco & Vape King,9213 Baltimore Ave,,College Park,MD,20740,US,https://www.tobaccokings.com/,2409657495,,2022-02-14,2022-02-14,Yes,S,CBD,Yes,,
Vape Exchange,8145 Baltimore Ave Ste D,,College Park,MD,20740,US,,2405424230,vapeexchangecp@gmail.com,2018-08-15,2020-02-12,Yes,V,CBD,,,
Cigare by Tobacco Etc.,10300 Little Patuxent Pkwy,,Columbia,MD,21044,US,http://www.cigaremd.com/,4107307750,,2019-08-19,,,T,,,,
Mean Street Vapor,7060 Oakland Mills Rd Ste C,,Columbia,MD,21045,US,https://www.meanstreetvapor.com/,4435464493,info@meanstreetvapor.com,2018-08-06,2020-01-15,Yes,V,CBD,,,
Pars Market LLC,9400 Snowden River Pkwy Ste 109,,Columbia,MD,21045,US,http://www.parsmarketcolumbia.com/,4432590002,parsmarket@ymail.com,2019-01-03,2020-02-22,Yes,S,CBD,Yes,,
Vape N Cigar,7104 Minstrel Way #7,,Columbia,MD,21045,US,http://www.vapencigar.com/,4103092766,vapencigar@gmail.com,2019-10-14,2019-10-14,Yes,S,CBD,,,
Mystic Piercing & Tattoo,2179 Defense Hwy,,Crofton,MD,21114,US,https://www.mysticpiercing.com/,4104517255,mysticpiercing@aol.com,2018-11-10,2018-11-12,,H,,,,
Peace of Crofton,1268 MD-3 S Ste 2,,Crofton,MD,21114,US,http://www.peaceofcrofton.com,6673074918,peaceofcrofton@gmail.com,2019-01-03,,Yes,H,CBD,,,
Smoke n Vapes,2135 Defense Hwy Ste 3,,Crofton,MD,21114,US,https://www.facebook.com/profile.php,4107212221,asawinc2135@gmail.com,2022-05-13,2022-05-13,Yes,S,CBD,Yes,,
Hookah Plus,1313 National Hwy,,Cumberland,MD,21502,US,,3012687118,,2018-12-27,,Yes,H,CBD,Yes,,
Maddcatt Vapors,200 S George St,,Cumberland,MD,21502,US,http://maddcattvapors.com/,2403627227,info@maddcattvapors.com,2014-09-02,2019-01-26,Yes,V,CBD,,,
The Vapor Room,57 N Centre St,,Cumberland,MD,21502,US,https://thevaporroom.net/,3018769500,info@thevaporroom.net,2018-08-13,2020-02-09,Yes,V,CBD,,,
Vapewerks,16115 McMullen Hwy SW Unit 7,,Cumberland,MD,21502,US,,2403627256,vapewerksmd@gmail.com,2018-08-15,2020-02-12,Yes,V,CBD,,,
"American Cigar, Tobacco & Vape",9871 Main St,,Damascus,MD,20872,US,,3012535500,,2022-01-04,2022-01-04,Yes,S,CBD,Yes,,
Purple Peake CBD,322 Market St Ste 101,,Denton,MD,21629,US,https://www.purplepeake.com/,4102977223,sales@purplepeake.com,2021-02-04,2021-02-04,Yes,C,CBD,,,
Banana Head E-cigs & Smoke Shop,17519 Redland Rd,,Derwood,MD,20855,US,https://bananaheadsmokeandvape.com,2402247261,bananaheadsmokeshop@gmail.com,2022-04-09,2022-04-09,Yes,H,CBD,Yes,,
Class 5 Vapor,7620 German Hill Rd Ste 105,,Dundalk,MD,21222,US,http://class5dundalk.com/,4433765273,,2019-08-25,,,V,,,,
Puff Puff Pass,2701 North Point Rd Unit H,,Dundalk,MD,21222,US,https://www.puffpuffpasssmoke.com/,4434747833,puffpuffpassllc@yahoo.com,2021-08-27,2021-08-27,Yes,S,CBD,Yes,,
Smoke & Vape Shop,7730 Wise Ave,,Dundalk,MD,21222,US,,4435036602,,2021-08-29,,Yes,S,CBD,,,
Tobacco & Cellphone Repair,41 Shipping Pl,,Dundalk,MD,21222,US,https://tobaccoandcellphonerepair.business.site/,4436365788,,2021-08-31,,Yes,S,CBD,,,
Tobacco Spot,1613 Merritt Blvd,,Dundalk,MD,21222,US,,4102825222,,2021-08-31,,Yes,S,CBD,Yes,,
Up In Flamez,1800 Willow Spring Rd,,Dundalk,MD,21222,US,http://upinflamez.com/,4102841442,upinflamezsmokeshop@gmail.com,2019-01-07,2019-01-07,,S,,,,
Pleasant Vapes,10394 Southern Maryland Blvd,,Dunkirk,MD,20754,US,https://www.pleasantvape.com/,4106107141,,2015-08-17,2019-01-02,,V,,,,
Delmar Vapor Lounge of Easton,8374 Ocean Gateway Ste  2,,Easton,MD,21601,US,https://delmarvapor.com/,4432397940,david@delmarvapor.com,2014-10-05,2019-05-05,,V,,,,
Tobacco N Vape,101 Marlboro Ave #55,,Easton,MD,21601,US,,4108227013,,2020-07-13,,Yes,S,CBD,Yes,,
Vape Loft,167 Mitchell's Chance Rd,,Edgewater,MD,21037,US,https://vapeloftmd.com/,4432036161,vapeloftmd@gmail.com,2018-08-06,2018-11-13,Yes,V,CBD,,,
Smoke-King,1011 Woodbridge Center Way Ste B,,Edgewood,MD,21040,US,https://www.smokekingoutlet.com,4106714790,info@smokekingoutlet.com,2022-03-14,2022-03-14,Yes,S,CBD,,,
One Stop Smoke Shop,1438 Liberty Rd Ste 12,,Eldersburg,MD,21784,US,,4436096907,,2021-06-30,,,S,,,,
Smoke Free Nation,1209 Liberty Rd Ste 114,,Eldersburg,MD,21784,US,http://smokefreenationmd.com/,4433286702,sfncontact@gmail.com,2018-10-17,2018-10-24,Yes,V,CBD,,,
Mr. Smoke,7880 Washington Blvd Ste G,,Elkridge,MD,21075,US,http://www.mrsmokemd.com/,4436614384,mrsmokemd@gmail.com,2019-01-03,,Yes,S,CBD,Yes,,
Tobacco + Vape,6500 Washington Blvd Ste 103,,Elkridge,MD,21075,US,,4102203868,tobaccoplusvape@gmail.com,2021-08-31,,Yes,S,CBD,,,
Vapor-Tek,6325 Washington Blvd Ste E,,Elkridge,MD,21075,US,,4103792045,vaportekkmd@gmail.com,2018-08-15,2020-02-12,,V,,,,
Big City Tobacco,222 S Bridge St Ste 10,,Elkton,MD,21921,US,http://big-city-tobacco.business.site/,4432075162,,2019-07-24,,Yes,S,CBD,,,
Wesley's Vape & Hops Shop,3700 Telegraph Rd,,Elkton,MD,21921,US,https://www.wesleysvapeshop.com/,4103983696,wesleysvapeandhopsshop@gmail.com,2018-08-15,2020-02-12,Yes,V,CBD,,,
Wesley's Vape Shop,999 E Pulaski Hwy,,Elkton,MD,21921,US,https://www.wesleysvapeshop.com,4103980100,info@wesleysvapeshop.com,2018-08-15,2020-02-12,Yes,V,CBD,,,
Embrace CBD Wellness Center - Ellicott City,9050 Baltimore National Pike Ste 107,,Ellicott City,MD,21042,US,https://www.iembracecbd.com/,4107099099,iembracecbd@gmail.com,2020-03-13,,Yes,C,CBD,,,
The Last Place On Earth,9090 Frederick Rd Ste B,,Ellicott City,MD,21042,US,http://www.lastplacesmokeshop.com,4433250006,lastplaceonearth3567@gmail.com,2019-01-03,,Yes,H,CBD,,,
Vape Dojo Ellicott City,3570 St Johns Ln #109,,Ellicott City,MD,21042,US,https://vapedojo.com/,4103446283,info@vapedojo.com,2018-08-15,2019-05-30,Yes,V,CBD,,,
Vape Store USA,209 Eastern Blvd,,Essex,MD,21221,US,,4106873979,vapestoreusa@gmail.com,2018-10-11,,Yes,V,CBD,,,
The Smoke And Glass Shop,1621 Bel-Air Rd Store C,,Fallston,MD,21047,US,,4439813301,daviddrutz@gmail.com,2021-05-05,2021-05-05,Yes,S,CBD,Yes,,
Tobacco Xpress,984 Swan Creek Rd E,,Fort Washington,MD,20744,US,,3012031000,mytobaccoxpress@gmail.com,2020-02-25,,Yes,T,CBD,,,
Artifacts Glass Gallery,43 S Market St #B,,Frederick,MD,21701,US,,3013605509,,2021-08-26,2021-08-26,,H,,,,
Avail Vapor,5809 Buckeystown Pike Ste A,,Frederick,MD,21704,US,http://availvapor.com,2406513165,custservice@availvapor.com,2014-09-13,2019-03-08,Yes,V,CBD,,,
Cloud Jammer,630 N Market St,,Frederick,MD,21701,US,https://www.cloud-jammervapes.com/frederick,3016822233,support@cloud-jammervapes.com,2021-08-26,,Yes,V,CBD,,,
Smoke 10,1100 W Patrick St,,Frederick,MD,21703,US,,2405759208,,2022-01-10,2022-01-10,Yes,S,CBD,,,
Smoke 10 at TJ,183 Thomas Johnson Dr Ste D,,Frederick,MD,21702,US,,3013782608,,2022-01-10,2022-01-10,Yes,S,CBD,,,
Smoke Signals,328 N Market St,,Frederick,MD,21701,US,http://www.smokesignalssmokeshop.com/,2403797988,smokesignalssmokeshop@gmail.com,2019-01-07,,Yes,H,CBD,,,
Smokers Paradise,4 S Mccain Dr #4,,Frederick,MD,21703,US,,2406511588,,2021-08-24,,Yes,S,CBD,,,
The Great Green Goat,1507 W Patrick St Ste 3,,Frederick,MD,21702,US,http://www.thegreatgreengoat.com,3016822710,contact@thegreatgreengoat.com,2018-10-20,,Yes,S,CBD,Yes,,
Victory Vaporz,5732 Buckeystown Pike,,Frederick,MD,21704,US,https://www.victoryvaporz.net/,3013789813,,2018-08-15,2019-09-28,Yes,V,CBD,,,
Wander Hemp Company,27 S Market St,,Frederick,MD,21701,US,https://wanderhempco.com/,3015639571,info@wanderextracts.com,2020-12-11,,Yes,C,CBD,,,
Willie's Tobacco Accessories,306 N Market St,,Frederick,MD,21701,US,,3016687070,,2018-12-05,,,S,,Yes,,
The Vapor Room,22 S Water St,,Frostburg,MD,21532,US,https://thevaporroom.net/,3016896500,info@thevaporroom.net,2018-08-13,2020-02-09,Yes,V,CBD,,,
ROST Glass & Vaporizers,16125 Shady Grove Rd,,Gaithersburg,MD,20877,US,http://www.getrostglass.com/,3013398040,info@getrostglass.com,2019-01-03,2019-11-14,Yes,H,CBD,,,
The Vape Spot,6 N Summit Ave,,Gaithersburg,MD,20877,US,,3013550287,visitus@infamouslounge.com,2020-12-08,2021-03-19,Yes,V,CBD,,,
Vape Social,16521 S Frederick Ave,,Gaithersburg,MD,20877,US,http://vapesocialmd.com/,2402525166,vapesocialmd@gmail.com,2014-09-03,2019-01-27,,V,,,,
Vapor Worldwide,15906 Shady Grove Rd Ste A,,Gaithersburg,MD,20877,US,https://www.vaporww.com/,2408018911,frit@vaporww.com,2018-08-15,2020-02-12,Yes,V,CBD,,,
The Vape Pad,2299 John Hopkins Rd,,Gambrills,MD,21054,US,http://www.thevapepad.com/,4432928590,thevapepad@gmail.com,2018-08-13,2020-02-09,,V,,,,
Avail Vapor - Germantown,19706 Germantown Rd,,Germantown,MD,20874,US,https://www.availvapor.com/,3019162100,custservice@availvapor.com,2018-06-06,2019-06-18,Yes,V,CBD,,,
Tobacco Shack,12615 Wisteria Dr #D,,Germantown,MD,20874,US,,3019722905,,2020-04-28,2020-04-28,,T,,,,
Discount Tobacco,7434 Ritchie Hwy,,Glen Burnie,MD,21061,US,https://discounttobaccoglenburnie.business.site/,4107684979,dtglenburnie@gmail.com,2019-10-07,2019-10-07,,S,,,,
Embrace CBD Wellness Center,402 Crain Hwy S,,Glen Burnie,MD,21061,US,https://www.iembracecbd.com/,4435774237,iembracecbd@gmail.com,2020-03-13,,Yes,C,CBD,,,
Mean Street Vapor,8 Central Ave Ste A,,Glen Burnie,MD,21061,US,https://www.meanstreetvapor.com/,4105955338,info@meanstreetvapor.com,2018-09-08,2020-03-18,Yes,V,CBD,,,
Smoke Shop 1,337 Hospital Dr Ste N1,,Glen Burnie,MD,21061,US,https://www.smokeshop1.net/,4105956275,smokeshopmd@gmail.com,2018-12-22,,Yes,S,CBD,Yes,,
Tobacco Stop,7110 Ritchie Hwy,,Glen Burnie,MD,21061,US,,4107669978,,2020-03-09,,Yes,S,CBD,Yes,,
Vape N Tobacco,7800 Parke W Dr #10,,Glen Burnie,MD,21061,US,https://www.vapentobaccoglenburnie.com/,4107666036,,2022-01-31,2022-01-31,Yes,S,CBD,Yes,,
Discount Vape Connection,3233 Chestnut Ridge Rd,,Grantsville,MD,21536,US,,3018958095,discountvapeconnection@gmail.com,2014-09-24,2019-03-25,,V,,,,
B More Tobacco - One Stop Smoke Shop,6413 Windsor Mill Rd,,Gwynn Oak,MD,21207,US,,4433168856,,2018-08-13,2020-02-09,Yes,S,CBD,,,
1940 Naturals,21 E Oak Ridge Dr,,Hagerstown,MD,21740,US,,2404521610,,2020-11-14,,Yes,C,CBD,,,
Blue Monkey Vapes,17301 Valley Mall Rd,,Hagerstown,MD,21740,US,http://bluemonkeyvapes.com/,2405136251,contact@bluemonkeyvapes.com,2018-08-06,2020-01-11,,V,,,,
Hippie Junction,1423 Dual Hwy #13a,,Hagerstown,MD,21740,US,https://hippie-junction-smoke-shop.business.site/,2405003480,,2018-11-19,2019-11-21,Yes,S,CBD,Yes,,
Hippie Junction Smoke Shop 2,57 Eastern Blvd N,,Hagerstown,MD,21740,US,,2405136197,,2021-08-24,,Yes,S,CBD,Yes,,
Maddcatt Vapors,13 E Oak Ridge Dr,,Hagerstown,MD,21740,US,,3017900424,info@maddcattvapors.com,2014-09-02,2022-04-21,,V,,,,
Simple Pleasures,17605 Virginia Ave,,Hagerstown,MD,21740,US,http://www.hagerstownsmokeshop.com/,3015823439,,2018-08-06,2019-08-06,Yes,S,CBD,Yes,,
Smoker Friendly,615 F Dual Highway,,Hagerstown,MD,21740,US,https://www.smokerfriendlywv.com/,3017399120,,2018-08-13,2018-10-28,Yes,S,CBD,,,
The Vape Saloon,495 Premium Outlets Blvd Ste 655,,Hagerstown,MD,21740,US,https://www.vapesaloon.net/,2407076797,,2021-08-24,,Yes,V,CBD,,,
Tobacco Den,17301 Valley Mall Rd #109,,Hagerstown,MD,21740,US,,3015824888,tobaccoden@yahoo.com,2020-06-12,,,T,,,,
Tobacco Road,13611 Pennsylvania Ave Ste B,,Hagerstown,MD,21742,US,http://thetobaccoroad.com/,2403295072,,2020-06-16,,Yes,S,CBD,Yes,,
Vast Vapor,18501 Maugans Ave Ste 104,,Hagerstown,MD,21742,US,http://www.vastvapor.com/,2405136878,support@vastvapor.com,2016-05-20,2019-01-10,,V,,,,
"Your CBD Store - Hagerstown, MD",240 E Washington St,,Hagerstown,MD,21740,US,https://cbdrx4u.com/,8289990990,chambersburg@cbdrx4u.com,2020-07-22,,Yes,C,CBD,,,
Vapor Villa,1913 Lansdowne Rd Unit E,,Halethorpe,MD,21227,US,https://www.vaporvilla.com/,4105656210,info@vaporvilla.com,2018-09-30,2019-10-03,,V,,,,
Voodoo Glass Company,1121 W 36th St,,Hampden,MD,21211,US,http://www.smokesignalssmokeshop.com/,4102352848,smokesignalssmokeshop@gmail.com,2018-11-06,2021-06-19,Yes,H,CBD,,,
CBD Supply MD,695 Hanover Pike Ste G,,Hampstead,MD,21074,US,https://www.cbdsupplymd.com/,4436392353,cbdsupplymd@gmail.com,2020-08-19,,Yes,C,CBD,,,
Pure Peace CBD,1154 S Main St,,Hampstead,MD,21074,US,https://purepeacecbd.com/,4435368037,purepeacecbd@gmail.com,2021-02-08,,Yes,C,CBD,,,
Vape Dojo Hampstead,721 Hanover Pike Ste 123,,Hampstead,MD,21074,US,https://vapedojo.com/,4435076201,info@vapedojo.com,2018-08-15,2019-05-30,Yes,V,CBD,,,
4Trees Smokeshop,105 W Main St,,Hancock,MD,21750,US,,3016786768,,2019-07-13,,Yes,H,CBD,Yes,,
Cigar and Smoke Shop,7000 Arundel Mills Cir Unit 334,,Hanover,MD,21076,US,https://www.cigarandsmokeshop.com/,4437555141,cigarandsmokeshop@gmail.com,2018-09-22,2020-04-27,Yes,S,CBD,Yes,,
Fort Meade CBD and Wellness by 5 Star Nutrition,2649 Annapolis Rd,,Hanover,MD,21076,US,https://5starnutritionusa.com/,4432742716,fortmeade@5starnutritionusa.com,2021-01-06,,Yes,O,CBD,,,
EZ Tobacco and Gifts,300 St John St,,Havre de Grace,MD,21078,US,http://eztobaccoandgifts.com,4109395700,toddfoods@gmail.com,2018-10-22,2019-03-25,Yes,S,CBD,Yes,,
Van Gogh Vapes,610 N Juniata St,,Havre de Grace,MD,21078,US,http://www.vangvapes.com/,4435028467,vgvapes@gmail.com,2015-02-06,2018-12-25,Yes,V,CBD,,,
Wesley's Vape Shop,1834 Pulaski Hwy,,Havre De Grace,MD,21078,US,https://www.wesleysvapeshop.com/,6672314664,info@wesleysvapeshop.com,2020-12-11,,Yes,V,CBD,,,
Landover Tobacco Shop & Smoke Shop & CBD,7319 Landover Rd,,Hyattsville,MD,20785,US,https://landover-tobacco-shop-smoke-shop-cbd.business.site/,2404876320,haseeb@globebb.com,2021-06-30,,Yes,S,CBD,,,
Fingerboard Farm,10240 Fingerboard Rd,,Ijamsville,MD,21754,US,https://fingerboardfarm.market/,8336434367,fingerboardfarm.market@gmail.com,2021-01-04,2022-04-06,Yes,C,CBD,,,
Vape N Cigar,8610 Washington Blvd,,Jessup,MD,20794,US,http://vapencigar.com/,4103092766,,2019-11-03,2019-11-03,Yes,S,CBD,,,
Beavs Smoke Shop,12238 Pulaski Hwy,,Joppa,MD,21085,US,https://www.beavssmokeshop.com/,4106797733,,2018-12-12,,Yes,H,CBD,Yes,,
Tobacco Shop,6478 Crain Hwy,,La Plata,MD,20646,US,,2407764795,,2021-06-30,,Yes,S,CBD,,,
Vapor Hut and Tobacco,1223 National Hwy #B,,La Vale,MD,21502,US,,2403627041,owners@vaporhut.net,2018-08-13,2021-06-12,Yes,S,CBD,,,
Tobacco Shop,7069 Martin Luther King Jr Hwy,,Landover,MD,20785,US,,2406672523,haseeb@globebb.com,2021-06-30,,Yes,S,CBD,,,
Binky's Vapes,10539 Greenbelt Rd Ste 102,,Lanham,MD,20706,US,,2402069524,binkysvapes@gmail.com,2016-02-08,2019-03-25,,V,,,,
EG Tobacco,10621 Greenbelt Rd Ste 205,,Lanham,MD,20706,US,,3012626780,egtobacco@gmail.com,2019-10-13,2019-10-13,,S,,,,
CBD Plus USA - Laurel,14209 Baltimore Ave,,Laurel,MD,20707,US,https://cbdplususa.com/,83342237580401,info@cbdplususa.com,2019-08-18,,Yes,C,CBD,,,
Crystal Fox,311 Main St,,Laurel,MD,20707,US,http://www.thecrystalfox.com/,3013171980,sterling@thecrystalfox.com,2020-06-26,,Yes,O,CBD,,,
Green Life Alternative Care,200 Main St,,Laurel,MD,20707,US,https://www.greenlifealt.com/,2407865538,info@greenlifealt.com,2021-04-23,,Yes,C,CBD,,,
James Lee Tobacco Depot,13600 Baltimore Ave Ste 108,,Laurel,MD,20707,US,,3014908540,,2019-12-21,,,S,,,,
Sam's Mini Mart & Wireless,13929 Baltimore Ave Ste 3,,Laurel,MD,20707,US,,3017551999,bdsomiron@yahoo.com,2019-11-02,2019-11-02,Yes,S,CBD,,,
Smoke n Vapes,11200 Scaggsville Rd Ste 125,,Laurel,MD,20723,US,https://www.smokenvapeslaurel.com/,4102135717,amiraftab24@yahoo.com,2022-05-13,2022-05-13,Yes,S,CBD,Yes,,
Tobacco Park,3511 Fort Meade Rd,,Laurel,MD,20724,US,,2403916453,,2022-03-09,2022-03-09,Yes,S,CBD,Yes,,
Tobacco Stop,3351 Corridor Marketplace Ste 300,,Laurel,MD,20724,US,,3013175316,,2020-02-28,,,S,,Yes,,
Vape Space,12753 Laurel Bowie Rd,,Laurel,MD,20708,US,https://www.vapespacemd.com/,3013770026,vapespacemd@gmail.com,2018-09-30,,,V,,,,
Neighborhood CBD Store,25365 Point Lookout Rd,,Leonardtown,MD,20650,US,https://www.neighborhoodcbdstore.com/,3019978449,sunbeamcbd@gmail.com,2021-02-26,,Yes,C,CBD,,,
Optimal Vapor,40955 Merchants Ln,,Leonardtown,MD,20650,US,,3016843212,,2015-03-30,2019-05-05,,V,,,,
Vape Jungle,21800 N Shangri-La Dr,,Lexington Park,MD,20653,US,https://www.thevapejungle.com/,2402378334,thevapejungle@gmail.com,2018-08-15,2020-02-12,Yes,V,CBD,,,
Vape Planet,21632 Great Mills Rd,,Lexington Park,MD,20653,US,,2402378089,vapeplanet2020@gmail.com,2021-07-25,,Yes,S,CBD,,,
Tobacco House,829 Nursery Rd,,Linthicum Heights,MD,21090,US,,4433126270,,2018-11-28,,,S,,,,
Vape180,810 Nursery Rd Ste D,,Linthicum Heights,MD,21090,US,http://www.vape180.com/,4105896356,,2018-08-15,2020-01-06,Yes,V,CBD,,,
Vapors Lounge,28943 Three Notch Rd,,Mechanicsville,MD,20659,US,,2402493209,vaporsloungemd@gmail.com,2018-09-30,2020-01-15,Yes,V,CBD,,,
NettMix Custom Vapes Inc,113 Beacon Rd,,Middle River,MD,21220,US,http://www.nettmixcustomvapes.com/,4435058531,,2020-01-27,,Yes,V,CBD,,,
Tobacco & Vape King,105 Carroll Island Rd Ste C,,Middle River,MD,21220,US,,4433178451,,2018-08-22,2020-02-22,Yes,S,CBD,,,
Tobacco Plus,672 Old Mill Rd Ste B,,Millersville,MD,21108,US,,4436886355,tobaccoplus7@gmail.com,2020-05-23,2020-05-23,Yes,S,CBD,,,
The Vapor Emporium,11717 Old National Pike Ste 3B,,New Market,MD,21774,US,http://thevaporemporiummd.com/,3018827509,thevaporemporium@aol.com,2018-08-13,2020-02-09,Yes,V,CBD,,,
Avail Vapor,12107 Rockville Pike,,North Bethesda,MD,20852,US,https://www.availvapor.com/,3017704942,custservice@availvapor.com,2018-06-06,2019-06-18,Yes,V,CBD,,,
Class 5 Vapors - North East,2288 Pulaski Hwy,,North East,MD,21901,US,https://www.class5vapors.com/,4106567437,,2019-08-25,,,V,,,,
House Of Vapes,7635 Belair Rd,,Nottingham,MD,21236,US,,4432904517,houseofvapes@yahoo.com,2020-07-06,,Yes,V,CBD,,,
Live Rite,9111 Belair Rd Ste B,,Nottingham,MD,21236,US,https://www.liveritetoday.com/,4108703254,info@liveritetoday.com,2019-11-11,,Yes,C,CBD,,,
Tobacco Depot,7954 Belair Rd #11,,Nottingham,MD,21236,US,,4106577395,kcdegindra@gmail.com,2018-12-20,,,S,,,,
The Vapor Hut,12743 Garrett Hwy Bldg 3,,Oakland,MD,21550,US,http://www.vaporhut.net/,3013342244,owners@vaporhut.net,2018-08-06,2020-01-02,Yes,V,CBD,,,
CBD Supply MD,11805 Coastal Hwy Unit S,,Ocean City,MD,21842,US,https://www.cbdsupplymd.com/,4102134656,cbdsupplymd@gmail.com,2020-08-19,2020-08-19,Yes,C,CBD,,,
Cloud 9 Vape,1806 Philadelphia Ave,,Ocean City,MD,21842,US,https://occloud9vape.com,4103903958,info@cloudnineoc.com,2018-06-16,2019-06-26,Yes,V,CBD,,,
OC Convenience Store,1201 Atlantic Ave #104,,Ocean City,MD,21842,US,,4433737490,info@occonvenience.com,2018-08-06,2020-01-15,,O,,,,
Ocean City Hemp Shop,401 S Baltimore Ave,,Ocean City,MD,21843,US,https://oceancityhemp.com/,4106450567,help@oceancityhemp.com,2021-02-21,,Yes,C,CBD,,,
Red Light District,12102 Ocean Gateway,,Ocean City,MD,21842,US,https://redlightdistrictromantic.business.site/,4436642110,,2020-02-08,2020-02-08,,O,,,,
Smoke On The Water,9636 Stephen Decatur Hwy Ste 4,,Ocean City,MD,21842,US,,7075335956,,2022-05-13,2022-05-13,,H,,,,
Smoke Rings,5 2nd St,,Ocean City,MD,21842,US,,4102891204,,2020-02-20,2020-02-20,,S,,,,
Damokee Vapor,11022 Nicholas Ln Ste 3,,Ocean Pines,MD,21811,US,http://www.damokeevapor.com/,4102081326,info@damokee.com,2014-09-26,2020-01-12,Yes,V,CBD,,,
Cloud Tech Vapes,1656 Annapolis Rd,,Odenton,MD,21113,US,https://www.cloudtechvapes.com,4106745676,cloudtechvapes@gmail.com,2018-06-16,2019-06-26,,V,,,,
The Vaper's Ring,1159 Annapolis Rd Ste A,,Odenton,MD,21113,US,http://www.thevapersring.com/,4106747567,info@thevapersring.com,2019-10-27,,Yes,V,CBD,,,
Abass Vapors,9619 Reisterstown Rd,,Owings Mills,MD,21117,US,,4102057008,,2016-02-19,2019-03-08,Yes,V,CBD,,,
Discount Tobacco,4921 Indian Head Hwy,,Oxon Hill,MD,20745,US,,2402532328,,2019-09-20,,,T,,,,
Tobacco Land,6259 Livingston Rd,,Oxon Hill,MD,20745,US,,7034798278,,2019-12-14,,,S,,,,
Al Tobacco Center,1730 Taylor Ave,,Parkville,MD,21234,US,https://altobaccocenter.com/,4104975709,altobaccocenter@gmail.com,2021-11-17,,Yes,T,CBD,,,
B&B's Vape Cafe,3224 E Joppa Rd,,Parkville,MD,21234,US,http://www.bbvapecafe.com/,4106681060,,2016-09-20,2019-03-08,Yes,V,CBD,,,
Shockers,7110 Harford Rd,,Parkville,MD,21234,US,http://shockerssmokeshop.com/,4104448200,shockerssmokeshop@gmail.com,2019-01-07,,Yes,H,CBD,,,
The Smoke & Glass Shop,1746 E Joppa Rd,,Parkville,MD,21234,US,https://www.thesmokeandglassshop.com/,4106654572,thesmokeandglassshop@gmail.com,2018-10-18,2019-05-21,Yes,S,CBD,Yes,,
The Vapers' Edge,8116 Harford Rd #A,,Parkville,MD,21234,US,http://www.thevapersedge.com/,4437255251,info@thevapersedge.com,2018-09-13,,,V,,,,
Tobacco 21,2337 Cleanleigh Dr,,Parkville,MD,21234,US,,4106633738,,2021-08-31,,,S,,,,
Vape Dojo Parkville,9501 Harford Rd Ste 3,,Parkville,MD,21234,US,https://vapedojo.com/,4104975106,info@vapedojo.com,2018-08-15,2019-05-30,Yes,V,CBD,,,
410 Smoke Shop,2529 Mountain Rd,,Pasadena,MD,21122,US,https://410smokeshop.com/,4436377495,,2018-12-23,,Yes,S,CBD,,,
BS Vapes,8154 Ritchie Hwy Ste B,,Pasadena,MD,21122,US,,4107935826,,2016-04-19,2019-01-28,,V,,,,
Colorado Bound,8009 Jumpers Hole Rd Ste K,,Pasadena,MD,21122,US,http://coloradobound.net,4434101130,contact@coloradobound.net,2020-01-22,,Yes,S,CBD,,,
Planet Of The Vapes,2531 Mountain Rd,,Pasadena,MD,21122,US,http://www.planetofthevapesmaryland.com/,4108740279,planetofthevapesmd@gmail.com,2014-09-02,2019-01-27,,V,,,,
The Vaper's Knoll,3201 Mountain Rd Ste 102,,Pasadena,MD,21122,US,https://www.vapersknoll.com/,4102550445,info@vapersknoll.com,2018-08-13,2020-02-09,,V,,,,
4Ten Vapors Perryville,5301 Pulaski Hwy Ste k,,Perryville,MD,21903,US,http://www.4tenvapors.com/,4106182211,,2019-07-13,,Yes,V,CBD,,,
Pleasant Vapes,135 W Dares Beach Rd Ste 109,,Prince Frederick,MD,20678,US,https://www.pleasantvape.com,4104148273,,2015-02-27,2018-12-26,,V,,,,
Vape Jungle,50 Solomons Island Rd S,,Prince Frederick,MD,20678,US,https://www.thevapejungle.com/,4434025551,thevapejungle@gmail.com,2018-08-15,2020-02-12,Yes,V,CBD,,,
Smoke Free Nation,11100 Liberty Rd Unit N,,Randallstown,MD,21133,US,http://smokefreenationmd.com/,4107017357,mmilby@gmail.com,2018-10-24,2018-10-24,Yes,V,CBD,,,
One Flight Up Smoke Shop,56 Main St,,Reisterstown,MD,21136,US,http://www.oneflightupsmokeshop.com/,4105264411,smokesignalssmokeshop@gmail.com,2018-08-06,2019-08-07,Yes,H,CBD,,,
Stash Box,208 Main St #3,,Reisterstown,MD,21136,US,,4105171177,,2018-10-26,,,H,,,,
The Steamery,34 Main St,,Reisterstown,MD,21136,US,https://www.thesteamery.us/,4108330680,marks@thesteamery.us,2018-08-13,2020-02-09,Yes,V,CBD,,,
The Vape Shop,11712 Reisterstown Rd Ste D,,Reisterstown,MD,21136,US,http://www.vapeshopmd.com/,4108332500,info@vapeshopmd.com,2018-09-22,,Yes,V,CBD,,,
Cigar Etc,225 E Main St,,Rising Sun,MD,21911,US,,4106583969,,2019-08-08,,,S,,,,
5-10 Quick Mart,817 Hungerford Dr,,Rockville,MD,20850,US,,3012940778,,2020-09-14,2020-09-14,Yes,S,CBD,Yes,,
CBD Wellness,765 Rockville Pike unit l,,Rockville,MD,20852,US,https://shopcbdwellness.com/,3015175749,,2020-12-03,,Yes,C,CBD,,,
Georgetown Hemp,11607 Nebel Street,,Rockville,MD,20852,US,https://www.georgetownhemp.com/,8334436732,info@georgetownhemp.com,2019-12-10,2019-12-10,Yes,C,CBD,,,
Pure Virtue Glass,12112 Nebel St,,Rockville,MD,20852,US,http://www.purevirtueglass.com/,2403477873,purevirtueglass@yahoo.com,2018-08-13,2020-02-09,Yes,H,CBD,Yes,,
Vape Ink,765 Rockville Pike Ste J,,Rockville,MD,20852,US,,3013401608,,2018-08-15,2020-02-12,Yes,V,CBD,,,
Gateway Vape And Tobacco,3969 St Charles Pkwy,,Saint Charles,MD,20602,US,,2404193701,,2018-10-22,,,V,,,,
Blue Monkey Vapes,2300 N Salisbury Blvd,,Salisbury,MD,21801,US,https://bluemonkeyvapes.com/,4107490049,contactus@bluemonkeyvapes.com,2018-06-16,2019-06-26,,V,,,,
CBD Supply MD,2420 N Salisbury Blvd #9,,Salisbury,MD,21801,US,https://www.cbdsupplymd.com/,4439788149,cbdsupplymd@gmail.com,2020-08-19,,Yes,C,CBD,,,
Damokee Vapor,2002 N Salisbury Blvd Unit B,,Salisbury,MD,21802,US,http://www.damokeevapor.com/,4439787206,info@damokeevapor.com,2020-01-12,2020-12-30,Yes,V,CBD,,,
Damokee Vapor,1121 S Salisbury Blvd,,Salisbury,MD,21801,US,http://www.damokeevapor.com/,4106774719,info@damokeevapor.com,2018-08-06,2020-01-12,Yes,V,CBD,,,
NorthSide Vape,2505 N Salisbury Blvd,,Salisbury,MD,21804,US,http://northsidevape.com/,4433585921,info@northsidevape.com,2016-06-04,2019-01-11,,V,,,,
Red Light District,521 N Salisbury Blvd,,Salisbury,MD,21801,US,https://red-light-district-romantic.business.site/,4437363174,,2020-02-08,,,O,,,,
SmokeArt,1305 S Division St Ste 3,,Salisbury,MD,21804,US,,4433585515,,2019-01-07,,Yes,H,CBD,Yes,,
The Hemp Health,725 S Salisbury Blvd,,Salisbury,MD,21801,US,https://thehemphealth.com/,4106928330,,2020-12-17,,Yes,C,CBD,,,
Tokers Smoke Shop,1000 N Salisbury Blvd Ste A,,Salisbury,MD,21801,US,,4105467774,,2018-12-18,,Yes,H,CBD,Yes,,
Vape Chalet,2620 Annapolis Rd Ste I,,Severn,MD,21144,US,http://vapechalet.com/,3014988273,vapechalet@yahoo.com,2018-08-15,2019-10-04,,V,,,,
The Vaper's Ring,545 Benfield Rd,,Severna Park,MD,21146,US,http://www.thevapersring.com/,4104322140,info@thevapersring.com,2019-10-27,2019-10-27,Yes,V,CBD,,,
Mom 'n Pop's Smoke 'n Vape Shop,1019 University Blvd E Ste 102,,Silver Spring,MD,20903,US,https://mom-pops-smoke-vape-shop.business.site/,3013261309,,2022-02-10,2022-02-10,,S,,,,
Puff Puff Dragon,11263 Triangle Ln,,Silver Spring,MD,20902,US,https://www.puffpuffdragon.net/,3019336940,info@puffpuffdragon.net,2019-12-14,2019-12-14,Yes,V,CBD,,,
White Oak Tobacco,13456 New Hampshire Ave,,Silver Spring,MD,20904,US,,3013262814,,2019-01-07,,,S,,,,
Bayside Vapors,10 Creston Ln,,Solomons,MD,20688,US,,4439939965,,2019-07-22,2019-07-22,Yes,V,CBD,,,
Hemp Hills Farm CBD & Wellness,15906 Falls Rd,,Sparks Glencoe,MD,21152,US,https://sparksglencoecbd.com/,4432329158,askus@hemphillsfarm.com,2021-01-26,,Yes,C,CBD,,,
Vape Bird,356 Romancoke Rd Ste 1,,Stevensville,MD,21666,US,https://vapebird.com/,4432493216,vapebird@aol.com,2018-08-15,2020-02-11,Yes,V,CBD,,,
Discount Tobacco,1912 Liberty Rd #6,,Sykesville,MD,21784,US,,4107951177,,2019-10-30,,,T,,,,
Sunny Daze Smoke Shop,2021 Liberty Rd Ste D,,Sykesville,MD,21784,US,https://www.sunnydazesmokeshop.com/eldersburg-md,4105528581,contact@sunnydazesmokeshop.com,2021-06-30,,Yes,S,CBD,Yes,,
24 HR Tobacco & Convenience,4701 St Barnabas Rd #B,,Temple Hills,MD,20748,US,https://24-hr-tobacco-convenience.business.site/,3018996069,,2022-01-04,2022-01-04,,T,,,,
MD Vapor,224 N Church St Ste J,,Thurmont,MD,21788,US,http://www.mdvapor.us/,2402340440,mdvapor1@gmail.com,2014-09-02,2019-05-05,Yes,V,CBD,,,
Beavs Smoke Shop,1640 E Joppa Rd,,Towson,MD,21286,US,,4103377733,,2018-12-12,,Yes,H,CBD,Yes,,
CBD Effects,8635 Loch Raven Blvd,,Towson,MD,21286,US,https://cbdefx.com/,8164223339,info@cbdefx.com,2022-04-06,2022-04-25,Yes,C,CBD,,,
CBD Supply MD,8821 Orchard Tree Ln Ste A,,Towson,MD,21286,US,https://www.cbdsupplymd.com/,4107755326,cbdsupplymd@gmail.com,2020-08-19,2022-04-04,Yes,C,CBD,,,
CBD Supply MD Aberdeen,117 S Philadelphia Blvd,,Towson,MD,21286,US,https://cbdsupplyaberdeenmd.com/,4102978800,cbdsupplymd@gmail.com,2020-08-19,,Yes,C,CBD,,,
Dr. Weng Full Spectrum CBD Store & Baltimore Progressive Compassionate Care,8501 Lasalle Rd #310,,Towson,MD,21286,US,https://drweng.com/,4108211853,info@drweng.com,2020-12-25,,Yes,C,CBD,,,
GLI Smoker's Choice,4 Allegheny Ave,,Towson,MD,21204,US,,4103393400,glismokers@gmail.com,2018-10-22,2019-03-25,Yes,S,CBD,,,
J Friendly Outfitters,408 Delaware Ave,,Towson,MD,21286,US,https://jfriendly.com,4432408209,info@jfriendly.com,2019-01-07,,,H,,,,
The Other Side,22 Allegheny Ave Ste 102,,Towson,MD,21204,US,,4103379202,theotherside.towson@gmail.com,2018-11-15,,Yes,H,CBD,,,
Towson Tobacco Market,422 York Rd,,Towson,MD,21204,US,,4432757612,,2021-09-01,,,S,,,,
Towson Vaporium,903 York Rd,,Towson,MD,21204,US,,4109494229,towsonvaporium@gmail.com,2018-08-15,2020-02-11,Yes,V,CBD,,,
Tammy's Cool Things,2281 Ocean Gateway,,Trappe,MD,21673,US,http://www.coolthingsinc.com/,4104763300,ourcoolcustomers@gmail.com,2018-12-18,2020-04-15,Yes,H,CBD,Yes,,
Free Smoke Smoke Shop,14614 Main St,,Upper Marlboro,MD,20772,US,,,,2022-01-18,2022-01-18,Yes,S,CBD,Yes,,
Tobacco N Vape,5731 Crain Hwy Ste B,,Upper Marlboro,MD,20772,US,http://www.tobaconvape.com/,3015745400,your-email@your-domain.com,2018-08-15,2020-04-14,Yes,S,CBD,,,
Cigar n Vape - Waldorf,2212 Crain Hwy,,Waldorf,MD,20601,US,http://cigarnvapes.com/,3018850499,cigarnvapes@aol.com,2018-08-06,2019-09-01,Yes,S,CBD,Yes,,
L A Tobacco,3069 Leonardtown Rd,,Waldorf,MD,20601,US,,,,2022-04-12,2022-04-12,Yes,S,CBD,,,
Tobacco King & Vape King,3615 Leonardtown Rd,,Waldorf,MD,20601,US,http://tobaccoandvapekings.com/,2404192154,sale@tobaccokings.us,2018-08-22,2019-06-25,Yes,S,CBD,Yes,,
Tobacco Variety,3370 Leonardtown Rd Ste 105,,Waldorf,MD,20601,US,,3013964500,,2021-10-25,,Yes,S,CBD,Yes,,
Vape Jungle,2070 Crain Hwy,,Waldorf,MD,20601,US,https://www.thevapejungle.com/,3016455551,thevapejungle@gmail.com,2018-08-15,2020-02-12,Yes,V,CBD,,,
Sunny Daze Smoke Shop,25 E Main St,,Westminster,MD,21157,US,https://www.sunnydazesmokeshop.com/westminster-md,4432937858,contact@sunnydazesmokeshop.com,2019-10-23,2021-06-30,Yes,S,CBD,Yes,,
Victory Vaporz,471 Baltimore Blvd,,Westminster,MD,21157,US,,4432019497,,2018-08-15,2020-02-11,,V,,,,
Victory Vaporz,400 N Center St,,Westminster,MD,21157,US,,4107513730,,2018-08-15,2020-02-11,Yes,V,CBD,,,
Class 5 Vapors - White Marsh,11433 Pulaski Hwy,,White Marsh,MD,21162,US,http://www.class5vapors.com/,4433178094,class5vap0r@outlook.com,2014-09-26,2019-03-25,Yes,V,CBD,,,
Smokers Wild,5508 Ebenezer Rd,,White Marsh,MD,21162,US,http://www.smokerwild.com/,4433178324,smokerswildd@gmail.com,2018-11-21,,,S,,Yes,,