Shop Name,Address 1,Address 2,City,State/Province,Zip/Postcode,Country,Website,Phone,Email,Added,Updated,CBD,Biz Type,MJ,Kratom,Buyer name,Title
Battle Mountain Smoke Shop,710 W Front St,,Battle Mountain,NV,89820,US,https://www.battlemountainsmokeshop.com/,7756355866,,2020-02-16,2/16/2020,,T,,,,
BC Liquor,806 Buchanan Blvd #105,,Boulder City,NV,89005,US,,7028785501,bcliquor1@gmail.com,2020-06-19,,Yes,S,CBD,,,
Eric's Smoke & Gift Shop,1020 Nevada Hwy,,Boulder City,NV,89005,US,,7023860003,,2019-04-11,,,S,,,,
Your CBD Store,1408 Boulder City Pkwy,,Boulder City,NV,89005,US,https://cbdrx4u.com/find-us/nevada/boulder-city,7024456133,bouldercity0071@cbdrx4u.com,2021-06-04,,Yes,C,CBD,,,
Butts Out Vapor TOO,2200 E William St,,Carson City,NV,89701,US,http://buttsoutvapor.com,7754347323,webcontact@buttsoutvapor.com,2018-06-11,3/21/2019,,V,,,,
Carson Vape And Hookah,1951 N Carson St,,Carson City,NV,89701,US,https://www.carsonvape.com/,7758889037,carsonvape@gmail.com,2017-02-25,1/16/2019,,V,,,,
Cigarettes For Less,2182 E William St,,Carson City,NV,89701,US,https://www.cigarettesforless.com,7758833867,,2019-09-19,9/19/2019,,S,,,,
Puffs Smoke Shop,1208 N Carson St,,Carson City,NV,89701,US,https://puffscarson.com/,7758410420,puffscarson@gmail.com,2018-10-28,6/18/2021,Yes,H,CBD,Yes,,
Smoke Shop,1953 N Carson St,,Carson City,NV,89701,US,,7758825333,,2020-02-24,,Yes,S,CBD,Yes,,
The Glass Shack,1947 N Carson St,,Carson City,NV,89701,US,,7753016633,theglassshack2017@gmail.com,2020-12-02,,Yes,H,CBD,,,
Vids Vapor Supply,201 E William St,,Carson City,NV,89701,US,,7753016424,,2018-08-06,1/10/2020,Yes,V,CBD,,,
Butts Out Vapor Store,65 Silver St Ste B,,Dayton,NV,89403,US,https://www.buttsoutvapor.com/,7752460111,webcontact@buttsoutvapor.com,2014-09-23,3/21/2019,,V,,,,
Cigarette City,6 Pine Cone Rd Ste 1,,Dayton,NV,89403,US,https://www.cigarettecitynv.com/,7752460998,cigarettecity5@yahoo.com,2018-10-28,,,S,,,,
5J Music,438 S 5th St Ste 4,,Elko,NV,89801,US,https://www.5jmusic.net/,7757780484,5jmusic@frontiernet.net,2019-07-13,7/13/2019,Yes,C,CBD,,,
Elko Smoke Shop,1750 Silver Eagle Rd,,Elko,NV,89801,US,,7757771732,,2019-10-17,,Yes,T,CBD,,,
Modified Vapors,350 W Silver St Ste 300,,Elko,NV,89801,US,,7753978273,modifiedarmor@gmail.com,2016-07-12,5/3/2019,Yes,V,CBD,,,
Smokey Vibes,588 Commercial St,,Elko,NV,89801,US,https://smokey-vibes-lounge.business.site/,7757547403,smokeyvibeselko@gmail.com,2018-10-24,,Yes,V,CBD,,,
Smokey Vibes,740 E Aultman St,,Ely,NV,89301,US,,7752891535,smokeyvibeselko@gmail.com,2021-02-27,2/27/2021,Yes,V,CBD,Yes,,
Canyon Vapes - Fallon,145 S Maine St,,Fallon,NV,89406,US,,7758675289,,2019-03-25,,,V,,,,
Best Value Liquor & Smoke,41 E Main St,,Fernley,NV,89408,US,,7758356448,,2019-07-24,,,T,,,,
Fernley Liquor & Smoke,420 E Main St Ste 4,,Fernley,NV,89408,US,,7758358999,,2019-07-24,,,S,,,,
Happy Dayze Vape & Cigars,50 NV-427,,Fernley,NV,89408,US,https://happydayze.net/,7754041050,,2019-03-25,,Yes,V,CBD,,,
Hwy 420 Smoke Shop,1375 E Newlands Rd Unit 1,,Fernley,NV,89408,US,,7753023777,,2019-12-09,12/9/2019,Yes,S,CBD,,,
The SugarLeaf CBD Store,1540 US-395 N Ste 6,,Gardnerville,NV,89410,US,,7753923116,,2020-12-08,,Yes,C,CBD,,,
A1 Smoke & Vapor,55 S Valle Verde Dr Ste 205,,Henderson,NV,89012,US,,7029018388,a1vaporandecigs@gmail.com,2021-12-14,12/14/2021,Yes,S,CBD,,,
AK Smoke & Vape Shop,650 E Horizon Dr,,Henderson,NV,89015,US,https://ak-smoke-shop-vape-kratom-cbd-shop.business.site/,7028444701,,2021-12-14,12/14/2021,Yes,S,CBD,Yes,,
Anthem Smoke & Gifts,2505 Anthem Village Dr Ste G,,Henderson,NV,89052,US,http://www.gitdigi.mobi/anthem,7027788400,jrsmokeshop4@yahoo.com,2018-06-11,10/13/2018,,S,,,,
CBD American Shaman - Henderson,276 E Lake Mead Pkwy Ste B,,Henderson,NV,89015,US,https://cbdamericanshaman.com/,7026655300,minhn10@yahoo.com,2019-11-11,,Yes,C,CBD,,,
D's Mailbox and Smokeshop,716 Center St Ste 140,,Henderson,NV,89015,US,https://dsmailboxsmokeshop.business.site/,7022547264,,2022-04-07,4/7/2022,Yes,S,CBD,Yes,,
Elan CBD,4500 E Sunset Rd #4,,Henderson,NV,89014,US,https://getelancbd.com/,7024510444,business@getelancbd.com,2020-12-28,,Yes,C,CBD,,,
Elephant Vapor 4,8889 S Eastern Ave Ste 120,,Henderson,NV,89123,US,https://www.elephantvapor.com/,7022722799,,2019-10-01,,Yes,V,CBD,,,
Gibson Smoke & Gifts,55 S Gibson Rd Ste 105,,Henderson,NV,89012,US,,7025687101,,2019-11-14,,,S,,,,
Happy Daze,2249 N Green Valley Pkwy,,Henderson,NV,89014,US,,7023651235,tejindersinghrandhawa007@gmail.com,2020-08-26,,Yes,S,CBD,Yes,,
Hollywood Smokes and Vapes,1445 American Pacific Dr #100,,Henderson,NV,89074,US,,7026757500,,2018-08-06,9/27/2019,,S,,Yes,,
Lake Mead Cigars And Gifts,170 N Boulder Hwy,,Henderson,NV,89015,US,https://lakemeadcigarsandgifts.com/,7025585056,,2019-08-20,,,S,,,,
LV Smoke & Vapor - CBD Kratom Shop,615 S Green Valley Pkwy Ste 150,,Henderson,NV,89052,US,https://smokevaporkratomshop.business.site/,7029980209,,2019-05-13,,Yes,S,CBD,Yes,,
LV Smoke & Vapor 1 - CBD Kratom Shop,213 S Stephanie St Ste 100,,Henderson,NV,89012,US,https://lvsmokevaporcbdkratomshop.business.site/,7024444611,,2020-07-17,,Yes,S,CBD,Yes,,
M Smoke Shop,1636 W Warm Springs Rd,,Henderson,NV,89014,US,,7024340189,,2020-01-05,,,S,,,,
Palm Smoke & Gifts,565 College Dr #B,,Henderson,NV,89015,US,,7025686140,,2020-02-02,2/2/2020,,S,,,,
Pecos Smoke Shop,2643 Windmill Pkwy,,Henderson,NV,89074,US,,7028378939,,2019-08-16,,,S,,,,
Sin City Vapor,80 N Pecos Rd Ste J,,Henderson,NV,89074,US,https://sincityvapor.com/,7029344713,genie@sincityvapor.com,2018-08-06,1/1/2020,Yes,V,CBD,,,
SK Smoke Shop,25 W Army St,,Henderson,NV,89015,US,,7028880405,,2020-02-24,2/24/2020,,S,,,,
Smok'n Hot Vapors,278 E Lake Mead Pkwy Ste B,,Henderson,NV,89015,US,https://www.smoknhotvapors.com,7025680084,smoknhotvapors@gmail.com,2018-09-30,,,V,,,,
Smoke Shop & Mini Mart,1035 Whitney Ranch Dr #J,,Henderson,NV,89014,US,,7024332282,,2019-08-18,8/18/2019,,S,,,,
Smoke Shop 2,693 N Stephanie St,,Henderson,NV,89014,US,,7024349672,,2020-02-26,,,S,,,,
Smoke Shop 4,2835 N Green Valley Pkwy,,Henderson,NV,89014,US,,7026448855,,2020-02-26,,,S,,,,
"Smoke, Vapor, Kratom & CBD Oil",1649 W Warm Springs Rd,,Henderson,NV,89014,US,https://smoke-vapor-kratom-cbd-shop.business.site/,7024336365,,2018-08-06,12/1/2019,Yes,S,CBD,Yes,,
Smokes And Vapes,2600 N Green Valley Pkwy,,Henderson,NV,89014,US,,7026293510,,2019-08-18,6/26/2021,,S,,Yes,,
Star Smoke & Gifts,1000 N Green Valley Pkwy,,Henderson,NV,89074,US,,7025869841,,2020-09-21,,Yes,S,CBD,,,
The Healing Panda - Henderson,2530 St Rose Pkwy #130,,Henderson,NV,89074,US,https://thehealingpanda.com/,7029828080,panda@thehealingpanda.com,2020-12-03,,Yes,C,CBD,,,
Valley Smoke Shop - Vapor CBD Kratom,10960 S Eastern Ave #106,,Henderson,NV,89052,US,https://valleysmokeshop.business.site/,7028970500,,2018-08-07,1/22/2020,Yes,S,CBD,Yes,,
Vape Street Henderson,4300 E Sunset Rd Ste A4,,Henderson,NV,89014,US,https://vape-street.com/,7022092578,vapestreet@gmail.com,2018-08-06,1/6/2020,Yes,V,CBD,,,
Vapor Rage,1008 W Sunset Rd Ste 1008,,Henderson,NV,89104,US,,7025476737,nick.vaporrage@gmail.com,2018-08-06,1/8/2020,Yes,V,CBD,,,
Vegas Glass HQ/D's Smoke Shop and Gift,690 N Valle Verde Dr Ste 6,,Henderson,NV,89014,US,http://vegasglasshq.com/,7025471007,,2018-12-15,,,S,,Yes,,
Village Smoke Shop,860 S Boulder Hwy,,Henderson,NV,89015,US,,7252012323,,2019-09-28,,,S,,,,
Foothill Smoke Shop,868 Tahoe Blvd #16,,Incline Village,NV,89451,US,,7758323604,,2018-08-06,9/16/2019,,S,,Yes,,
24/7 Smoke Shope,511 E Charleston Blvd,,Las Vegas,NV,89104,US,,7025450004,karengalstyan1983@gmail.com,2019-07-12,12/11/2019,,S,,,,
4 S Smoke Shop,4555 E Charleston Blvd,,Las Vegas,NV,89104,US,,7024572829,,2019-06-10,6/10/2019,,S,,,,
808 Smokes,8174 S Las Vegas Blvd #101,,Las Vegas,NV,89123,US,https://www.808smokes.com/,7023319133,support@808smokes.com,2020-06-17,,Yes,S,CBD,Yes,,
AA Hookah Pipe & Vape,3700 S Hualapai Way #105,,Las Vegas,NV,89147,US,http://aahookahpipeandvape.com/,7029984404,tahiry165@gmail.com,2018-08-07,1/31/2019,Yes,S,CBD,Yes,,
AA Hookah Pipe & Vape,7291 S Eastern Ave # C,,Las Vegas,NV,89119,US,http://aahookahpipeandvape.com/,7025705666,aahookah99@gmail.com,2018-08-07,1/31/2019,Yes,S,CBD,Yes,,
AA Vape Kratom & CBD Shop,4414 N Rancho Dr,,Las Vegas,NV,89130,US,,7026589708,,2019-08-19,8/19/2019,Yes,S,CBD,Yes,,
Adam's Smokes & Gifts,8370 W Cheyenne Ave #100,,Las Vegas,NV,89129,US,,7023963740,,2018-09-17,,,S,,,,
American Mini Mart And Smoke,750 E Pyle Ave Ste 103,,Las Vegas,NV,89183,US,,7024740330,,2021-12-15,12/15/2021,,O,,,,
Bargain Smoke,5516 Boulder Hwy Ste 2D,,Las Vegas,NV,89122,US,,7024567577,,2019-07-22,7/22/2019,Yes,S,CBD,,,
Best Smoke Shop,860 E Twain Ave Ste 129,,Las Vegas,NV,89169,US,,7023691005,,2019-07-24,,,S,,,,
Blow Smoke & Gift + Vapor,5860 W Craig Rd Ste 120,,Las Vegas,NV,89130,US,,7029824300,,2018-10-14,10/14/2018,Yes,S,CBD,,,
Blue Diamond Vapors,7380 S Rainbow Blvd Ste 100,,Las Vegas,NV,89139,US,https://bluediamondvapors.com/,7029980625,jamie@bluediamondvapors.com,2018-06-27,7/13/2019,Yes,V,CBD,,,
Blvd Vapor,7680 S Las Vegas Blvd Ste 208,,Las Vegas,NV,89123,US,https://blvdvapor.com/,7024639788,info@blvdvapor.com,2018-01-04,2/11/2019,Yes,V,CBD,,,
Break Time Vape,6910 S Rainbow Blvd #106,,Las Vegas,NV,89103,US,https://www.breaktimevape.com/,7027768686,support@breaktimevape.com,2018-01-04,11/11/2018,,V,,,,
Bula Smoke Shop & More,5040 Spring Mountain Rd #9,,Las Vegas,NV,89146,US,,7028775900,,2019-07-24,7/24/2019,,S,,Yes,,
Buy Legal Meds,4985 W Tropicana Ave Ste 103,,Las Vegas,NV,89103,US,https://www.buylegalmeds.com/,7028624367,info@buylegalmeds.com,2020-06-22,,Yes,C,CBD,,,
Buy Legal Meds,4220 S Grand Canyon Dr Ste 6,,Las Vegas,NV,89147,US,https://www.buylegalmeds.com/,7029101279,info@buylegalmeds.com,2020-06-22,,Yes,C,CBD,,,
Cannabinoid Remedies,3380 E Russell Rd Ste 105,,Las Vegas,NV,89120,US,https://www.cbdstorelasvegas.com/,7023331669,cannabinoidremedies@gmail.com,2020-06-22,,Yes,C,CBD,,,
Carlito's Way Smoke Shop,7155 S Rainbow Blvd Ste 115,,Las Vegas,NV,89118,US,https://carlitosmokes.com/,7023315300,caleroway1@gmail.com,2019-07-02,12/20/2019,Yes,S,CBD,,,
Carlito's Way Smoke Shop,6895 E Lake Mead Blvd,,Las Vegas,NV,89156,US,,,carlitosmokes1@gmail.com,2021-07-07,7/7/2021,Yes,S,CBD,,,
Carlito's Way Smoke Shop - Bonanza,5001 E Bonanza Rd Ste 102,,Las Vegas,NV,89110,US,https://carlitosmokes.com/,7028395001,caleroway1@gmail.com,2019-07-02,12/20/2019,Yes,S,CBD,,,
Carlito's Way Smoke Shop - Nellis,1965 N Nellis Blvd,,Las Vegas,NV,89115,US,,7024525001,caleroway1@gmail.com,2019-07-02,12/20/2019,Yes,S,CBD,,,
Carlito's Way Smoke Shop - Tropicana,1087 E Tropicana Ave,,Las Vegas,NV,89119,US,https://carlitosmokes.com/,7024897459,caleroway1@gmail.com,2019-07-02,12/20/2019,Yes,S,CBD,,,
CBD American Shaman - Las Vegas,5135 S Ft Apache Rd Ste 105,,Las Vegas,NV,89148,US,https://cbdamericanshamanlv.com/,7026230657,hugoshealthandwellness@gmail.com,2019-10-28,,Yes,C,CBD,,,
CBD American Shaman - Las Vegas,3870 E Flamingo Rd #A8,,Las Vegas,NV,89121,US,http://cbdamericanshaman.com,7024444015,karlatyson2019@gmail.com,2020-05-28,,Yes,C,CBD,,,
CBD American Shaman Las Vegas - Southern Highlands,10410 S Decatur Blvd Ste 102,,Las Vegas,NV,89141,US,,7023334392,shawn@visionprotectionllc.com,2019-11-08,11/8/2019,Yes,C,CBD,,,
CBD American Shaman Summerlin,7175 W Lake Mead Blvd Ste 150,#150,Las Vegas,NV,89128,US,https://topcbdlasvegas.com,7024631888,topcbdlasvegas@gmail.com,2020-06-23,,Yes,C,CBD,,,
Cheyenne Smoke Shop,3144 N Rainbow Blvd,,Las Vegas,NV,89108,US,,7023959691,,2021-12-16,12/16/2021,Yes,S,CBD,Yes,,
Cigar Warehouse,5012 S Arville St Ste 7,,Las Vegas,NV,89118,US,https://cigarwarehouse.vegas/,8883980058,info@cigarwarehouse.vegas,2019-06-27,,,T,,,,
Cigarettes Plus Gifts,840 S Rancho Dr #10,,Las Vegas,NV,89106,US,,7024531777,,2021-12-20,12/20/2021,,S,,,,
Cigars & Smokes,7345 S Durango Dr #102,,Las Vegas,NV,89113,US,,7024576653,cigarsandsmokeslv@gmail.com,2019-08-18,9/25/2019,Yes,S,CBD,,,
Cigars & Vape,4860 Blue Diamond Rd #140,,Las Vegas,NV,89139,US,,7022696172,,2020-09-21,,Yes,S,CBD,Yes,,
Cloud Wars Vegas,4130 S Sandhill Rd #A9,,Las Vegas,NV,89121,US,https://www.cloudwarsvegas.com/,7026380881,,2018-08-06,9/8/2019,Yes,H,CBD,,,
D Smoke Shop,3711 S Valley View Blvd Ste D,,Las Vegas,NV,89103,US,http://www.dsmokeshop.com/,7023824427,smokeshop@dsmokeshop.com,2019-09-02,9/2/2019,,S,,Yes,,
D's Smoke Shop,3510 E Bonanza Rd #101,,Las Vegas,NV,89110,US,,7025310211,,2019-09-04,,,S,,,,
D's Smoke Shop Vape And Gifts,10445 Spencer St #130,,Las Vegas,NV,89183,US,https://dssmokesandvapes.com/,7026317264,,2018-10-29,10/29/2018,Yes,S,CBD,Yes,,
Dabbers Glass House,1980 S Rainbow Blvd #103,,Las Vegas,NV,89146,US,https://www.dabbersglasshouse.com/,7022480243,dabbersglasshouse@hotmail.com,2022-02-11,2/11/2022,,H,,,,
Dadhra Smoke Shop,4555 E Charleston Blvd,,Las Vegas,NV,89104,US,,7024572591,,2019-07-31,,,S,,,,
Desert LV Smoke and Vape,3375 S Decatur Blvd Ste 5,,Las Vegas,NV,89102,US,,7024875050,,2022-03-28,3/28/2022,,S,,,,
Diamond Smoke Shop,8544 Blue Diamond Rd,,Las Vegas,NV,89178,US,,7028024100,diamondss105@gmail.com,2019-11-10,,Yes,S,CBD,Yes,,
Discount Cigarette Smoke Shop,7720 S Jones Blvd #102,,Las Vegas,NV,89139,US,,7026149009,,2019-10-07,6/3/2021,,S,,,,
Discount Cigarettes and More,3830 E Flamingo Rd #C1,,Las Vegas,NV,89121,US,,7024346006,,2022-01-21,1/21/2022,,S,,,,
Discount Cigarettes Etc,7121 W Craig Rd Ste 105,,Las Vegas,NV,89129,US,https://discount-cigarettes-etc.business.site/,7023959262,,2019-07-28,7/28/2019,,S,,,,
Diversity Tattoo & Smoke Shop,2310 S Las Vegas Blvd Ste 102,,Las Vegas,NV,89104,US,http://www.diversitytattoolv.com/,7023828820,diversitytattoo702@gmail.com,2018-12-18,,,H,,,,
Diversity Tattoo & Smoke Shop,4401 N Rancho Dr,,Las Vegas,NV,89130,US,http://www.diversitytattoolv.com/,7024541300,diversitytattoo702@gmail.com,2018-10-29,,,S,,,,
E T Smoke Shop,1291 S Decatur Blvd,,Las Vegas,NV,89102,US,,7028785005,,2019-07-24,7/24/2019,Yes,S,CBD,Yes,,
Elephant Vapor,3981 E Sunset Rd Ste A,,Las Vegas,NV,89120,US,https://www.elephantvapor.com/,7022221626,,2018-08-07,1/22/2020,Yes,V,CBD,,,
Elev8ed Smoke Shop,7768 West Sahara Ave,,Las Vegas,NV,89117,US,,7257354623,elev8edsmokeshop@gmail.com,2022-03-10,3/10/2022,Yes,S,CBD,,,
Elite Smoke Shop,3242 E Desert Inn Rd,,Las Vegas,NV,89121,US,,7029828691,,2020-09-21,,Yes,S,CBD,,,
En Fuego Cigars & Lounge,328 W Sahara Ave,,Las Vegas,NV,89102,US,http://enfuegolasvegas.com/,7023849262,info@enfuegolasvegas.com,2019-06-27,,,T,,,,
Euro Market & Smoke Shop,5625 S Rainbow Blvd Ste J,,Las Vegas,NV,89118,US,,7024645022,,2020-08-19,,Yes,O,CBD,,,
Exhale Vape Shop,5137 E Owens Ave Ste 105,,Las Vegas,NV,89110,US,https://exhalevapeandwellness.com/,7023601101,exhalevnw@gmail.com,2018-08-06,9/16/2019,Yes,V,CBD,,,
EZ Smokes Plus Vapor,2250 E Tropicana Ave,,Las Vegas,NV,89119,US,,7027984255,,2018-08-06,9/16/2019,Yes,S,CBD,Yes,,
EZ Smokez,8930 S Maryland Pkwy Ste 400,,Las Vegas,NV,89123,US,https://www.ezsmokez.com/,7028264744,ezsmokez@gmail.com,2019-08-18,,Yes,S,CBD,Yes,,
Farm Smokes & Gift,8400 Farm Rd Ste 120,,Las Vegas,NV,89131,US,,7023950838,,2018-08-06,9/16/2019,,S,,,,
First Time Vape,351 E Silverado Ranch Blvd Ste 110,,Las Vegas,NV,89183,US,http://firsttimevape.com/,7024835554,info@firsttimevape.com,2018-08-06,12/21/2019,,V,,,,
Gold Rush Smoke Shop,1445 S Las Vegas Blvd,,Las Vegas,NV,89104,US,https://gold-rush-smoke-shop.business.site/,7025450605,,2019-07-28,7/28/2019,Yes,S,CBD,,,
Gold Rush Smoke Shop 3,3929 Spring Mountain Rd,,Las Vegas,NV,89102,US,https://www.goldrushsmokeshops.com/,7028000330,goldrushsmoke3@gmail.com,2022-04-19,4/19/2022,Yes,S,CBD,Yes,,
Gorilla Radio Smoke Shop,4225 S Eastern Ave #5,,Las Vegas,NV,89119,US,https://gorillaradioonline.com/,7028184400,,2018-11-08,,Yes,H,CBD,,,
Happy Daze Smoke & Vape,5051 Stewart Ave,,Las Vegas,NV,89110,US,https://happydazelv.com/,7024739289,tejindersinghrandhawa007@gmail.com,2022-03-14,4/19/2022,Yes,S,CBD,Yes,,
Hawaiian Smoke Shop,5060 Boulder Hwy Ste 120,,Las Vegas,NV,89122,US,,7023632442,,2018-08-06,9/22/2019,,S,,,,
HD Smoke Shop & Gifts,7460 W Lake Mead Blvd #5,,Las Vegas,NV,89128,US,,7029799921,,2019-07-31,7/31/2019,,S,,,,
Hello Neighbor Smoke Shop,9620 Las Vegas Blvd S Ste E-15,,Las Vegas,NV,89123,US,,7024899309,esnw.trading@gmail.com,2019-08-18,8/18/2019,,S,,,,
Hempworx,8840 W Russell Rd Ste 240,,Las Vegas,NV,89148,US,https://www.mydailychoice.com/,8888775436,support@mydailychoice.com,2020-07-05,,Yes,C,CBD,,,
High Class Hookah & Vape Shop 2,5651 S Grand Canyon Ave Ste 120,,Las Vegas,NV,89148,US,,7023315959,,2022-01-13,4/29/2022,Yes,S,CBD,Yes,,
High Class Smoke Shop,2400 S Jones Blvd #15,,Las Vegas,NV,89146,US,,7026753980,,2019-08-02,,,S,,,,
High Glass Smoke Shop,9196 W Cheyenne Ave Ste 102,,Las Vegas,NV,89129,US,,7024768840,,2022-04-29,4/29/2022,Yes,S,CBD,Yes,,
High Roller Cigar And Smoke Shop,4480 Paradise Rd,,Las Vegas,NV,89169,US,,7024373770,,2018-11-28,,Yes,S,CBD,Yes,,
House of Smokes,9890 S Maryland Pkwy Ste 15,,Las Vegas,NV,89183,US,https://houseofsmokeslv.com/,7028960340,,2018-11-14,,,H,,,,
Imperial Smoke Shop,4001 S Decatur Blvd Ste 27,,Las Vegas,NV,89103,US,https://pro-smoke-shop-vape.business.site/,7024634888,,2021-07-04,,Yes,S,CBD,,,
J P Smoke Shop,8174 S Las Vegas Blvd #104,,Las Vegas,NV,89123,US,,7027377425,,2020-08-26,,Yes,S,CBD,,,
Jack & Jill Smoke Shop,1910 Village Center Cir #4,,Las Vegas,NV,89134,US,https://jack-jill-smoke-shop.business.site/,7022288558,,2019-07-26,7/26/2019,,S,,,,
Jamez Smokes & Cigars,10144 W Flamingo Rd,,Las Vegas,NV,89147,US,,7024785507,,2022-02-07,2/7/2022,Yes,S,CBD,,,
Jass Smoke Shop,7250 S Durango Dr Ste 140,,Las Vegas,NV,89113,US,,7024403399,jasssmokeshoplv@gmail.com,2019-12-21,12/21/2019,,S,,Yes,,
Jerry's Smoke Shop,2625 E Tropicana Ave Ste D,,Las Vegas,NV,89121,US,,7029827957,,2019-08-12,8/12/2019,Yes,S,CBD,Yes,,
JJ's Market & Smoke Shop,4746 E Flamingo Rd,,Las Vegas,NV,89121,US,,7024584101,,2019-08-12,8/12/2019,,S,,,,
John Smoke Shop & Gift Shop,7575 S Rainbow Blvd #103,,Las Vegas,NV,89139,US,,7028979769,,2019-08-19,,,S,,,,
Jones Smokes & Gifts,5965 W Tropicana Ave,,Las Vegas,NV,89103,US,,7022524312,,2020-07-08,,Yes,S,CBD,,,
JR Smoke Shop,2097 N Jones Blvd,,Las Vegas,NV,89108,US,,7026319766,,2019-07-29,7/29/2019,,S,,,,
Kanabliss,800 S Casino Center Blvd,,Las Vegas,NV,89101,US,,7022026639,,2021-12-21,12/21/2021,Yes,C,CBD,,,
King Kratom - 420 Smoke Shop,1040 E Flamingo Rd Ste E,,Las Vegas,NV,89119,US,,7026375725,,2021-12-14,2/15/2022,Yes,S,CBD,Yes,,
Kratom AMLU Smoke Shop,6122 W Flamingo Rd,,Las Vegas,NV,89103,US,,7027807461,,2019-06-14,,Yes,S,CBD,Yes,,
Kratom Luam Smoke Shop,314 S Decatur Blvd,,Las Vegas,NV,89107,US,,7028700005,,2019-07-28,7/28/2019,Yes,S,CBD,Yes,,
Kratom Smoke Shop,1965 N Decatur Blvd,,Las Vegas,NV,89108,US,,7028234656,,2019-07-26,7/26/2019,,S,,Yes,,
Kush Smoke Shop,1801 E Tropicana Ave #28,,Las Vegas,NV,89119,US,,7028881408,,2019-08-12,8/12/2019,,S,,,,
KVS Smoke and Gift,6060 Boulder Hwy #3,,Las Vegas,NV,89122,US,https://kvs-smoke-and-gift.business.site/,7024056697,,2019-08-18,,,S,,,,
L & M Smoke Shop & Gifts,4990 W Craig Rd #10,,Las Vegas,NV,89130,US,,7023961720,,2019-07-26,7/26/2019,,S,,,,
Las Vegas Cigar Outlet,1560 E Sahara Ave,,Las Vegas,NV,89104,US,https://www.lasvegascigarsonline.com/,7024735440,lvcigaroutlet1@gmail.com,2019-07-02,7/2/2019,,T,,,,
Las Vegas Paiute Tribal Smoke Shop,1225 N Main St,,Las Vegas,NV,89101,US,https://lvpaiutesmokeshop.com/,7023661101,,2019-07-20,,,T,,,,
Las Vegas Smoke Shop,9128 W Sahara Ave,,Las Vegas,NV,89117,US,https://las-vegas-smoke-shop.business.site/,7023199449,,2019-07-20,7/20/2019,,S,,Yes,,
Lexa Smokes,8565 W Sahara Ave Ste 110,,Las Vegas,NV,89147,US,,7025389096,,2021-12-14,12/14/2021,Yes,S,CBD,,,
Liquid Vape House,3421 E Tropicana Ave Ste G,,Las Vegas,NV,89121,US,,7023313030,liquidvapehouse@gmail.com,2018-09-30,,,V,,,,
Liquor City,3711 S Sammy Davis Jr Dr Ste 1,,Las Vegas,NV,89109,US,,7028162400,,2019-08-18,,,S,,,,
Little Havana,2381 E Windmill Ln Ste 25,,Las Vegas,NV,89123,US,,7028960051,,2019-08-18,8/18/2019,,S,,,,
M&M Smoke Shop,3720 W Tropicana Ave,,Las Vegas,NV,89103,US,https://mm-smoke-shop.business.site/,7022092744,rmrad334@gmail.com,2019-08-18,8/18/2019,Yes,S,CBD,,,
Mom And Pops Smoke Shop,557 E Sahara Ave #110B,,Las Vegas,NV,89104,US,,7028928249,,2020-01-09,,,S,,Yes,,
Mr K Smoke Shop,5130 S Fort Apache Rd #260,,Las Vegas,NV,89148,US,,7022073500,,2019-08-18,8/18/2019,Yes,S,CBD,Yes,,
Mr Smoke Shop,4640 Paradise Rd Ste 10,,Las Vegas,NV,89169,US,https://mrsmoke-shop.business.site/,7026500875,,2019-07-28,7/28/2019,,S,,,,
Mr. Bill's Pipe & Tobacco Company,4441 W Flamingo Rd,,Las Vegas,NV,89113,US,http://www.mr-bills.com,7022219771,suzanne@mr-bills.com,2018-11-25,1/22/2020,,S,,,,
Mr. Bill's Pipe & Tobacco Company,7460 W Cheyenne Ave,,Las Vegas,NV,89129,US,https://www.mr-bills.com/,7022146840,suzanne@mr-bills.com,2020-01-22,6/30/2021,,S,,Yes,,
Mr. Bill's Pipe & Tobacco Company,8450 W Sahara Ave #113,,Las Vegas,NV,89117,US,https://www.mr-bills.com/,7023624427,suzanne@mr-bills.com,2020-01-22,,,S,,Yes,,
Mt Edge Smokes And Vapes,"7995 Blue Diamond Rd, #104",,Las Vegas,NV,89178,US,,7023317072,mtedgesandv@gmail.com,2019-11-10,,Yes,S,CBD,Yes,,
Nellis Smoke Shop,2775 S Nellis Blvd Ste B7,,Las Vegas,NV,89121,US,,7026413795,,2020-01-27,1/27/2020,,S,,Yes,,
Neon Smoke & Gift,7703 N El Capitan Way,,Las Vegas,NV,89143,US,,7023960594,,2020-01-27,,,S,,Yes,,
Nick's Smoke Shop,2675 S Eastern Ave,,Las Vegas,NV,89169,US,,7022076653,,2019-07-24,7/24/2019,,S,,,,
Nine Dragon Head Shop,5115 Spring Mountain Rd #201B,,Las Vegas,NV,89146,US,,7027968700,ninedragonheadshop@gmail.com,2018-11-23,11/23/2018,Yes,H,CBD,,,
No Limit Smoke Shop,5355 S Fort Apache Rd Ste 100,,Las Vegas,NV,89148,US,http://grimreemer.wixsite.com/nolimitsmokes,7022024911,no.limit.smokes@gmail.com,2018-11-27,9/9/2019,,S,,Yes,,
Odd Smoke Shop,3851 Pennwood Ave Ste 105,,Las Vegas,NV,89102,US,,7027780077,oddsmokeshop@gmail.com,2019-07-28,7/28/2019,Yes,S,CBD,,,
Odd Smoke Shop,5355 S Decatur Blvd,,Las Vegas,NV,89118,US,,7027784411,oddsmokeshop@gmail.com,2019-07-28,7/28/2019,Yes,S,CBD,,,
Odd Smoke Shop,4850 W Sunset Rd Ste 110,,Las Vegas,NV,89102,US,,7027784411,oddsmokeshop@gmail.com,2019-07-28,7/28/2019,Yes,S,CBD,,,
Ohms 2 Vapor,6640 N Durango Dr Ste 170,,Las Vegas,NV,89149,US,http://www.ohms2vapor.com/,7026557888,hotshotvapor@gmail.com,2018-08-06,12/30/2019,Yes,V,CBD,,,
On The Run Smoke Shop,1838 E Charleston Blvd,,Las Vegas,NV,89104,US,https://ontherunsmokeshop.com/,7027792255,h@ontherunsmokeshop.com,2020-01-26,,Yes,S,CBD,Yes,,
On The Run Smoke Shop,7315 W Warm Springs Rd Ste 120,,Las Vegas,NV,89113,US,https://ontherunsmokeshop.com/,7025705061,h@ontherunsmokeshop.com,2020-01-26,1/26/2020,Yes,S,CBD,Yes,,
On The Run Smoke Shop,8810 S Maryland Pkwy #115,,Las Vegas,NV,89123,US,https://www.ontherunsmokeshop.com/,7022721129,h@ontherunsmokeshop.com,2022-03-07,3/7/2022,Yes,S,CBD,Yes,,
One 2 Vapor,8846 S Eastern Ave #100,,Las Vegas,NV,89123,US,,7028465877,,2018-08-06,3/7/2022,,V,,,,
One Love Vapors,6814 W Cheyenne Ave,,Las Vegas,NV,89108,US,,7029014510,onelovevapors@yahoo.com,2018-08-06,12/30/2019,,V,,,,
One Stop Smoke Shop,1591 N Buffalo Dr,,Las Vegas,NV,89128,US,https://one-stop-smoke-shop-cigar-shop.business.site/,7023331888,,2022-03-07,3/7/2022,Yes,S,CBD,Yes,,
PD's Smoke Shop,3375 S Decatur Blvd Ste 5,,Las Vegas,NV,89102,US,,7024875050,,2019-07-29,7/29/2019,,S,,,,
PharmaXtracts CBD Oil,4610 S Arville St Ste C,,Las Vegas,NV,89103,US,https://pharmaxtracts-cbd.com/,7024207676,support@pharmaxtracts.com,2021-02-11,,Yes,C,CBD,,,
Phaz II,1000 N MLK Blvd #H,,Las Vegas,NV,89106,US,,7026481318,,2018-10-27,,,H,,,,
Pink Spot Vapors,6485 N Decatur Blvd Ste 180,,Las Vegas,NV,89131,US,https://pinkspotvapors.com/,7026558273,ejuice@pinkspotvapors.com,2018-08-06,12/31/2019,Yes,V,CBD,,,
Precious Tattoo Company 4,1013 E Charleston Blvd,,Las Vegas,NV,89104,US,https://www.precioussluttattoos.com/,7022670112,info@preciousslut.net,2018-11-14,1/30/2021,,O,,,,
Prime Smoke And Vape Shop,4388 E Craig Rd Ste 120,,Las Vegas,NV,89115,US,,7024634454,,2019-07-02,7/2/2019,,S,,Yes,,
Providence Smoke Shop,7181 N Hualapai Way,,Las Vegas,NV,89166,US,,7029982933,,2018-11-09,,,S,,,,
PS Smoke Shop,4825 S Rainbow Blvd #209,,Las Vegas,NV,89103,US,,7022517447,,2020-02-02,,,S,,,,
Puff N Stuff Liquor & Smoke Shop,120 E Bruner Ave #155,,Las Vegas,NV,89183,US,,7022638100,,2020-02-05,2/5/2020,Yes,S,CBD,,,
Puffs & Gifts Smoke Shop,8846 S Eastern Ave Ste 103,,Las Vegas,NV,89123,US,https://puffs-and-gifts-smoke-shop.business.site/,7027540477,naffs_puffs@yahoo.com,2019-08-18,8/18/2019,,S,,,,
R J Smoke Shop,1350 E Flamingo Rd Ste G,,Las Vegas,NV,89119,US,,7027331110,,2021-12-30,12/30/2021,Yes,S,CBD,Yes,,
Reality Vape Smoke Shop #2,3300 E Charleston Blvd,,Las Vegas,NV,89104,US,https://reality-vape-smoke-shop.business.site/,7025170327,,2019-07-29,8/2/2019,Yes,S,CBD,,,
Red Rock Smoke Shop,10300 W Charleston Blvd Ste 8,,Las Vegas,NV,89135,US,,7022402600,,2018-10-28,,,S,,,,
Red Rock Vapor,7885 W Sahara Ave Ste 103,,Las Vegas,NV,89117,US,https://www.redrockvapor.com/default.asp,7024399604,jwhite@redrockvapor.com,2018-08-06,1/1/2020,Yes,V,CBD,,,
Relax Just Vaping,7240 W Azure Dr #150,,Las Vegas,NV,89130,US,,7029176760,relaxjustvaping@gmail.com,2020-07-16,,Yes,V,CBD,,,
Rick's Smoke Shop,2595 S Maryland Pkwy Ste 105,,Las Vegas,NV,89109,US,,7027370655,,2019-08-12,8/12/2019,,S,,,,
RK Smokes and Gifts,9700 W Tropicana Ave #115,,Las Vegas,NV,89147,US,,7023626000,,2020-08-26,,Yes,S,CBD,,,
Rock & Vape,2202 W Charleston Blvd #7,,Las Vegas,NV,89106,US,,7029694206,rocknvapevegas@gmail.com,2022-04-11,4/11/2022,Yes,V,CBD,,,
Rock & Vape,6820 W Sahara Ave Ste 4,,Las Vegas,NV,89146,US,,7029813366,,2019-09-29,4/11/2022,Yes,V,CBD,,,
S K Smoke Shop,6300 W Charleston Blvd,,Las Vegas,NV,89146,US,,7028785502,,2019-07-26,7/26/2019,Yes,S,CBD,Yes,,
Sam's Vapes Smokes & Cigars,5870 S Decatur Blvd Ste 8,,Las Vegas,NV,89118,US,,7029018174,,2018-08-07,6/14/2019,Yes,S,CBD,,,
Shop and Go Smoke Shop,4225 E Sahara Ave #14,,Las Vegas,NV,89104,US,,7027499503,,2020-09-21,,Yes,S,CBD,,,
Silver State Smoke Shop,3103 N Rainbow Blvd,,Las Vegas,NV,89108,US,,7256055449,,2019-07-24,7/24/2019,,S,,Yes,,
Sin City Smoke Shop,2466 E Desert Inn Rd #E,,Las Vegas,NV,89121,US,,7028363160,,2019-07-26,7/26/2019,,S,,,,
Sin City Vapor,5025 S Eastern Ave Ste 7,,Las Vegas,NV,89119,US,https://sincityvapor.com/,7023748786,shannon@sincityvapor.com,2018-08-06,1/1/2020,Yes,V,CBD,,,
Sin City Vapor,1750 S Rainbow Blvd #2,,Las Vegas,NV,89146,US,https://sincityvapor.com/,7022347347,genie@sincityvapor.com,2018-08-06,1/1/2020,Yes,V,CBD,,,
Sin City Vapor 3,90 S Stephanie St Ste 160,,Las Vegas,NV,89012,US,https://sincityvapor.com/,7022921734,genie@sincityvapor.com,2018-09-13,,,V,,,,
Smoke & Decor,7575 Washington Ave #125,,Las Vegas,NV,89128,US,,7026555888,,2019-07-31,,,S,,,,
Smoke & Go,6365 Simmons St #145,,Las Vegas,NV,89031,US,,7023993656,,2019-07-02,8/26/2020,Yes,S,CBD,Yes,,
Smoke 4U,7435 S Eastern Ave #106,,Las Vegas,NV,89123,US,,7022604354,,2019-08-19,,,S,,,,
Smoke And Gift Shop,533 E Twain Ave,,Las Vegas,NV,89169,US,,7028624789,,2019-08-02,8/2/2019,Yes,S,CBD,,,
Smoke Chief,8020 S Rainbow Blvd Ste 120,,Las Vegas,NV,89139,US,https://smoke-chief.business.site/,7024058812,,2019-08-18,8/18/2019,,S,,,,
Smoke Factory,6130 W Charleston Blvd,,Las Vegas,NV,89146,US,,7023275745,,2018-07-24,7/29/2019,Yes,S,CBD,Yes,,
Smoke House 2,1502 N Jones Blvd,,Las Vegas,NV,89108,US,,7025450799,,2019-07-26,7/26/2019,,S,,,,
Smoke Shop,586 S Decatur Blvd,,Las Vegas,NV,89107,US,,7022580335,,2019-07-24,7/24/2019,,S,,,,
Smoke Shop,825 S Rainbow Blvd,,Las Vegas,NV,89145,US,,7023105793,,2019-07-24,,Yes,S,CBD,,,
Smoke Shop,4420 E Charleston Blvd Ste 7,,Las Vegas,NV,89104,US,,7022147310,,2020-02-25,,,S,,,,
Smoke Shop,5006 S Maryland Pkwy #8,,Las Vegas,NV,89119,US,,7024608728,,2020-02-25,2/25/2020,Yes,S,CBD,,,
Smoke Shop,861 S Rainbow Blvd,,Las Vegas,NV,89145,US,,7024797652,,2020-02-25,,Yes,S,CBD,Yes,,
Smoke Shop & Gifts,6520 E Lake Mead Blvd,,Las Vegas,NV,89156,US,,7024371441,,2020-02-26,2/26/2020,,S,,,,
Smoke Shop & Vapor Shop,9101 W Sahara Ave #101,,Las Vegas,NV,89117,US,,7026562462,,2020-03-16,1/14/2022,Yes,S,CBD,Yes,,
Smoke Shop & Vapors,3635 S Rainbow Blvd #104,,Las Vegas,NV,89103,US,,7026560788,,2021-01-06,1/6/2021,Yes,S,CBD,Yes,,
Smoke Shop And Vape,580 E Windmill Ln #125,,Las Vegas,NV,89123,US,,7026170075,,2020-08-26,8/26/2020,Yes,S,CBD,Yes,,
Smoke Shop Mail Box,3355 E Tropicana Ave,,Las Vegas,NV,89121,US,,7022130617,,2019-08-18,,,S,,,,
Smoke Shop Plus,140 S Rainbow Blvd,,Las Vegas,NV,89145,US,https://smoke-shop-plus.business.site/,7022564600,,2019-07-24,,,S,,,,
Smoke Shop Plus,7320 S Rainbow Blvd #110,,Las Vegas,NV,89139,US,,7025656009,,2019-08-20,8/20/2019,,S,,Yes,,
Smoke Shop Smoke Zone,3729 S Las Vegas Blvd,,Las Vegas,NV,89109,US,,7029454569,,2019-08-12,8/12/2019,Yes,S,CBD,,,
Smoke Vape Kratom CBD Shop,4075 S Durango Dr Ste 107,,Las Vegas,NV,89147,US,https://smoke-vape-kratom-cbd-shop.business.site/,7027496463,,2020-01-24,1/31/2020,Yes,S,CBD,Yes,,
Smoke Vapor CBD Kratom Shop,4270 Blue Diamond Rd #106,,Las Vegas,NV,89139,US,https://smokevaporcbdkratomshop.business.site/,7026140409,,2021-01-10,,Yes,S,CBD,Yes,,
Smoke Vapor Kratom CBD Shop,3250 N Tenaya Way #101,,Las Vegas,NV,89129,US,,7023955300,,2018-08-07,7/26/2019,Yes,S,CBD,Yes,,
"Smoke, Vapor, Kratom & CBD Oil",5601 N Tenaya Way #100,,Las Vegas,NV,89130,US,,7024370660,,2018-08-06,12/1/2019,Yes,S,CBD,Yes,,
Smokers Villa,8465 W Sahara Ave Ste 109,,Las Vegas,NV,89117,US,https://smokers-villa-kratom-cbd-smoke-shop.business.site/,7026310445,,2019-08-02,8/2/2019,Yes,S,CBD,Yes,,
Smokes For Less Plus,9775 S Maryland Pkwy #B,,Las Vegas,NV,89183,US,,7027546777,,2022-03-07,3/7/2022,Yes,S,CBD,Yes,,
Smokes Mart,9355 W Flamingo Rd #1,,Las Vegas,NV,89147,US,,7028183297,,2019-10-08,10/8/2019,Yes,S,CBD,,,
Smokestrom,4533 W Sahara Ave Unit F-2,,Las Vegas,NV,89102,US,https://tobaccoshoplasvegas.com/,3053546848,,2022-05-13,5/13/2022,,S,,,,
Smokey Joe's Smoke Shop,2421 N Rainbow Blvd,,Las Vegas,NV,89108,US,,7028162222,,2019-07-24,7/24/2019,,S,,Yes,,
Snow Mountain Smoke Shop,11525 Nu-Wav Kaiv Blvd,,Las Vegas,NV,89124,US,http://lvpaiutesmokeshop.com/,7026452957,jcmartinez@lvpaiute.com,2019-08-05,,,S,,,,
SNS Smoke shop,420 N Nellis Blvd Ste A2,,Las Vegas,NV,89110,US,,7023334809,,2020-09-21,,Yes,S,CBD,,,
Stay Lit,4039 W Sahara,,Las Vegas,NV,89102,US,https://www.staylitlv.com/,7252054411,sales@staylitlv.com,2022-03-17,3/17/2022,,H,,,,
Still Smoking Smoke Shop,2605 S Decatur Blvd Ste 107,,Las Vegas,NV,89102,US,http://www.stillsmokinglv.com/,7022273021,info@stillsmokinglv.com,2018-08-06,12/1/2019,Yes,S,CBD,Yes,,
Summerlin Smoke Shop,2263 N Rampart Blvd,,Las Vegas,NV,89128,US,,7025504800,,2018-11-09,11/9/2018,,S,,,,
Sunny Stop Smoke Shop,5693 S Jones Blvd #120,,Las Vegas,NV,89118,US,,7028183500,,2019-08-18,8/18/2019,,S,,,,
Sunrise Smoke Shop,5665 E Charleston Blvd Ste 129,,Las Vegas,NV,89142,US,,7022229015,,2022-03-17,3/17/2022,Yes,S,CBD,Yes,,
Super Smoke Shop,3380 E Russell Rd #110,,Las Vegas,NV,89120,US,,7025861660,,2019-08-18,8/18/2019,Yes,S,CBD,,,
T2 Smoke Shop,3333 S Maryland Pkwy #6,,Las Vegas,NV,89169,US,,,,2019-07-28,7/28/2019,Yes,S,CBD,,,
Tad Smoke Shop,6430 Sky Pointe Dr #120,,Las Vegas,NV,89131,US,,7026555888,,2020-08-26,,Yes,S,CBD,,,
Tattoos And Smoke,2300 N Rainbow Blvd Ste 111,,Las Vegas,NV,89108,US,,7252052074,tattoosandsmokelasvegas@gmail.com,2021-10-25,10/25/2021,Yes,S,CBD,,,
The Las Vegas Smoke Shop,3300 S Decatur Blvd Ste 6,,Las Vegas,NV,89102,US,,7028150112,,2019-08-02,8/2/2019,Yes,S,CBD,Yes,,
The Vapery,8060 S Rainbow Blvd Ste 105,,Las Vegas,NV,89139,US,https://thevaperylv.com/,7024855888,thevaperylv@gmail.com,2015-02-21,12/25/2018,,V,,,,
The Vapor Room,8530 W Warm Springs Rd #103,,Las Vegas,NV,89113,US,,7028441043,,2019-11-03,,Yes,V,CBD,,,
This Stuff Is Good For You,3400 W Desert Inn Rd #2,,Las Vegas,NV,89102,US,https://www.thisstuffisgoodforyou.com,7028577474,info@tsigfy.com,2020-07-19,,Yes,C,CBD,,,
Tom's Smoke Shop,4920 E Tropicana Ave #9,,Las Vegas,NV,89121,US,,7027590083,,2019-08-18,8/18/2019,Yes,S,CBD,,,
Total Tobacco,4011 S Buffalo Dr #105-B,,Las Vegas,NV,89147,US,https://total-tobacco-smoke-shop.business.site/,7022203949,,2020-09-21,,Yes,S,CBD,Yes,,
Trenton Smoke Shop,8550 W Charleston Blvd Ste 101,,Las Vegas,NV,89117,US,,7022402228,,2019-07-24,7/24/2019,,S,,,,
Tropicana Smoke Shop,6140 W Tropicana Ave Ste C3,,Las Vegas,NV,89103,US,,7022289945,,2019-08-18,8/18/2019,,S,,,,
TruVape,4059 Spring Mountain Rd,,Las Vegas,NV,89102,US,https://truvapenv.com/,7024633377,info@truvapelv.com,2018-09-20,,Yes,V,CBD,,,
TruVape,4845 S Fort Apache Rd Ste D,,Las Vegas,NV,89147,US,https://truvapenv.com/,7024784659,info@truvapelv.com,2018-09-20,,,V,,,,
TS Smoke & Vape Shop,2427 E Tropicana Ave,,Las Vegas,NV,89121,US,https://ts-smoke-shop.business.site/,7024350147,,2021-12-27,12/27/2021,Yes,S,CBD,Yes,,
Up In Smoke,4533 W Sahara Ave Ste F2,,Las Vegas,NV,89102,US,https://www.smokinglv.com/,7022020253,info@smokinglv.com,2022-02-18,2/18/2022,Yes,S,CBD,Yes,,
USA Smoke Shop & Mini Mart,9575 W Tropicana Ave #6,,Las Vegas,NV,89147,US,,7023410018,,2019-10-28,,,S,,,,
Vap O Rise,8544 Blue Diamond Rd Ste 135,,Las Vegas,NV,89178,US,https://www.vaporiselv.com/,7028322424,sales@vaporiselv.com,2018-08-06,1/5/2020,,V,,,,
Vape & Smoke,4557 W Flamingo Rd,,Las Vegas,NV,89103,US,,7029122442,,2022-01-19,1/19/2022,,S,,,,
Vape City,1025 S Rainbow Blvd,,Las Vegas,NV,89145,US,https://www.vapecty.com/,7025341399,vapecity100@gmail.com,2018-08-06,1/5/2020,Yes,V,CBD,Yes,,
Vape City,445 E Windmill Ln Ste 2F,,Las Vegas,NV,89123,US,https://vapecity.us/,7028150805,info@vapecity.us,2022-02-23,2/23/2022,Yes,S,CBD,,,
Vape Life LV,1125 S Rainbow Blvd,,Las Vegas,NV,89146,US,,7022428589,oscar@vapelifelv.com.co,2018-01-04,1/20/2019,,V,,,,
Vape NV,3155 W Craig Rd Ste 110,,Las Vegas,NV,89032,US,,7025504777,,2018-09-21,,,V,,,,
Vape Star,1717 S Decatur Blvd #B50,,Las Vegas,NV,89102,US,,7022927496,,2018-09-30,,Yes,V,CBD,,,
Vape Street,4850 W Flamingo Rd Ste 28,,Las Vegas,NV,89103,US,https://vape-street.com/,7027248244,vapestreet@gmail.com,2018-08-06,1/6/2020,Yes,V,CBD,,,
Vape Street Las Vegas 2,4632 S Maryland Pkwy Ste 8,,Las Vegas,NV,89119,US,https://vape-street.com/,7028183844,vapestreet@gmail.com,2018-08-06,1/6/2020,Yes,V,CBD,,,
Vapeco,8380 W Sahara Ave Ste 120,,Las Vegas,NV,89117,US,https://twitter.com/vapecolv,7029796000,info@vape-co.com,2018-08-06,1/6/2020,Yes,V,CBD,,,
Vapeco,7083 W Craig Rd Ste 195,,Las Vegas,NV,89129,US,https://www.vape-co.com/,7024105100,info@vape-co.com,2018-08-06,1/6/2020,Yes,V,CBD,,,
VapeX,3375 E Russell Rd Ste 1C,,Las Vegas,NV,89120,US,https://vapexlv.com/,7252065454,vapexlv@gmail.com,2021-12-28,12/28/2021,Yes,V,CBD,Yes,,
VapeX #2,2797 S Maryland Pkwy Ste 29,,Las Vegas,NV,89109,US,https://vapexlv.com/,7026400394,vapexlv@gmail.com,2021-12-28,12/28/2021,Yes,V,CBD,Yes,,
Vapor Cloud LV,2413 S Eastern Ave,,Las Vegas,NV,89104,US,https://www.vaporcloudlv.com/,7023334456,,2019-10-13,10/13/2019,,V,,,,
Vapor Rage 2,4250 S Rainbow Blvd Ste 1003,,Las Vegas,NV,89103,US,http://www.vapor-rage.com/,7027802330,nickmullen@vapor-rage.com,2019-10-07,1/8/2020,Yes,V,CBD,,,
Vegas Smoke Shop,3155 N Rancho Dr,,Las Vegas,NV,89130,US,,7023967259,,2019-07-24,7/24/2019,,S,,Yes,,
Vegas Vapor Emporium,1591 N Buffalo Dr Ste 160,,Las Vegas,NV,89128,US,http://www.vegasvaporemporium.com/,7027789600,admin@vegasvaporemporium.com,2018-09-08,3/15/2020,Yes,V,CBD,,,
Viva La Vapor Smoke & Gift,320 E Charleston Blvd Ste 101,,Las Vegas,NV,89104,US,https://www.vivalavaporsmokeandgift.com/,7029901078,vivalavapor_n_smoke@yahoo.com,2018-11-08,8/2/2019,Yes,S,CBD,Yes,,
Wisemen Smoke Shop,1452 E Charleston Blvd,,Las Vegas,NV,89104,US,,7024907803,wisemensmokeshop@gmail.com,2019-07-24,7/24/2019,Yes,S,CBD,Yes,,
Wonderland Smoke Shop,3675 S Decatur Blvd Ste 11,,Las Vegas,NV,89103,US,https://wonderlandsmokeshop.business.site/,7029161555,,2019-08-18,8/18/2019,Yes,S,CBD,Yes,,
Zee Angel Smoke Shop,1208 S Nellis Blvd,,Las Vegas,NV,89104,US,,7025316964,,2019-06-27,,,S,,,,
Zen Vapors,10430 S Decatur Blvd Ste 106,,Las Vegas,NV,89141,US,,7022633885,,2018-08-07,1/22/2020,,V,,,,
Zynn World Premium CBD,9895 S Maryland Pkwy Ste C,,Las Vegas,NV,89183,US,https://www.zynnworld.com/,7252059223,info@zynnworld.com,2020-08-26,8/26/2020,Yes,C,CBD,,,
CBD American Shaman Mesquite,355 W Mesquite Blvd Ste C70,,Mesquite,NV,89027,US,https://cbdamericanshaman.com/,7028490547,cbd.greatwest@outlook.com,2019-11-11,,Yes,C,CBD,,,
Cloud 9 Vapor Nevada,114 N Sandhill Blvd Unit G,,Mesquite,NV,89027,US,,7027034874,c9vnevadahelp@gmail.com,2019-02-04,,Yes,V,CBD,,,
OG Vape and CBD,355 W Mesquite Blvd Ste B20,,Mesquite,NV,89027,US,,7023462958,,2019-11-11,,Yes,V,CBD,,,
Shak's Smoke Shop,360 Sandhill Rd Ste B,,Mesquite,NV,89027,US,,7023452900,,2020-02-15,5/13/2022,Yes,S,CBD,Yes,,
Capital Vapor - Minden,1685 US-395 N Ste 3,,Minden,NV,89423,US,https://capitalvaporminden.com/,7753924188,info@capitalvaporminden.com,2018-06-27,7/13/2019,Yes,V,CBD,,,
Fiorra CBD,1700 County Rd Ste C,,Minden,NV,89423,US,https://www.fiorracbd.com/,7752358372,info@fiorracbd.com,2020-01-07,,Yes,C,CBD,,,
A&K Smoke Shop,655 W Craig Rd Ste 112,,North Las Vegas,NV,89032,US,,7026440553,,2019-07-02,,Yes,S,CBD,,,
AA Hookah & Vapor,4343 N Rancho Dr #148,,North Las Vegas,NV,89130,US,,7023959203,aahookah.vape@gmail.com,2018-08-07,1/31/2019,Yes,S,CBD,Yes,,
Ann Smoke Shop,3030 W Ann Rd,,North Las Vegas,NV,89031,US,,7023967155,,2019-07-02,,,S,,,,
Biggie Smoke Shop,3100 E Lake Mead Blvd Ste 4A,,North Las Vegas,NV,89030,US,,7023992406,,2019-08-18,8/18/2019,,S,,,,
BK Vape And Smoke,5725 Losee Rd Ste 125,,North Las Vegas,NV,89081,US,,7024340668,,2019-07-02,,,S,,,,
Cheyenne Smoke Shop,1366 W Cheyenne Ave,,North Las Vegas,NV,89030,US,,7023749835,,2019-08-19,8/19/2019,,S,,Yes,,
Cigars & Smokes,5546 Camino Al Norte Ste 1-4,,North Las Vegas,NV,89031,US,,7026493369,,2022-01-10,1/10/2022,Yes,S,CBD,Yes,,
Knight Smoke & Gift Shop,5960 Losee Rd #127,,North Las Vegas,NV,89081,US,,7026394438,,2019-12-26,12/26/2019,,S,,,,
L & J Smoke Shop,2755 W Cheyenne Ave #107,,North Las Vegas,NV,89032,US,https://www.ljsmokeshop.com/,7029017920,,2019-12-12,12/12/2019,,S,,,,
Lighthouse Smoke Shop,6935 N Aliante Pkwy Ste 105,,North Las Vegas,NV,89084,US,,7025150584,,2018-08-06,10/14/2019,,S,,,,
Mo's Smoke & Cigar,5585 Simmons St #4,,North Las Vegas,NV,89031,US,,7026365550,,2020-02-25,,Yes,S,CBD,,,
RD Smoke and Vapor Shop,3053 W Craig Rd Ste E,,North Las Vegas,NV,89032,US,,7026425372,,2019-07-02,8/19/2019,Yes,S,CBD,,,
S&S Smoke Shop,2235 E Cheyenne Ave,,North Las Vegas,NV,89030,US,,7024639411,,2019-05-09,,,S,,,,
Smoke Cigar & Gifts,4770 W Ann Rd,,North Las Vegas,NV,89031,US,https://smoke-cigar-gifts.business.site/,7028694439,massiv.social@gmail.com,2019-07-29,,,S,,,,
Smoke Shop Mini Mart,6462 Losee Rd Ste 115,,North Las Vegas,NV,89086,US,,7028150123,,2019-07-02,,,S,,,,
The Vapery,3000 W Ann Rd Ste 107,,North Las Vegas,NV,89031,US,https://www.thevaperylv.com/,7026753131,info@thevaperylv.com,2022-02-07,2/7/2022,Yes,V,CBD,,,
Vapeco,740 W Dorrell Ln #130,,North Las Vegas,NV,89086,US,https://www.vape-co.com/,7027785337,info@vape-co.com,2018-08-06,1/6/2020,Yes,V,CBD,,,
Vapor Town,2040 E Craig Rd Ste 103,,North Las Vegas,NV,89030,US,http://www.vaportownlv.com/,7023836888,vaportownlasvegas@gmail.com,2018-08-06,1/8/2020,Yes,V,CBD,,,
Viva Las Vapor,3930 W Craig Rd Ste 101,,North Las Vegas,NV,89032,US,https://www.vivalasvapor.com/,7029024070,viva-las-vapor@hotmail.com,2018-08-06,1/10/2020,Yes,V,CBD,,,
All About Hemp,1781 Robin St,,Pahrump,NV,89060,US,https://allabouthemp.com/,7027220867,bff@bestfriendsfarms.com,2020-11-16,12/16/2020,Yes,C,CBD,,,
Smoke Shop Express,150 NV-160,,Pahrump,NV,89048,US,,7757277620,,2020-02-27,2/27/2020,,S,,,,
A.S. Smoke Shop,4566 E Tropicana Ave,,Paradise,NV,89121,US,,7025470824,,2018-09-17,,,S,,,,
Da Babe Smoke Shop,3460 E Sunset Rd Ste S,,Paradise,NV,89120,US,,7022901832,,2022-01-20,1/20/2022,Yes,S,CBD,,,
775 Vapes,10310 N McCarran Blvd #400,,Reno,NV,89503,US,http://www.775vapes.com/,7757872155,775vapes@gmail.com,2019-07-13,,,V,,,,
Art Dogs & Grace,218 Vassar St,,Reno,NV,89502,US,http://artdogsandgracereno.com/,7753242787,artdogsreno@gmail.com,2019-01-08,1/8/2019,Yes,H,CBD,,,
CBD American Shaman of Reno,3338 S McCarran Blvd,,Reno,NV,89502,US,https://cbdamericanshaman.com/,7753768232,shop@cbdreno.com,2020-02-03,2/3/2020,Yes,C,CBD,,,
CBD American Shaman Reno,1300 E Plumb Ln Ste B2,,Reno,NV,89502,US,https://www.renoamericanshaman.com/,7754707421,shop@renoamericanshaman.com,2019-11-08,,Yes,C,CBD,,,
Cigarettes & 99 Cent Plus,501 Keystone Ave,,Reno,NV,89503,US,,,,2021-12-27,12/27/2021,,O,,,,
Cloud City Smoke & Vape Shop,2815 Northtowne Ln #1,,Reno,NV,89512,US,,7753761441,cloudcityreno@gmail.com,2021-12-30,12/30/2021,Yes,S,CBD,Yes,,
Cloud9 Liquor & Smoke,3693 Kings Row,,Reno,NV,89503,US,http://cloud9-liquor-smoke.business.site/,7756839810,,2019-08-27,,Yes,S,CBD,Yes,,
Cloud9 Vape & Smoke shop,440 E Golden Valley Rd Ste E,,Reno,NV,89506,US,,7756839909,,2021-12-30,12/30/2021,,S,,Yes,,
Enhanced Health Products CBD Store,2700 S Virginia St,,Reno,NV,89502,US,https://enhancedhealthproducts.com,8664588223,info@enhancedhealthproducts.com,2021-01-01,,Yes,C,CBD,,,
HoneyComb HideOut Smoke Shop,467 E Plumb Ln,,Reno,NV,89502,US,,7754100307,,2019-04-22,4/22/2019,,S,,,,
Knuckle Dusters Vapor,1100 E Plumb Ln Ste B,,Reno,NV,89502,US,http://www.reno-vape.com/,7754108462,kdvapes@yahoo.com,2018-08-06,12/28/2019,Yes,V,CBD,,,
Lavi's Smoke & Head Shop,743 S Virginia St,,Reno,NV,89501,US,,7757860613,,2018-11-30,,Yes,S,CBD,Yes,,
Midtown Smoke & Vape Shop,600 S Virginia St Ste E,,Reno,NV,89501,US,https://www.facebook.com/midtownsmokeshop,7755251537,midtownsmokeshopreno@gmail.com,2018-08-06,1/20/2020,Yes,S,CBD,Yes,,
Mirage Vapor,939 W Moana Ln,,Reno,NV,89509,US,http://miragevapor.com/,7758239732,,2018-08-06,12/29/2019,,V,,,,
Nevada Vapor,2900 Clear Acre Ln Ste I,,Reno,NV,89512,US,http://www.nevadavapor.com/,7754108375,info@nevadavapor.com,2018-08-06,12/30/2019,Yes,V,CBD,,,
Nevada Vapor,770 S Meadows Pkwy #102,,Reno,NV,89521,US,https://www.nevadavapor.com/,7758511182,info@nevadavapor.com,2018-08-06,12/30/2019,Yes,V,CBD,,,
One Stop Liquor And Smoke Shop,1325 W Seventh St #D,,Reno,NV,89503,US,,7757468100,,2020-02-01,,,S,,,,
Puff 'n' Stuff Smoke Shop,440 N Virginia St Ste B,,Reno,NV,89501,US,,7753227833,,2019-12-01,12/1/2019,,S,,Yes,,
Reno Smoke Shop & Head Shop,79 S Wells Ave,,Reno,NV,89502,US,http://www.renosmokeshop.com/,7753511005,smoke@renosmokeshop.com,2018-12-14,12/14/2018,,H,,Yes,,
Reno-Sparks Indian Smoke Shop,901 Golden Ln,,Reno,NV,89502,US,,7753296299,,2020-02-09,,,T,,,,
Sierra Smoke Shop #2,3652 S Virginia St Ste C4,,Reno,NV,89502,US,,7754611071,,2018-08-06,11/8/2019,,S,,,,
Slushee's Vapor Headquarters,2005 Sierra Highlands Dr Ste 123,,Reno,NV,89523,US,http://vapeslushees.com/,7754322780,vapeslushees@gmail.com,2018-08-06,1/1/2020,Yes,V,CBD,,,
Smok'n Ray's Smoke Shop,1207 Califorina Ave,,Reno,NV,89509,US,http://www.smoknrays.com,7756866585,cloper@smoknrays.com,2018-08-06,1/1/2021,Yes,S,CBD,Yes,,
Smok'n Ray's #3,319 E Moana Ln,,Reno,NV,89502,US,http://smoknrays.com/,7754532461,cloper@smoknrays.com,2018-08-06,7/6/2019,Yes,S,CBD,Yes,,
Smok'n Ray's #4,4036 Kietzke Ln,,Reno,NV,89502,US,http://smoknrays.com/,7754705024,cloper@smoknrays.com,2019-07-06,7/6/2019,Yes,S,CBD,Yes,,
Smoke N Head Shop,1155 W 4th St Ste 116,,Reno,NV,89503,US,,7753245446,,2019-12-31,,,S,,Yes,,
Sonny's Phat Smoke,1350 Stardust St A1,,Reno,NV,89503,US,,7757878615,sunny_ranu@hotmail.com,2018-08-06,8/25/2019,Yes,S,CBD,Yes,,
Still Smokin,5890 S Virginia St #4H,,Reno,NV,89502,US,,7758522944,,2019-01-14,,Yes,S,CBD,Yes,,
Sunny's E-Cigarette,915 S Wells Ave,,Reno,NV,89502,US,,7753292190,,2018-08-06,4/9/2020,,H,,Yes,,
The Melting Pot World Emporium & Smoke Shop,1049 S Virginia St,,Reno,NV,89502,US,http://www.meltingpotworldemporium.com/,7753229445,info@meltingpotworldemporium.com,2019-01-10,1/10/2019,Yes,H,CBD,Yes,,
Town Liquor and Smoke Shop,10855 Double R Blvd Ste E,,Reno,NV,89521,US,,7758531922,,2020-01-10,,,S,,,,
Yum Yums Vapor & Headshop,3652 S Virginia St Ste C4,,Reno,NV,89502,US,,7756866577,,2021-12-16,12/16/2021,Yes,S,CBD,Yes,,
Four Seasons Smoke Shop,4058 US-95,,Schurz,NV,89427,US,,7757732588,,2019-11-07,,,S,,,,
Biggest Little Vape Shop,1495 E Prater Way #101,,Sparks,NV,89434,US,https://www.biggestlittlevapeshop.com,7757374588,codydixon@dixoncode.com,2018-06-27,7/10/2019,Yes,V,CBD,,,
Biggest Little Vape Shop,1530 S Stanford Way Ste 106,,Sparks,NV,89431,US,https://www.biggestlittlevapeshop.com,7754705130,codydixon@dixoncode.com,2018-06-27,7/10/2019,Yes,V,CBD,,,
Black Rock Vapor,664 E Prater Way,,Sparks,NV,89431,US,http://www.blackrockvapor.com/,7758709212,,2019-07-25,,,V,,,,
Happy Dayze Cigar & Smoke,1700 Victorian Ave,,Sparks,NV,89431,US,https://happydayze.net/,7753588875,,2018-08-06,6/1/2019,Yes,S,CBD,Yes,,
Hippies,1921 Victorian Ave,,Sparks,NV,89431,US,,7753318554,hippiespipesandincense@yahoo.com,2019-12-01,12/1/2019,Yes,H,CBD,,,
King Vape & Head Shop,562 E Prater Way,,Sparks,NV,89431,US,https://www.wix.com/lphtml/parking,7753583333,,2019-04-29,4/29/2019,,S,,Yes,,
Linger Smoke Shop,1055 S Rock Blvd,,Sparks,NV,89431,US,,7752364420,lingersmokeshop@ggpetro.com,2020-07-09,7/9/2020,Yes,H,CBD,,,
Pyramid Vapory And Art Studio,2955 N McCarran Blvd Ste 108,,Sparks,NV,89431,US,,7755023393,pyramidvapory@gmail.com,2020-07-15,,Yes,V,CBD,,,
Recovery Vape & Custom Clothing,1203 N Rock Blvd,,Sparks,NV,89431,US,,7757410220,recoveryvape.customclothing@gmail.com,2019-12-15,11/30/2020,Yes,V,CBD,,,
Sierra Smoke Shop,56 E Glendale Ave,,Sparks,NV,89431,US,https://www.sierrasmokeshop.com/,7753569000,,2018-08-06,11/8/2019,,S,,,,
Smok'n Ray's #2,2975 Vista Blvd Ste 105,,Sparks,NV,89434,US,http://smoknrays.com/,7755015575,cloper@smoknrays.com,2018-08-06,7/6/2019,Yes,S,CBD,Yes,,
Sunny's E-Cigarette,300 Los Altos Pkwy Ste 103,,Sparks,NV,89431,US,,7753579653,,2018-08-06,4/9/2020,,V,,Yes,,
The Vapor Stop,2161 Pyramid Way,,Sparks,NV,89431,US,,7756576131,,2014-10-03,1/26/2019,,V,,,,
Yum Yum Vapor & Head Shop,1702 G St,,Sparks,NV,89431,US,,7754321206,,2018-08-07,1/22/2020,Yes,V,CBD,,,
Stateline CBD,151 Stateline Ave,,Stateline,NV,89449,US,,5306001434,,2021-01-02,,Yes,C,CBD,,,
The Tahoe Vapory,31 US-50 Ste 203,,Stateline,NV,89449,US,http://thetahoevapory.com/,7755806555,thetahoevapory@gmail.com,2019-11-04,7/19/2020,Yes,V,CBD,,,
Sun Valley Smoke Shop,5476 Sun Valley Blvd,,Sun Valley,NV,89433,US,,7756741900,,2019-10-23,,Yes,S,CBD,Yes,,
Reno-Sparks Indian Colony Smoke Shop,420 US-40 W,,Verdi,NV,89439,US,http://www.rsic.org/,7753452620,,2020-02-09,12/29/2020,,T,,,,
Wells Band Smoke Shop,451 6th St Ste 1,,Wells,NV,89835,US,,7757523443,,2019-09-13,,Yes,T,CBD,,,
Smoke Assassins,910 N Pueblo Blvd Ste B,,West Wendover,NV,89883,US,,7756643743,,2019-01-15,,Yes,H,CBD,,,
Winnemucca Vape,399 W Minor St Ste E,,Winnemucca,NV,89445,US,,7756251882,,2018-08-07,1/22/2020,Yes,V,CBD,,,