Shop Name,Address 1,Address 2,City,State/Province,Zip/Postcode,Country,Website,Phone,Email,Added,Updated,CBD,Biz Type,MJ,Kratom,Buyer name ,Title 
Burn Smoke Shop,1025 Pacific Blvd SE,,Albany,OR,97321,US,,5417912876,,2018-11-04,,,S,,,,
HighTide Pipe & Tobacco,1958 Pacific Blvd SE,,Albany,OR,97321,US,,5417917392,,2019-01-11,2019-01-11,,H,,,,
II Vape Albany,2732 Pacific Blvd SE Ste 110,,Albany,OR,97321,US,,5419812582,bobaeappa@gmail.com,2018-09-12,2021-06-14,,V,,,,
Oregon CBD Company,1989 Santiam Hwy SE,,Albany,OR,97321,US,http://www.oregoncbdco.com/,5417917714,oregoncbdcompany@gmail.com,2021-02-15,2021-02-15,Yes,C,CBD,,,
Rock N Vape,2215 Santiam Hwy SE,,Albany,OR,97321,US,https://www.rocknvape.com/,5417917313,cs@rocknvape.com,2018-08-06,2020-01-16,,V,,,,
Serenity Vapor & CBD Beaverton,18683 SW Tualatin Valley Hwy,,Aloha,OR,97006,US,http://svlounge.com/,5035444433,jordan@svlounge.com,2018-08-06,2019-11-05,Yes,V,CBD,,,
Fire and Water,1658 Siskiyou Blvd,,Ashland,OR,97520,US,https://fire-and-water-glass.business.site/,5414880870,,2018-11-24,,,S,,Yes,,
Puff's Smoke Shop,1796 Ashland St,,Ashland,OR,97520,US,,5414829253,,2018-08-06,2019-11-01,Yes,S,CBD,,,
Spativa Wellness Boutique,260 N 1st St,,Ashland,OR,97520,US,https://spativa.com/,5306433191,rana@spativa.com,2019-10-04,,Yes,C,CBD,,,
Under the Bridge Cigarettes,327 W Marine Dr,,Astoria,OR,97103,US,,5033250720,,2018-10-26,2019-10-24,,S,,,,
The Green Planet CBD,25496 OR-99 E,,Aurora,OR,97002,US,https://www.thegreenplanet.net/,5035929152,canby@thegreenplanet.net,2020-02-22,2020-12-29,Yes,C,CBD,,,
Baker City Bare Bones Smoke and Gift,815 Campbell St,,Baker City,OR,97814,US,https://baker-city-bare-bones-smoke-and-gift.business.site/,5415232733,,2020-08-15,,Yes,S,CBD,,,
Baker City Vape,1820 1st St,,Baker City,OR,97814,US,,5414031457,,2014-09-19,2019-02-25,Yes,V,CBD,,,
High Mountain Smoke Shop,1435 Campbell St,,Baker City,OR,97814,US,,5415190750,,2018-08-06,2020-01-16,Yes,S,CBD,,,
Fast Mart,980 Oregon Ave SE,,Bandon,OR,97411,US,,5413292173,,2019-11-27,,,O,,,,
Beaverton Tobacco Warehouse,12625 SW Canyon Rd,,Beaverton,OR,97005,US,,5036415950,,2021-12-16,2021-12-16,,T,,,,
Henry's Vape Beaverton,4450 SW Hall Blvd,,Beaverton,OR,97005,US,https://henrysvape.com/,5033726303,henrysecigs@gmail.com,2018-08-06,2019-12-25,Yes,V,CBD,,,
Smoke Shack,10020 SW Beaverton Hillsdale Hwy,,Beaverton,OR,97005,US,,5036051673,smokeshackbeaverton@gmail.com,2018-08-06,2020-01-17,Yes,S,CBD,Yes,,
The Hot Box,4589 SW Watson Ave,,Beaverton,OR,97005,US,http://hotboxoregon.com/,5035744057,thehotbox97005@gmail.com,2018-08-06,2020-01-17,Yes,H,CBD,,,
Tony's Smoke Shop,12400 SW Broadway St,,Beaverton,OR,97005,US,http://www.tonyssmokeshop.com/,5035970027,,2018-08-06,2020-01-17,Yes,S,CBD,Yes,,
Torched Illusions,17935 SW Tualatin Valley Hwy,,Beaverton,OR,97006,US,,5032592310,torchedillusion@yahoo.com,2019-01-11,,,H,,,,
Cosmic Depot,342 NE Clay Ave,,Bend,OR,97701,US,http://www.thecosmicdepot.com/,5413857478,cosmicdepot@msn.com,2018-08-06,2019-09-08,Yes,H,CBD,Yes,,
Hempies,2570 NE Twin Knolls Dr Ste 135,,Bend,OR,97701,US,http://www.hempies.com,5419771710,hempies@hempies.com,2019-01-03,2022-03-11,Yes,H,CBD,Yes,,
High Mountain Mist,804 NE 3rd St,,Bend,OR,97701,US,,5412416058,info@highmountainmist.com,2018-08-06,2019-11-25,Yes,V,CBD,,,
High Time Vape & Smoke,2330 NE Division St Ste1,,Bend,OR,97701,US,,4582024307,,2022-04-29,2022-04-29,Yes,S,CBD,Yes,,
Ladybug Hemp CBD,727 NE Greenwood Ave,,Bend,OR,97701,US,https://ladybughemp.com/,5413892228,info@ladybughemp.com,2021-03-04,,Yes,C,CBD,,,
News & Smokes,2139 NE 3rd St,,Bend,OR,97701,US,,5413306102,,2018-08-06,2019-06-11,,S,,,,
Smoke This,527 NE Bellevue Dr Ste 110,,Bend,OR,97701,US,https://best-price-cigarettes.business.site/,5417977076,,2019-05-13,,,T,,,,
Strictly CBD,1052 NE 3rd St,,Bend,OR,97701,US,https://strictlycbdbend.com/,5416103637,strictlycbd@gmail.com,2020-12-28,,Yes,C,CBD,,,
The Pretty Pussycat,1341 NE 3rd St,,Bend,OR,97701,US,http://www.prettypussycat.com,5413173566,mail@prettypussycat.com,2018-11-23,,,H,,,,
Main Street Skate,656 Chetco Ave,,Brookings,OR,97415,US,http://mainstreetskate.com/,5414695036,info@mainstreetskate.com,2018-12-21,,Yes,H,CBD,,,
Smoke For Less,1021 SW 1st Ave #A,,Canby,OR,97013,US,,5036512642,,2020-02-18,2020-02-18,,S,,Yes,,
Canyonville Cigars-Cigarettes,134 S Main St,,Canyonville,OR,97417,US,,5418396100,,2019-07-31,,,T,,,,
"Wild Bill's Oregon Outlet, LLC",202 N Redwood Hwy #A,,Cave Junction,OR,97523,US,,5417619084,wildbillsoffthebeach@hotmail.com,2018-10-28,,,H,,,,
Cosmic Vapor Lounge - Clackamas,16120 SE 82nd Dr,,Clackamas,OR,97015,US,http://www.cosmicvaporlounge.com/,5033057046,info@cosmicvaporlounge.com,2018-08-06,2019-04-02,,V,,,,
Beez Smoke Shop,550 Newmark Ave,,Coos Bay,OR,97420,US,http://www.beezsmokeshop.com/,5418089224,beezsmokeshop@charter.net,2019-07-22,,,S,,Yes,,
Coos Bay Fast Mart,810 Central Ave,,Coos Bay,OR,97420,US,,5418089088,,2019-11-27,,,O,,,,
Flashback Tee's,510 Newmark Ave,,Coos Bay,OR,97420,US,,5418883938,,2018-12-10,,Yes,H,CBD,Yes,,
Smoke On The Water,299 S Bayshore Dr,,Coos Bay,OR,97420,US,,5418083591,,2022-05-13,2022-05-13,,S,,,,
Vape Junkies,1165 Newmark Ave Ste D,,Coos Bay,OR,97420,US,https://www.thevapejunkies.com/,5418888866,vapejunkies@hotmail.com,2018-08-06,2019-09-27,,V,,Yes,,
Coquille Smoke Shop,399 N Central Blvd,,Coquille,OR,97423,US,,5413966365,,2019-08-28,2019-08-28,Yes,T,CBD,,,
CBD Scientific,964 NW Circle Blvd,,Corvallis,OR,97330,US,,5412073444,cbdscientific@gmail.com,2020-11-30,,Yes,C,CBD,,,
The Uprise,1110 NW Van Buren Ave,,Corvallis,OR,97330,US,http://upriseskate.com/,5417544257,upriseskating@gmail.com,2019-11-02,,,O,,,,
Valley Vapors,2319 NW 9th St,,Corvallis,OR,97330,US,,5417531144,2319vape@gmail.com,2018-08-06,2020-01-17,,V,,,,
Wild Side Smoke Shop,820 NW 9th St Ste 104,,Corvallis,OR,97330,US,,5412301394,,2018-08-06,2020-01-17,Yes,S,CBD,Yes,,
Discount Smokes & Cigarettes,178 Gateway Blvd,,Cottage Grove,OR,97424,US,,5416491284,,2019-06-13,,,S,,,,
Dallas Smoke Shop,113 E Ellendale Ave,,Dallas,OR,97338,US,https://www.instagram.com/dallassmokeshop/,5038314746,dallassmokeshopp@gmail.com,2021-05-07,,Yes,S,CBD,,,
Square One Smoke Shop,147 SW Court St,,Dallas,OR,97338,US,,5037511711,,2019-10-20,2022-03-10,Yes,S,CBD,,,
CBDlish,307 OR-224,,Estacada,OR,97023,US,https://www.cbdlish.com/,5036302020,customerservice@cbdlish.com,2020-06-29,2020-06-29,Yes,C,CBD,,,
Bree's Way,1231 Alder St,,Eugene,OR,97401,US,http://breeswayinc.com/,5413437777,breeswayinc@yahoo.com,2018-11-02,2018-11-02,,H,,,,
Cigarettes For Less,1410 W 7th Ave,,Eugene,OR,97402,US,,5416363330,,2019-09-18,,,S,,Yes,,
Classic Smoke Shop,733 OR-99 N,,Eugene,OR,97402,US,https://classic-smoke-shop.business.site/,5412468298,,2019-06-13,2019-06-13,Yes,S,CBD,Yes,,
Emerald Vapors Westside,2422 W 11th Ave,,Eugene,OR,97402,US,https://emeraldvapors.com/,5415250381,social@emeraldvapors.com,2018-08-06,2019-12-19,Yes,V,CBD,,,
GJ's Smoke Shop,4726 Royal Ave,,Eugene,OR,97402,US,,5416075677,,2018-08-06,2019-09-17,,S,,,,
Hunky Dory Pipe and Tobacco,271 W 7th Ave,,Eugene,OR,97401,US,https://hunkydorypipeandtobacco.com/,5413451853,hunkydorypipeandtobacco@yahoo.com,2018-10-27,,,S,,Yes,,
Juiced Up Vapors,905 W 7th Ave,,Eugene,OR,97402,US,,5419050899,,2018-10-18,2022-03-11,,V,,,,
Lazars Bazar,57 W Broadway,,Eugene,OR,97401,US,http://www.lazarseugene.com/,5416870139,lazarsbazar@gmail.com,2018-10-27,,,H,,Yes,,
Nephos Vape Werks,390 Coburg Rd Ste G,,Eugene,OR,97401,US,,5416544544,,2018-08-06,2020-01-16,,V,,Yes,,
Santa Clara Smoke Shop,2664 River Rd Ste B,,Eugene,OR,97404,US,http://www.santaclarasmokeshop.com/,5416545772,info@santaclarasmokeshop.com,2018-08-06,2020-01-16,Yes,S,CBD,Yes,,
Sweet Tooth Glassworks,3815 W 11th Ave Ste 100,,Eugene,OR,97402,US,https://www.sweettoothglassworks.com/,5413457777,sweettoothglass@yahoo.com,2018-11-01,2021-11-29,,H,,,,
Urban Vapors,472 W 7th Ave Ste 3,,Eugene,OR,97401,US,https://www.urbanvaporsonline.com/,5412468372,info@urbanvaporsonline.com,2019-05-28,,,V,,,,
Wild Side Smoke Shop,25 E 11th Ave,,Eugene,OR,97401,US,,5413451399,,2018-11-20,,,H,,,,
Jambo Smoke Shop,1348 Bay St,,Florence,OR,97439,US,,5419974060,jamboworldcrafts@hotmail.com,2018-08-06,2019-10-06,,H,,,,
The Glass Stash,1734 US-101,,Florence,OR,97439,US,,5419971087,theglassstash@yahoo.com,2019-05-20,,Yes,H,CBD,,,
Smoke 4 Less,3010 Pacific Ave Unit A,,Forest Grove,OR,97116,US,,5037475879,smokeforlessor@gmail.com,2020-02-17,,Yes,S,CBD,Yes,,
Magic Man Costume & Fun Shop,1867 Redwood Ave,,Grants Pass,OR,97527,US,http://www.magicmanshop.com,5419564420,magicmanfunshop@yahoo.com,2018-12-25,,Yes,H,CBD,Yes,,
Magic Man Costume & Fun Shop,216 SW G St,,Grants Pass,OR,97526,US,http://www.magicmanshop.com,5415071485,magicmanfunshop@yahoo.com,2018-12-25,,Yes,H,CBD,Yes,,
Murphy Hemp and Wellness CBD Store,405 NE F St,,Grants Pass,OR,97526,US,https://www.murphyhempcompany.com/,5417615944,sales@murphyhempcompany.com,2021-03-09,,Yes,C,CBD,,,
News & Smokes,1569 NE 6th St,,Grants Pass,OR,97526,US,http://www.newsandsmokes.com,5414793790,jennifer@minipetmart.net,2018-10-31,2021-06-19,,S,,Yes,,
Phoenix Glass Gallery at Listen Here Music,234 SW 6th St,,Grants Pass,OR,97526,US,,5414796131,lhere1@msn.com,2018-12-22,,,H,,,,
Red Eye Hut,220 SW 6th St,,Grants Pass,OR,97526,US,,5412262999,,2020-02-08,2020-02-08,,H,,Yes,,
Siskiyou Sungrown CBD,315 SE 7th St Ste D,,Grants Pass,OR,97526,US,https://www.siskiyousungrown.com/,5418461876,info@siskiyousungrown.com,2021-01-09,,Yes,C,CBD,,,
Tribal Vape,120 SW J St Ste A,,Grants Pass,OR,97526,US,http://tribalvape.com/,5419553330,sales@tribalvape.com,2018-08-06,2020-01-17,Yes,V,CBD,,,
True Nature CBD,120 Sw J St,,Grants Pass,OR,97526,US,http://www.truenaturecbd.com,5412958874,info@truenaturecbd.com,2020-07-20,,Yes,C,CBD,,,
All Stop Pipes & Tobacco,1458 NE Burnside Rd,,Gresham,OR,97030,US,http://allstoppipestobacco.wixsite.com/allstop,5035128477,,2018-06-04,2018-10-12,,T,,Yes,,
Bone's Smoke & Brew,1565 NE Division St,,Gresham,OR,97030,US,http://bones-smoke-brew.business.site/,5033289374,,2019-01-11,2019-01-11,Yes,S,CBD,,,
Cheap Charlie's Beer and Wine Superstore,79 NE Roberts Ave,,Gresham,OR,97030,US,http://thebestbottleshop.com/,5035454301,don@cheapcharlie.us,2018-11-20,,,S,,,,
Fatboy Vapors,883 NE Hogan Dr,,Gresham,OR,97030,US,http://www.fatboyvapors.com/,5039123365,gresham@fatboyvapors.com,2018-08-06,2019-12-20,,V,,,,
House of Pipes,901 SW Highland DR #F,,Gresham,OR,97080,US,http://www.houseofpipes.com/,5033289387,,2018-08-06,2019-10-01,,S,,Yes,,
Str8vaping,40 NE Division St,,Gresham,OR,97030,US,,5034895272,,2018-08-06,2020-01-17,,V,,,,
Vape Life Oregon,1240 NE Burnside Rd,,Gresham,OR,97030,US,,9712190757,,2019-11-05,2019-11-05,,V,,,,
"Your CBD Store - Gresham, OR",1119 NE Hogan Dr,,Gresham,OR,97030,US,https://cbdrx4u.com/,8662237948,cbd3507@gmail.com,2019-09-15,2019-09-15,Yes,C,CBD,,,
Tobacco Vape Center,10465 SE 82nd Ave,,Happy Valley,OR,97086,US,,9712795032,,2020-08-15,,,S,,Yes,,
Harbor Tobacco,16261 US-101 #4,,Harbor,OR,97415,US,,5414699400,,2019-11-23,2021-06-28,,S,,,,
Big Smoke,1000 S US-395 Ste D,,Hermiston,OR,97838,US,http://tbcollc.com,5415647993,vapingtbco@tbcollc.com,2018-08-06,2019-08-22,,S,,,,
Essence Emporium,1055 S Hwy 395 Ste 101,,Hermiston,OR,97838,US,,5416674184,,2018-08-06,2019-12-19,Yes,V,CBD,,,
Smoke City For Less,125 SE 4th St,,Hermiston,OR,97838,US,http://www.smokecity4less.com/,5412891300,,2018-11-04,2018-11-04,Yes,S,CBD,,,
CBD America,541 SE Baseline St,,Hillsboro,OR,97123,US,https://cbdamericas.com/,5036486013,,2021-12-15,2021-12-15,Yes,C,CBD,,,
Dr. Greenthumbz Smoke Shop,1011 SE Walnut St Ste D-1,,Hillsboro,OR,97123,US,,5037473742,dr.greenthumbz_inc@yahoo.com,2019-06-13,,,H,,Yes,,
House of Pipes,5121 SE Tualatin Valley Hwy,,Hillsboro,OR,97123,US,http://www.houseofpipes.com/,5038446622,,2018-08-06,2019-10-01,Yes,S,CBD,Yes,,
Serenity Vapor & CBD Hillsboro,1300 SW Oak Street Ste F,,Hillsboro,OR,97123,US,http://svlounge.com/,5036728273,,2019-11-05,2019-11-05,Yes,V,CBD,,,
Smoke 4 U,7432 W Baseline Rd,,Hillsboro,OR,97123,US,http://www.smoke4uvapes.com/,5036492289,smoke4uvapes@gmail.com,2018-08-06,2020-01-17,,S,,Yes,,
Pype's Palace,1205 B St,,Hood River,OR,97031,US,,5413080132,,2018-08-06,2020-01-16,,H,,,,
Bare Bones,671 W Main St,,John Day,OR,97845,US,,5415752857,nstiner@yahoo.com,2019-07-22,,,S,,,,
The Peace Pipe,9 Main St #B,,Joseph,OR,97846,US,http://josephoregonpeacepipe.com/,5414321070,josephoregonpeacepipe@gmail.com,2018-12-25,,,H,,,,
Elite Vape Station,3875 River Rd N,,Keizer,OR,97303,US,https://elitevapestation.com/,9717184227,elitesmokestation@gmail.com,2018-08-06,2019-12-19,,V,,,,
Pat's Cigs,4486 River Rd N,,Keizer,OR,97303,US,,5033903647,p.cigs@comcast.net,2019-11-27,,Yes,S,CBD,Yes,,
AYN Smoke Shop,4527 S 6th St,,Klamath Falls,OR,97603,US,https://ayn-smoke-shop.business.site/,5418872838,,2019-06-28,,,S,,,,
Cairos Smoke Shop,2387 S 6th St,,Klamath Falls,OR,97601,US,,5414176189,,2019-07-30,2019-07-30,,S,,,,
ECBlend Flavors,3255 Washburn Way Ste 6,,Klamath Falls,OR,97603,US,https://www.ecblendflavors.com/,5418872348,helpdesk@ecblend.com,2018-08-06,2019-10-03,,V,,,,
Fourmile Health,310 S 6th St,,Klamath Falls,OR,97601,US,https://www.fourmilehealth.com,5412053647,support@fourmilehealth.com,2020-11-21,,Yes,C,CBD,,,
Paradise Smoke Shop,5530 S 6th St,,Klamath Falls,OR,97603,US,,5412056252,,2019-07-03,,Yes,S,CBD,Yes,,
Pinky's Smoke Shop #2,737 Main St,,Klamath Falls,OR,97601,US,,,,2019-11-22,2021-07-04,Yes,H,CBD,,,
Puff Puff Pass,4330 S 6th St,,Klamath Falls,OR,97603,US,https://puff-puff-pass-smoke-shop-llc.business.site/,5418878098,,2020-02-06,2020-02-06,,S,,,,
Rick's Smoke Shop #1,600 Main St,,Klamath Falls,OR,97601,US,http://www.rickssmokeshop.com/,5418840313,rickssmokeshop3@gmail.com,2018-08-06,2019-06-11,,T,,,,
Rick's Smoke Shop #2,2209 Madison St,,Klamath Falls,OR,97603,US,http://www.rickssmokeshop.com/,5418840719,rickssmokeshop3@gmail.com,2018-08-06,2019-06-11,,T,,,,
Rick's Smoke Shop #3,3009 Maywood Dr,,Klamath Falls,OR,97603,US,http://www.rickssmokeshop.com/,5418846951,rickssmokeshop3@gmail.com,2018-08-06,2019-06-11,,T,,,,
What A Relief CBD's,5035 S 6th St,,Klamath Falls,OR,97603,US,,5418872775,,2020-12-11,,Yes,C,CBD,,,
Desires,1105 Washington Ave,,La Grande,OR,97850,US,http://desiresllc.com/,5419629708,desiresllc@gmail.com,2019-04-06,,Yes,H,CBD,,,
Nugget CBD - La Grande,2108 Island Ave,,La Grande,OR,97850,US,,5413049119,lagrandecbd@gmail.com,2021-02-22,,Yes,C,CBD,,,
Smokin Toys Novelties and Accessories,51456 US-97 Ste 4,,La Pine,OR,97739,US,,5415364825,smokintoys@gmail.com,2020-03-22,2020-03-22,Yes,S,CBD,Yes,,
Paradox,468 N State St,,Lake Oswego,OR,97034,US,http://www.paradoxglass.com/,5033057247,bad.fish.llc1@gmail.com,2022-02-11,2022-02-11,Yes,S,CBD,Yes,,
Blarney Brothers Smoke Emprm,995 S G St,,Lakeview,OR,97630,US,,5419474166,,2019-07-26,,,S,,,,
Northwest Freedom Vape,732 Park St,,Lebanon,OR,97355,US,,5415701701,,2014-10-10,2019-01-31,,V,,,,
Shaggy's Den,455 Weldwood Dr,,Lebanon,OR,97355,US,,5412587148,,2020-02-15,,Yes,S,CBD,Yes,,
Happy Hut,1528 NE Hwy 101,,Lincoln City,OR,97367,US,,5419968880,,2018-11-06,,,H,,Yes,,
The CBD Spot,4756 Oregon Coast Hwy,,Lincoln City,OR,97367,US,https://thecbdspot.business.site,5416141500,mike@shopcbdstore.com,2020-12-21,,Yes,C,CBD,,,
US Smoke Shop,1800 US-101 #B,,Lincoln City,OR,97367,US,,5419964300,,2019-10-17,,,S,,,,
The Pieceful Place,241 NE 5th St,,Madras,OR,97741,US,http://thepiecefulplace.com,5417777870,,2019-01-11,,,H,,,,
CM Tobacco,1220 NE Adams St #5538,,McMinnville,OR,97128,US,https://cm-tobacco.business.site/,5038839350,,2019-08-27,,,S,,,,
Gandalfs Smoke & Vape Shop,635 NE OR-99 W Ste C,,McMinnville,OR,97128,US,http://www.gandalfssmokeshop.com,5038570558,gandalfssmokeshop@gmail.com,2018-12-21,,Yes,S,CBD,Yes,,
Goo Roo Designs,8083 NE OR-99W,,McMinnville,OR,97128,US,https://www.goorooglass.com/,5034728101,gooroodesignsportland@gmail.com,2019-01-17,,Yes,H,CBD,,,
Saver-E-Smoke Vape Shop,2533 OR-99W Ste C,,McMinnville,OR,97128,US,http://saver-e-smoke-vape-shop.business.site/,9712254240,saveresmoke@hotmail.com,2018-08-06,2020-01-17,Yes,V,CBD,,,
The Happy Hut,343 NE Baker St,,McMinnville,OR,97128,US,,5034351770,,2018-11-14,2019-01-21,,H,,,,
42 Degrees,613 E Main St,,Medford,OR,97504,US,,5419732311,42degrees.info@gmail.com,2018-10-25,2018-10-25,,S,,,,
ECBlend,1600 Delta Waters Rd #101,,Medford,OR,97504,US,https://www.ecblendflavors.com/,5419732643,helpdesk@ecblend.com,2018-08-06,2019-01-16,,V,,,,
ECBlend Flavors,406 S Riverside Ave,,Medford,OR,97501,US,https://www.ecblendflavors.com/,5413939840,brentj@ecblend.com,2018-08-06,2019-10-03,,V,,,,
Magic Man Costume and Fun Shop,880 Biddle Rd,,Medford,OR,97504,US,http://www.magicmanshop.com/,5417765818,magicmanfunshop@yahoo.com,2018-12-25,,Yes,H,CBD,Yes,,
News & Smokes,1175 Court St,,Medford,OR,97501,US,http://newsandsmokes.com/,5417749271,,2020-01-28,2020-01-28,,S,,Yes,,
News & Smokes,2295 W Main St,,Medford,OR,97501,US,http://newsandsmokes.com/,5417795449,,2020-01-28,,,S,,Yes,,
News & Smokes,259 E Barnett Rd Ste C,,Medford,OR,97501,US,http://newsandsmokes.com/,5417793900,,2020-01-28,,,S,,Yes,,
Sky High Smoke N Accessories,912 S Central Ave,,Medford,OR,97501,US,http://www.skyhighpipes.com/,5416228181,info@skyhighpipes.com,2018-08-06,2019-06-21,Yes,S,CBD,Yes,,
Smokin Deals Custom Glass Smoke Shop,1246 S Riverside Ave,,Medford,OR,97501,US,http://www.smokin-deals.com/,5417678636,smokindealscustomglass@gmail.com,2018-08-06,2020-01-17,Yes,S,CBD,Yes,,
Vapor Legends,820 S Central Ave Ste B,,Medford,OR,97501,US,http://www.vaporlegends.com/,5418164097,customerservice@vaporlegends.com,2018-09-30,,,V,,,,
Victoria's Station,120 Galice Rd,,Merlin,OR,97532,US,,5414711396,,2019-09-29,2019-09-29,Yes,H,CBD,,,
Desires,15 N Columbia St,,Milton-Freewater,OR,97862,US,https://desiresllc.com/,5419389708,,2020-12-21,,Yes,H,CBD,,,
House of Pipes,17185 SE McLoughlin Blvd,,Milwaukie,OR,97267,US,http://www.houseofpipes.com/,5033056832,,2018-08-06,2019-10-01,Yes,S,CBD,Yes,,
Kimmys Market & Smoke Shop,3141 SE Harrison St,,Milwaukie,OR,97222,US,,5036532110,,2019-12-26,,Yes,S,CBD,Yes,,
Tobacco Town,16640 SE McLoughlin Blvd,,Milwaukie,OR,97267,US,https://www.tobaccotown.com/se-mcloughlin-blvd-milwaukie,5036564682,kurt-ttown@comcast.net,2022-03-15,2022-03-15,,T,,,,
Tony's Smoke Shop,16681 SE McLoughlin Blvd,,Milwaukie,OR,97267,US,http://www.tonyssmokeshop.com/,5039749530,,2018-08-06,2020-01-17,Yes,S,CBD,Yes,,
MJ's Glass & Vape,705 N Springbrook Rd Ste 102,,Newberg,OR,97132,US,,9718328192,info@mjsglassvape.com,2018-12-20,,Yes,H,CBD,Yes,,
Newberg Cigarette & Tobacco,2907 Portland Rd,,Newberg,OR,97132,US,,5035370935,,2020-01-28,,,T,,,,
Newberg Vapors,105 N Meridian St,,Newberg,OR,97132,US,https://newbergvapors.com/,5035541100,newbergvapors@gmail.com,2018-08-06,2021-12-28,Yes,V,CBD,Yes,,
A Perfect Peace,324 SW Coast Hwy Ste 101,,Newport,OR,97365,US,http://aperfectpeace.com/,5412725252,,2018-10-25,2020-01-30,Yes,H,CBD,Yes,,
Hazy Day,5417 N Coast Hwy,,Newport,OR,97365,US,http://hazy-day.com,2082517362,hazydayllc@outlook.com,2019-07-23,,Yes,H,CBD,Yes,,
Jambo World Crafts,458 SW Bay Blvd,,Newport,OR,97365,US,,5415740027,jamboworldcrafts@hotmail.com,2018-08-06,2019-10-06,,H,,,,
Newport Liquor Store,2019 N Coast Hwy,,Newport,OR,97365,US,http://www.newportwaldportliquor.com,5412655621,ashleycatalfamo@gmail.com,2018-11-02,,,T,,Yes,,
US Market,910 Oregon Coast Hwy,,Newport,OR,97365,US,,,,2022-02-21,2022-03-25,,T,,,,
A1 Smoke Shop,1590 Sherman Ave,,North Bend,OR,97459,US,,5418080586,,2019-07-15,,,S,,Yes,,
Nex Dor,2080 Public Square Ct Ste A,,North Bend,OR,97459,US,,5417564105,,2018-10-27,,,S,,,,
Smoke Break Discount Pipe & Bong Shop,1966 Sherman Ave,,North Bend,OR,97459,US,https://www.smokebreakglass.com/,5418080800,smokebreakemail@gmail.com,2019-09-10,,,H,,Yes,,
Hotbox CBD,183 E Idaho Ave,,Ontario,OR,97914,US,http://www.hotboxfarms.com/,5418895578,,2019-08-17,,Yes,C,CBD,,,
New Vizions,772 N Oregon St,,Ontario,OR,97914,US,,5418895145,,2020-01-28,,Yes,H,CBD,,,
Nugget CBD - Ontario,180 East Ln Ste 5,,Ontario,OR,97914,US,https://www.nuggetcbd.com/,5418893878,nuggetcbd@gmail.com,2019-08-16,2019-08-16,Yes,C,CBD,,,
Old School Hand Blown Glass,281 S Oregon St,,Ontario,OR,97914,US,https://oldschoolhandblownglass.com/,5418230123,oldschoolhandblownglass@gmail.com,2018-10-27,2018-11-12,Yes,H,CBD,,,
The Happy Hippy,490 East Ln Ste 8,,Ontario,OR,97914,US,http://www.thehappyhippyshop.com,5418231401,the-happy-hippy@hotmail.com,2018-11-14,2019-10-29,Yes,H,CBD,,,
The Vapor Place,253 East Lane N Ste 5,,Ontario,OR,97914,US,,5418896459,thevaporplace@yahoo.com,2018-08-06,2019-05-14,Yes,V,CBD,,,
Cigarettes Cheaper,19057 S Beavercreek Rd,,Oregon City,OR,97045,US,,5036578294,,2019-03-28,,,S,,,,
House of Pipes,502 Molalla Ave,,Oregon City,OR,97045,US,,5033426268,,2018-08-06,2021-06-10,Yes,S,CBD,Yes,,
Big Smoke,1902 SW Emigrant Ave,,Pendleton,OR,97801,US,,5412766576,,2018-08-06,2019-07-25,,S,,,,
Highly Active,318 S Main St,,Pendleton,OR,97801,US,,5412766431,,2018-08-06,2022-01-31,,H,,,,
Pandora's Box #2,28 SE Emigrant Ave,,Pendleton,OR,97801,US,,5414298785,,2019-01-17,,Yes,H,CBD,Yes,,
Thur's Smoke Shop,502 SE 16th St,,Pendleton,OR,97801,US,,5414298760,thur420@gmail.com,2019-09-24,2019-11-06,Yes,S,CBD,Yes,,
82nd Ave Tobacco & Pipe,400 SE 82nd Ave,,Portland,OR,97216,US,http://www.82ave.com/,5032559987,contact@82ave.com,2018-12-25,,,S,,Yes,,
All Stop Pipes & Tobacco,6835 N Fessenden St,,Portland,OR,97203,US,,9712550327,,2021-12-14,2021-12-14,,S,,,,
All Stop Pipes & Tobacco,14447 SE Division St,,Portland,OR,97236,US,http://allstoppipestobacco.wix.com/allstop,5039542810,,2019-07-17,2019-07-17,Yes,S,CBD,Yes,,
Atomize,1208 SE 7th Ave,,Portland,OR,97214,US,https://www.atomizepdx.com/,5038935847,ryan@atomizepdx.com,2018-10-14,2018-10-14,,V,,,,
Boneâ€™s Smoke & Brew,4339 NE Killingsworth St,,Portland,OR,97218,US,https://bones-smoke-brew.business.site/,5037197789,,2021-12-19,2021-12-19,,S,,,,
CBD American Shaman of Portland,4726 SE Hawthorne Blvd,,Portland,OR,97215,US,https://cbdamericanshaman.com/,9716787384,americanshamanofportland@gmail.com,2019-11-08,,Yes,C,CBD,,,
CBD Hemp Store,1523 SE Morrison St,,Portland,OR,97214,US,https://cbdrapid.com/,5032064060,sales@cbd-hempstore.com,2019-08-15,,Yes,C,CBD,,,
CBDlish,7037 SW Macadam Ave,,Portland,OR,97219,US,https://www.cbdlish.com/,9713392976,customerservice@cbdlish.com,2020-06-29,,Yes,C,CBD,,,
Division Vapor,2929 SE Powell Blvd Ste 2A,,Portland,OR,97220,US,http://www.divisionvapor.com/,5039638273,divisionvapor@gmail.com,2018-08-06,2019-12-15,,V,,,,
Dragon Herbarium,4638 SW Beaverton-Hillsdale Hwy,,Portland,OR,97221,US,https://www.dragonherbarium.com/,5032447049,dhinfo@dragonherbarium.com,2018-11-28,2018-11-28,Yes,H,CBD,Yes,,
Herb Stomp,3901 SE Belmont St,,Portland,OR,97214,US,https://www.herbstomp.com/,9712792505,,2018-11-30,,,H,,Yes,,
House of Pipes,925 NE Broadway St,,Portland,OR,97232,US,http://www.houseofpipes.com/,5032811618,,2018-08-06,2019-10-01,Yes,S,CBD,Yes,,
House of Pipes,11080 NW St. Helens Rd,,Portland,OR,97231,US,http://www.houseofpipes.com/,5032860777,,2018-08-06,2019-10-01,Yes,S,CBD,Yes,,
House of Pipes,7035 SE 82nd Ave,,Portland,OR,97266,US,http://www.houseofpipes.com/,9714073386,,2018-08-06,2019-10-01,Yes,S,CBD,Yes,,
KS Market & Smoke Shop,15231 SE Division St,,Portland,OR,97236,US,,5039468381,,2022-03-21,2022-03-21,Yes,S,CBD,,,
LPK Market,7320 NE Fremont St,,Portland,OR,97213,US,,5038949003,,2020-07-09,,Yes,O,CBD,Yes,,
Mary Jane's House of Glass,3619 SE Division St,,Portland,OR,97202,US,http://www.maryjaneshouseofglass.net/,5032065726,,2019-06-17,,Yes,H,CBD,Yes,,
Mary Jane's House of Glass,1425 NW 23rd Ave,,Portland,OR,97210,US,http://www.maryjaneshouseofglass.net/,5038415751,brandonbrock61@ymail.com,2018-08-06,2019-06-17,Yes,H,CBD,Yes,,
Mary Jane's House Of Glass,5425 NE 33rd Ave,,Portland,OR,97211,US,http://www.maryjaneshouseofglass.net,9712795050,,2018-08-06,2019-06-17,Yes,H,CBD,Yes,,
Mellow Mood,4119 SE Hawthorne Blvd,,Portland,OR,97214,US,https://mellowmood.com/,5032357473,mellowmoodpipes@gmail.com,2018-08-06,2019-10-22,Yes,S,CBD,Yes,,
Mellow Mood,1501 SW Broadway,,Portland,OR,97201,US,https://mellowmood.com/,5032275099,mellowmoodpipes@gmail.com,2018-08-06,2019-10-22,Yes,S,CBD,,,
New Day Market,11905 NE Halsey St Ste B,,Portland,OR,97220,US,,5034778083,,2020-07-14,,Yes,S,CBD,,,
Nomad Crossing,4526 SE Hawthorne Blvd,,Portland,OR,97214,US,,5032398009,nomadcrossing@gmail.com,2018-12-26,2022-04-04,,S,,,,
NVS Glassworks,9215 SW Beaverton Hillsdale Hwy,,Portland,OR,97225,US,https://store.nvsglassworks.com/,5032082235,ian@nvsglassworks.com,2018-08-06,2019-01-07,Yes,S,CBD,,,
NVS Glassworks,5210 SE Woodstock Blvd Ste 102,,Portland,OR,97206,US,https://store.nvsglassworks.com/,5039542741,sales@nvsglassworks.com,2018-08-06,2020-01-16,Yes,H,CBD,Yes,,
Pipes R Us,1708 N Lombard St,,Portland,OR,97217,US,,5032065252,,2018-11-24,,Yes,H,CBD,Yes,,
Puff Puff Smoke Shop,8021 SE 17th Ave,,Portland,OR,97202,US,,5038828860,puffpuffsmokeshop420@gmail.com,2018-08-06,2020-01-16,Yes,S,CBD,,,
Pype's Palace,4760 N Lombard St,,Portland,OR,97203,US,http://pypes.com,5032899298,doncollins@pypes.com,2018-11-21,,Yes,H,CBD,,,
Rich's Cigar Store,820 SW Alder St,,Portland,OR,97205,US,https://www.richscigarstore.com/,5032281700,info@richscigarstore.com,2019-06-29,2019-12-20,,T,,,,
Rich's Cigar Store,922 NW Flanders St,,Portland,OR,97209,US,https://www.richscigarstore.com/,5035955556,info@richscigarstore.com,2019-06-29,2019-12-20,Yes,T,CBD,,,
Riverside Tobacco,2 SW 3rd Ave,,Portland,OR,97204,US,,9715441200,,2020-08-15,,,S,,Yes,,
Rose City Vapesters,1410 SW 11th St Ste 104,,Portland,OR,97212,US,http://rcvapesters.com/,5038180312,info@rcvapesters.com,2018-08-06,2020-01-16,,V,,,,
Rose City Vapors,10604 NE Sandy Blvd,,Portland,OR,97220,US,http://www.rosecityvapors.com/,5412032432,marcus@rosecityvapors.com,2018-08-06,2020-01-16,Yes,V,CBD,,,
Silver Spoon,8521 SW Barbur Blvd,,Portland,OR,97219,US,,5032450489,,2018-11-08,2018-11-08,Yes,S,CBD,Yes,,
Smoke It Up,8213 N Denver Ave,,Portland,OR,97217,US,http://www.smokeituppdx.com/,5037353053,smokeituppdx@gmail.com,2018-12-21,2018-12-21,Yes,H,CBD,Yes,,
Smokers R Us,4071 NE Sandy Blvd,,Portland,OR,97212,US,,5033278276,,2018-11-08,,,S,,Yes,,
Smokers R' Us,1971 W Burnside St,,Portland,OR,97209,US,,5037195108,,2018-08-06,2020-01-17,,S,,Yes,,
Smokers Zone,16101 SE Division St,,Portland,OR,97236,US,,5039543134,smokerzonedivishonportlandor@yahoo.com,2019-10-08,,,S,,Yes,,
Still Smokin' Glass and Tobacco,12325 SE Powell Blvd,,Portland,OR,97236,US,,5037624219,,2018-12-11,2021-07-09,Yes,S,CBD,,,
The Stash Smoke Shop,17411 Southeast Mcloughlin Blvd,,Portland,OR,97267,US,http://www.stashgifts.com/,5036549199,kyle@stashgifts.com,2018-10-26,,,S,,,,
Tobacco and Food For Less,10322 NE Halsey St,,Portland,OR,97220,US,,5032531055,,2021-12-17,2021-12-17,Yes,S,CBD,Yes,,
Tobacco Town,8200 SW Barbur Blvd,,Portland,OR,97219,US,,5034529990,kurt-ttown@comcast.net,2022-03-15,2022-03-15,,T,,,,
Tobacco Town,4860 SE 82nd Ave #1,,Portland,OR,97266,US,http://tobaccotown.com/,5037717347,kurt-ttown@comcast.net,2020-03-01,2022-03-15,,T,,,,
Vape Lounge at Tobacco Land,11626 NE Sandy Blvd,,Portland,OR,97220,US,,5032064393,tobaccolandpdx@gmail.com,2018-08-06,2020-04-17,Yes,S,CBD,Yes,,
Vape Spot,224 W Burnside St,,Portland,OR,97209,US,,9712718279,,2018-08-06,2020-01-17,Yes,V,CBD,,,
Headbangers,339 N Main St,,Prineville,OR,97754,US,,5419055890,,2018-10-29,2018-10-29,Yes,H,CBD,,,
Bridgeview Tobacco Shop,29375 Washington Way,,Rainier,OR,97048,US,,5035560151,,2019-07-28,,,T,,,,
Fat Jack's Tobacco Shack,75845 Rock Crest St,,Rainier,OR,97048,US,,5035565063,,2018-11-20,,,S,,,,
Inhale Exhale Smoke & Vape,907 SW Highland Ave,,Redmond,OR,97756,US,,5419234789,info@inhaleexhalenw.com,2018-08-06,2022-05-09,Yes,S,CBD,Yes,,
Modern Botanicals,905 SW Rimrock Way Ste 102,,Redmond,OR,97701,US,https://www.modernbotanicals.net/,5415168875,,2021-03-12,,Yes,C,CBD,,,
Redmond Bare Bones,2392 S Hwy 97,,Redmond,OR,97756,US,,5415483410,,2020-08-15,,,S,,Yes,,
Tobacco Jo,909 NW 6th St,,Redmond,OR,97756,US,,5419232896,tobaccojo@gmail.com,2020-07-12,,,T,,,,
Visions Smoke Shop,421 SW 6th St,,Redmond,OR,97756,US,,5413165573,visionssmokeshop@gmail.com,2018-08-06,2020-01-17,Yes,S,CBD,Yes,,
TRMF Smokes,1898 US-101,,Reedsport,OR,97467,US,,5413616323,,2019-05-25,,Yes,S,CBD,Yes,,
The Magic Dragon,106 E Main St,,Rogue River,OR,97537,US,https://www.magicdragonrr.com/,5415821000,magicdragonrr@gmail.com,2018-11-01,2018-11-13,Yes,H,CBD,Yes,,
I'd Hit That Smokin Glass,2492 NE Stephens St,,Roseburg,OR,97470,US,http://idhitthatsmokinglass.com/,5416778653,info@idhitthatsmokinglass.com,2019-01-16,2019-08-21,Yes,H,CBD,Yes,,
News & Smokes,457 NW Garden Valley Blvd,,Roseburg,OR,97470,US,http://newsandsmokes.com/,5416731601,,2018-10-31,,,S,,,,
Smokeless Solutions by Vape Crusaders,1058 W Harvard Ave,,Roseburg,OR,97471,US,https://www.smokeless-solutions.com/,5416716888,smokelesssolutionsor@gmail.com,2018-08-06,2020-01-17,Yes,V,CBD,,,
Trader Tom's,2529 West HArvard Ave,,Roseburg,OR,97471,US,https://mosierhm.wixsite.com/tradertomsfattyglass,5413914923,,2021-12-27,2021-12-27,,H,,,,
Vape Lyfestyle,1949 SE Stephens St,,Roseburg,OR,97470,US,,5413784192,vapelyfestyle4lyfe@gmail.com,2022-01-31,2022-01-31,,V,,,,
Northwest Vapors,201 Port Ave Ste 4,,Saint Helens,OR,97064,US,http://www.nwvapors.com/,5034988273,sales@nwvapors.com,2014-09-01,2019-01-26,,V,,,,
Cigarette Outlet,2309 Lancaster Dr NE,,Salem,OR,97305,US,,5033632405,,2019-06-13,,,S,,,,
Dizzy's Smoke Shop,1051 Commercial St SE,,Salem,OR,97302,US,https://www.facebook.com/dizzyssmokeshop/,5035850050,dizzyssmokeshop@gmail.com,2018-08-06,2019-09-16,Yes,S,CBD,,,
Dizzy's Smoke Shop,4823 Commercial St SE,,Salem,OR,97302,US,,5033851564,,2019-10-20,,,S,,,,
ECBlend,1975 Lancaster Dr NE,,Salem,OR,97305,US,http://ecblend.com,5419915382,customerservice@ecblend.com,2019-01-17,,,V,,,,
Express Food Mart,5395 Commercial St SE,,Salem,OR,97306,US,https://website--4685299367990511206210-conveniencestore.business.site/,5035816717,,2019-06-13,2019-06-13,,S,,Yes,,
Habits,3345 Commercial St SE,,Salem,OR,97302,US,,5033916028,,2019-11-20,2019-11-20,,T,,Yes,,
Hall Of Strains,2585 State St,,Salem,OR,97301,US,https://highsman-house-smoke-shop-cbd-kratom.business.site/,5033831580,,2020-10-16,,Yes,H,CBD,Yes,,
I-Vape Salem,5080 Commercial St SE #160,,Salem,OR,97306,US,,9716003571,,2018-08-06,2019-12-25,,V,,,,
Leaf Life Smoke Shop,5757 Commercial St SE #110,,Salem,OR,97306,US,https://www.instagram.com/leaflife_smoke/,5039676979,leaflifesmoke@gmail.com,2020-01-18,2020-03-31,Yes,H,CBD,,,
MJ's Glass & Vape,1395 Edgewater St NW Ste 160,,Salem,OR,97304,US,,5036891046,info@mjsglassvape.com,2018-08-06,2020-01-16,Yes,H,CBD,,,
One Stop Smoke Shop,2946 Commercial St SE,,Salem,OR,97302,US,,5035841108,,2020-02-01,2020-02-01,Yes,S,CBD,Yes,,
One Stop Smoke Shop,3926 River Rd N,,Salem,OR,97303,US,,5033397631,theonestopsmokeshop101@gmail.com,2020-02-01,2020-02-01,,S,,Yes,,
Smokey's Gift Shop,2080 Lancaster Dr NE #110,,Salem,OR,97305,US,,5033397320,smokeysnovelties@yahoo.com,2018-12-03,2021-12-14,Yes,H,CBD,Yes,,
T-Zone,175 Commercial St NE,,Salem,OR,97301,US,https://www.tzone420.com/,5033634174,,2018-11-14,,Yes,H,CBD,,,
T-Zone,162 Lancaster Dr NE,,Salem,OR,97301,US,https://tzonegifts.myshopify.com/,5035811712,tzonealtstore@hotmail.com,2018-11-14,2020-07-17,Yes,H,CBD,,,
T-Zone,3109 River Rd N,,Salem,OR,97303,US,http://www.tzonegifts.com,5034631711,,2018-11-14,,,H,,,,
The Bong Smoke Shop,225 Lancaster Dr SE,,Salem,OR,97317,US,,5035855383,thebongsmokeshop@gmail.com,2019-10-25,2019-10-25,,H,,,,
The Tobacco Pouch,1599 Edgewater St NW,,Salem,OR,97304,US,,5035888060,,2020-06-15,,Yes,S,CBD,,,
Valley Vapors,2927 Broadway St NE Ste 175,,Salem,OR,97303,US,,5039915938,thevalleyvapors@gmail.com,2014-08-30,2019-01-28,,V,,,,
Valley Vapors,1071 Commercial St SE,,Salem,OR,97302,US,,9712730478,thevalleyvapors@gmail.com,2018-08-06,2020-01-17,,V,,,,
Scappoose Smoke Shop,52507 Columbia River Hwy,,Scappoose,OR,97056,US,,5035437900,,2018-11-14,,,S,,,,
Gandalfs Smoke & Vape Seaside,111 Broadway Ste 14,,Seaside,OR,97138,US,https://www.gandalfssmokeshop.com,5037397378,gandalfhimself@gmail.com,2022-04-13,2022-04-13,Yes,S,CBD,Yes,,
Seaside Smoke and Vape shop,575 S Roosevelt Dr Ste B,,Seaside,OR,97138,US,,5037389610,,2019-05-10,,Yes,S,CBD,Yes,,
Seaside Tobacco Outlet,1535 S Roosevelt Dr #2,,Seaside,OR,97138,US,https://www.seasideoutlets.com/,5037179197,seasidetobacco@hotmail.com,2018-11-14,,,S,,,,
Liquivana Vape Shop,213 Oak St,,Silverton,OR,97381,US,https://www.liquivana.com/,5038744486,sales@liquivana.com,2018-08-06,2020-01-16,,V,,,,
Cigarettes For Less,1887 Pioneer Pkwy E,,Springfield,OR,97477,US,http://www.cigarettesforlessor.com/,5417478421,thornhillsharyl@gmail.com,2018-10-18,2018-10-18,,S,,,,
Eazy A Smoke Shop,5507 Main St,,Springfield,OR,97478,US,,5413936603,,2019-10-03,,Yes,S,CBD,Yes,,
Emerald Vapors Springfield,776 Q St,,Springfield,OR,97477,US,https://emeraldvapors.com/,5415250381,social@emeraldvapors.com,2018-08-06,2019-12-19,Yes,V,CBD,,,
Oregon Vape Society,1285 Main St,,Springfield,OR,97477,US,,5419463244,,2019-05-06,,Yes,V,CBD,Yes,,
Underground E-Juice,103 S 21st St,,Springfield,OR,97477,US,,5415548687,,2022-02-18,2022-02-18,Yes,V,CBD,,,
Vape Game,2321 Olympic St,,Springfield,OR,97477,US,https://vape-game.com,5415059265,info@vape-game.com,2018-08-06,2020-01-05,,V,,,,
"Vapor Headquarters, LLC",3831 Main St Ste 202,,Springfield,OR,97478,US,,5413575300,vaporheadquarters@yahoo.com,2018-09-19,,,V,,,,
Tobacco World,335 S Columbia River Hwy,,St Helens,OR,97051,US,,5033664338,,2020-01-14,,,S,,Yes,,
Stayton Valley Vapors,863 N 1st St,,Stayton,OR,97383,US,,5039790040,,2016-04-02,2019-01-08,,V,,,,
Magic Mushroom/Oregon Gifts,133 Westwood St,,Sutherlin,OR,97479,US,,5414597481,magicmushroomlamp@yahoo.com,2019-10-23,,Yes,H,CBD,,,
Silver Lining Vape Shop,150 Main St,,Sweet Home,OR,97386,US,http://silverliningvapeshop.com/,5413670279,silverliningvapeshop@gmail.com,2018-09-30,2021-05-12,Yes,V,CBD,,,
SONA CBD,160 N Pacific Hwy #3,,Talent,OR,97540,US,https://sonacbd.com/,5418970441,support@sonacbd.com,2021-01-04,,Yes,C,CBD,,,
MsFitz Store Inc.,320 E 2nd St,,The Dalles,OR,97058,US,,5412960118,,2018-08-06,2020-01-16,,H,,,,
Sasquatch Smoke Shop & Vape Supply,802 Chenowith St,,The Dalles,OR,97058,US,,5417690424,sasquatchthedalles@gmail.com,2020-08-15,,Yes,S,CBD,,,
All Stop Pipes & Tobacco,12215 SW Main St,,Tigard,OR,97223,US,http://allstoppipestobacco.wixsite.com/allstop,5037472379,,2018-06-04,2018-10-12,,T,,Yes,,
Green Light District,11606 SW Pacific Hwy Ste 200,,Tigard,OR,97223,US,http://www.gldsmokeshop.com,5036240420,,2018-12-06,,Yes,H,CBD,Yes,,
Highline Vapors,13185 SW Pacific Hwy Ste B3,,Tigard,OR,97223,US,,5037464483,highline.vapors@gmail.com,2018-08-06,2019-12-25,,V,,,,
Mary Jane's House of Glass,17937 SW McEwan Rd,,Tigard,OR,97224,US,http://www.maryjaneshouseofglass.net/,5037467522,brandonbrock61@ymail.com,2018-08-06,2019-06-17,Yes,H,CBD,Yes,,
Serenity Vapor & CBD,13815 SW Pacific Hwy,,Tigard,OR,97223,US,http://svlounge.com/,5036208273,,2018-08-06,2019-11-05,Yes,V,CBD,,,
Torched illusions,12963 SW Pacific Hwy,,Tigard,OR,97223,US,,5034305140,,2018-08-06,2020-01-17,,H,,Yes,,
Smoke 4 Less,2207 N Hwy 101,,Tillamook,OR,97141,US,,5038152902,,2020-02-17,,,S,,,,
Henry's Vape Tualatin,7995 SW Seneca St,,Tualatin,OR,97062,US,https://henrysvape.com/,5035636829,henrysecigs@gmail.com,2018-08-06,2019-12-25,Yes,V,CBD,,,
Cigarette Store,1580 6th St,,Umatilla,OR,97882,US,,5419225534,,2019-09-03,,Yes,T,CBD,,,
Pandora's Box,1300 6th St,,Umatilla,OR,97882,US,,5093969700,,2019-01-17,2019-01-17,Yes,H,CBD,Yes,,
Waldport Liquor Store,235 US-101,,Waldport,OR,97394,US,http://www.newportwaldportliquor.com,5415633727,ashleycatalfamo@gmail.com,2018-11-02,,,T,,Yes,,
Harbor St Cigarettes & More,1677 E Harbor St,,Warrenton,OR,97146,US,,5038612511,,2019-11-23,2019-11-23,,S,,,,
Bayview Liquor and More,327 Nehalem Blvd,,Wheeler,OR,97147,US,,5033684906,,2021-12-16,2021-12-16,Yes,O,CBD,,,
ECBlend,8336 Crater Lake Hwy,,White City,OR,97503,US,https://www.ecblendflavors.com/,5418790480,,2018-08-06,2019-01-16,,V,,,,
Smoke Point,7580 OR-62,,White City,OR,97503,US,,5418790396,,2018-11-04,2020-02-20,Yes,S,CBD,,,
House of Pipes,8750 SW Citizens Dr Ste F,,Wilsonville,OR,97070,US,http://www.houseofpipes.com/,5035821358,,2018-08-06,2019-10-01,Yes,S,CBD,Yes,,
Paradox,8229 SW Wilsonville Rd #C,,Wilsonville,OR,97070,US,http://www.paradoxglass.com/,5038554025,bad.fish.llc1@gmail.com,2018-08-06,2018-10-29,Yes,H,CBD,Yes,,
Hometown Liquor & Company Store,390 SW W Douglas Blvd,,Winston,OR,97496,US,http://hometownliquorwinstonor.com/,5416797925,,2019-12-02,,,S,,,,
House of Pipes,1537 Mt Hood Ave #109,,Woodburn,OR,97071,US,http://www.houseofpipes.com/,5039810281,houseofpipeswoodburn@yahoo.com,2018-08-06,2019-10-01,Yes,S,CBD,Yes,,
Paradox,1585 N Pacific Hwy Ste K,,Woodburn,OR,97071,US,http://www.paradoxglass.com/,5039809449,bad.fish.llc1@gmail.com,2018-10-29,2022-02-11,Yes,S,CBD,Yes,,
Red Barn Hemp,33814 S Meridian Rd,,Woodburn,OR,97071,US,https://redbarnhemp.com/,5036342580,info@redbarnhemp.com,2021-02-04,,Yes,C,CBD,,,
Woodburn Market/Smoke Shop,398 N Pacific Hwy,,Woodburn,OR,97071,US,,5039824552,woodnurn.market@gmail.com,2019-09-09,2019-09-09,Yes,S,CBD,Yes,,