Shop Name,Address 1,Address 2,City,State/Province,Zip/Postcode,Country,Website,Phone,Email,Added,Updated,CBD,Biz Type,MJ,Kratom,Buyer name ,Title 
Allston Market,169 Harvard Ave,,Allston,MA,2134,US,,6177837180,allstonmarket@gmail.com,2018-12-19,2020-01-30,,S,,,,
Buried Treasures,377 Cambridge St,,Allston,MA,2134,US,https://www.buriedtreasuresboston.com/,6177821918,,2018-10-27,,Yes,H,CBD,Yes,,
Fast Eddie's Smoke Shop,6A Glenville Ave,,Allston,MA,2134,US,,6177195824,,2018-10-22,2018-11-11,,S,,,,
Exscape Smoke Shop,96 N Pleasant St,,Amherst,MA,1002,US,http://exscapesmoke.com/,4138350121,,2018-10-22,,,S,,,,
Wild Side Smoke Shop,332 College St,,Amherst,MA,1002,US,,4132303936,,2019-01-01,,Yes,H,CBD,,,
"Your CBD Store - Arlington, MA",460 Massachusetts Ave,,Arlington,MA,34266,US,https://cbdrx4u.com/,7814008888,arlington444@cbdrx4u.com,2019-09-13,2019-09-13,Yes,C,CBD,,,
Nostalgic N More,75 Pleasant St,,Attleboro,MA,2703,US,http://www.nostalgicnmore.com/,5084550534,nostalgicnmorefb64@comcast.net,2018-07-24,2019-07-30,,S,,,,
Puffins Smoke Shop,693 Washington St,,Attleboro,MA,2703,US,http://www.puffinssmokeshop.com/,5086395754,puffinssmokeshop@gmail.com,2020-02-06,2020-02-06,Yes,H,CBD,Yes,,
South Side Variety,173 Westminster Ave Unit 2,,Attleboro,MA,2703,US,https://south-side-variety-store.business.site/,5083996760,,2020-08-18,,,S,,,,
Jack's Vape & Smoke,567 Southbridge St,,Auburn,MA,1501,US,https://www.jacksvarietyandvape.com/,5088324226,jacksvariety@aol.com,2018-09-30,,,V,,,,
CBD Releaf Center,421 Pulaski Blvd,,Bellingham,MA,2019,US,https://mycbdreleafcenter.com/,7744606084,releafcenter1@gmail.com,2020-07-16,,Yes,C,CBD,,,
Bell Smoke Shop,852 Boston Rd,,Billerica,MA,1821,US,,9787973005,tejal.patel14@gmail.com,2019-08-15,2020-02-20,Yes,S,CBD,Yes,,
Billerica Smoke Shop,480 Boston Rd #108,,Billerica,MA,1821,US,,9786635946,billericasmokeshop@gmail.com,2018-10-14,,,S,,,,
Blackstone Smoke Shop,2 Main St,,Blackstone,MA,1504,US,,5089281094,,2019-07-25,,,S,,,,
21 Plus Smoke Shop #2,380 Centre St,,Boston,MA,2130,US,,6175220240,21plussmokeshop@hmail.com,2020-10-07,,Yes,S,CBD,,,
3J Hookah,646 Blue Hill Ave Unit  4,,Boston,MA,2121,US,,6179829885,3jhookah@gmail.com,2021-11-28,2021-11-28,,T,,,,
Blue Moon Smoke Shop,470 Commonwealth Ave,,Boston,MA,2215,US,,6179826950,bluemoonsmokeshop@gmail.com,2018-10-14,2018-10-14,Yes,S,CBD,,,
Blue Moon Smoke Shop,263 Newbury St,,Boston,MA,2116,US,,8572771610,,2021-06-17,,Yes,S,CBD,,,
Boston Smoke Shop,40 Boylston St,,Boston,MA,2116,US,,6172591736,,2019-07-28,2019-07-28,,S,,Yes,,
Boston Smoke Shop - South Boston,334 Dorchester St,,Boston,MA,2127,US,https://www.bostonsmokeshop.com/,6172682785,,2018-10-15,2019-03-25,Yes,S,CBD,,,
Buried Treasures,28 Haviland St,,Boston,MA,2115,US,https://www.buriedtreasuresboston.com/,6172471011,,2018-10-27,,Yes,H,CBD,Yes,,
CBD American Shaman - Boston,227 Newbury St,,Boston,MA,2116,US,,8573174159,nathan@thegoodleaf.net,2019-11-08,,Yes,C,CBD,,,
Chansky Smoke Shop,159 Sutherland Rd,,Boston,MA,2135,US,,8573321594,,2021-12-08,2021-12-08,Yes,S,CBD,Yes,,
Christian Wireless & Hookah,373 Blue Hill Ave,,Boston,MA,2121,US,,8572308228,,2018-06-02,2021-11-28,,T,,,,
City Smoke Shop,87 Salem St,,Boston,MA,2113,US,https://citysmokeshop.com/,8573431990,contact@thecitysmokeshop.com,2021-10-26,2021-10-26,Yes,S,CBD,Yes,,
City Smoke Shop,324 Newbury St,,Boston,MA,2115,US,https://citysmokeshop.com/,6176865271,sales@citysmokeshop.com,2021-10-26,2021-10-26,Yes,S,CBD,Yes,,
City Smoke Shop,957 Commonwealth Ave,,Boston,MA,2115,US,https://citysmokeshop.com/,6178949226,sales@citysmokeshop.com,2021-10-26,2021-10-26,Yes,S,CBD,Yes,,
City Smoke Shop,449 Washington St,,Boston,MA,2108,US,https://citysmokeshop.com/,8573033018,contact@thecitysmokeshop.com,2021-10-26,2021-10-26,Yes,S,CBD,Yes,,
City Smoke Shop 167,167 Newbury St,,Boston,MA,2115,US,https://citysmokeshop.com/,6176865271,sales@citysmokeshop.com,2021-10-26,2021-11-26,Yes,S,CBD,Yes,,
Eastie Smoke Shop,76 Bennington St,,Boston,MA,2128,US,http://www.eastiesmokeshop.com,6174187104,support@eastiesmokeshop.com,2018-10-21,,Yes,S,CBD,,,
Good Glass,244 Brighton Ave Ste 103,,Boston,MA,2134,US,http://www.goodglassgallery.com/,6175621684,goodglassgallery@gmail.com,2018-11-30,2020-01-16,Yes,H,CBD,,,
Kang's Corner,56 Gainsborough St,,Boston,MA,2115,US,,6172666876,,2018-10-27,,,S,,,,
King Smoke Shop,992 Dorchester Ave,,Boston,MA,2125,US,http://www.kingsmoke1.com/,6175143002,contactkingsmoke@gmail.com,2020-07-08,,Yes,S,CBD,,,
King Smoke Shop,1482 Dorchester Ave,,Boston,MA,2122,US,http://www.kingsmoke1.com/,6172975574,richardtaylor24.rt@gmail.com,2020-07-08,,Yes,S,CBD,,,
Kung Fu Video & DVD,365 Washington St # 2,,Boston,MA,2108,US,http://kungfuvideoanddvd.net/,6172978538,,2018-08-06,2019-12-28,Yes,O,CBD,,,
Maverick Smoke Shop,25 Maverick Square,,Boston,MA,2128,US,,6174185662,,2018-08-06,2019-10-20,Yes,S,CBD,,,
Sid's Smoke,1124 Washington St,,Boston,MA,2118,US,,6173506159,,2020-02-16,,Yes,S,CBD,Yes,,
Southie Smoke Shop,559 Dorchester Ave,,Boston,MA,2127,US,,8574960397,,2019-05-18,,Yes,S,CBD,Yes,,
Sugar Daddy's Smoke Shop,472 Commonwealth Ave,,Boston,MA,2215,US,http://sugardaddys-boston.com/,6175366922,mail@sugardaddys.com,2018-12-31,2018-12-31,Yes,S,CBD,,,
The Hempest,301 Newbury St,,Boston,MA,2115,US,,6174219944,sales@hempest.com,2018-12-31,2021-05-04,Yes,H,CBD,,,
The Kush Groove Shop,1536 Tremont St,,Boston,MA,2120,US,http://www.thekgshop.com/,6177081724,info@kushgrooveclothing.com,2018-09-22,2019-11-26,Yes,S,CBD,,,
Tobacco Exchange,28 Chelsea St,,Boston,MA,2128,US,,6174187172,,2018-09-20,2021-06-07,,T,,Yes,,
East Coast Smokes,6 Commercial St,,Braintree,MA,2184,US,https://eastcoastsmokes.com/,7814283354,eastcoastsmokesllc@gmail.com,2021-10-26,2021-10-26,,S,,,,
"Your CBD Store - Braintree, MA",381 Washington St,,Braintree,MA,2184,US,https://cbdrx4u.com/,7812286179,cbd3507@gmail.com,2019-09-13,2019-09-13,Yes,C,CBD,,,
Cigars & More,380 Washington St,,Brighton,MA,2135,US,,6172025944,,2018-10-18,,,S,,,,
The Vape Shop Cleveland Circle,354 Chestnut Hill Ave,,Brighton,MA,2135,US,https://tvsboston.com/,6175055224,sales@tvsboston.com,2020-04-02,2020-04-02,Yes,V,CBD,,,
Brennan's Smoke Shop,909 N Main St,,Brockton,MA,2301,US,http://www.brennanssmokeshopma.com/,5088970777,,2019-07-28,,,S,,,,
Brockton Smoke Shop,793 Crescent St #1,,Brockton,MA,2302,US,,5088574955,,2019-07-28,2019-07-28,Yes,S,CBD,,,
FreshWick Vape,750 Centre St Ste 3,,Brockton,MA,2375,US,http://freshwickvape.com,5088570025,freshwickvape@gmail.com,2016-04-19,2019-04-12,,V,,,,
Lifestyle Vape,1280 Belmont St,,Brockton,MA,2301,US,,7745175928,,2018-08-06,2019-12-28,,V,,,,
Tobacconist A Smoke Shop,200 Westgate Dr #55,,Brockton,MA,2301,US,,5085839496,,2018-09-20,,,T,,Yes,,
Blue Moon Smoke Shop,218 Washington St,,Brookline,MA,2445,US,,8575766919,,2018-10-14,2018-10-14,,S,,,,
"Your CBD Store - Brookline, MA",1414 Beacon St #A,,Brookline,MA,2446,US,https://cbdrx4u.com,6178790492,brookline560@cbdrx4u.com,2020-12-07,,Yes,C,CBD,,,
Cigars & More,64 Middlesex Turnpike,,Burlington,MA,1803,US,http://www.cigarsandmorema.com/,7812730721,,2018-08-09,2019-05-22,,S,,,,
Town And Country Smoke Shop,280 Cambridge St,,Burlington,MA,1803,US,,7812733181,,2018-09-20,,,S,,,,
The Vape Way,270 Main St #7,,Buzzards Bay,MA,2532,US,http://www.thevapeway.com/,7743552970,buzzardsbay@thevapeway.com,2018-09-22,,,V,,,,
Blue Moon Smoke Shop,896 Massachusetts Ave,,Cambridge,MA,2139,US,,6177144586,bluemoonsmokeshop@gmail.com,2018-10-14,,Yes,S,CBD,,,
Blue Moon Smoke Shop,54 John F. Kennedy St,,Cambridge,MA,2138,US,,6177143423,bluemoonsmokeshop@gmail.com,2021-06-17,,Yes,S,CBD,,,
The Vape Way,145 S Main St Ste B1-3,,Carver,MA,2330,US,http://www.thevapeway.com/,5084650343,carver@thevapeway.com,2018-09-22,,Yes,V,CBD,,,
Jim Buddy's,1271 Memorial Dr,,Chicopee,MA,1020,US,http://jimbuddys.com,4133313913,jim@jimbuddys.com,2018-11-24,2018-11-24,Yes,V,CBD,,,
Stop N Go Smoke Shop,643 Prospect St,,Chicopee,MA,1020,US,,4134378063,,2019-10-22,,,T,,,,
City Smoke Shop,136 Andover St,,Danvers,MA,1923,US,https://citysmokeshop.com/,9789073115,sales@citysmokeshop.com,2021-10-26,2021-10-26,Yes,S,CBD,Yes,,
Total Tobacco & More,85 Andover St,,Danvers,MA,1923,US,,9783041817,totaltobaccoandmore@gmail.com,2019-05-25,,,S,,,,
Vapor Zone,100 Independence Way,,Danvers,MA,1923,US,,8885105105,vaporzonema@gmail.com,2019-06-03,,Yes,V,CBD,,,
21+ Smoke Shop,144 Bowdoin St,,Dorchester,MA,2122,US,https://21smokeshop.com/,6178221467,twentyoneplussmokeshop@hotmail.com,2019-06-10,2019-06-10,Yes,S,CBD,Yes,,
Smoke Shop & More,216 Adams St,,Dorchester,MA,2122,US,,6174368006,,2021-12-09,2021-12-09,,S,,,,
Dracut Convenience - Vape & Head Shop,26 Pleasant St,,Dracut,MA,1826,US,http://dracut-convenience-store.business.site,9789575587,dracutconv@gmail.com,2018-06-22,2019-04-05,,S,,,,
Hookahs & Vapahs,20 Pleasant St,,Dracut,MA,1826,US,,9784551131,hookahsandvapahs@gmail.com,2019-04-26,2021-10-25,Yes,S,CBD,,,
Smoke & More,395 Textile Ave,,Dracut,MA,1826,US,https://www.smokeandmore.net/,9784139747,,2018-10-24,,Yes,S,CBD,,,
La Tia Smoke Shop,154 Maverick St Ste 100,,East Boston,MA,2128,US,http://www.latiasmokeshop.com/,6175696669,latia148@gmail.com,2018-09-30,,,S,,,,
Vape Solutions,687 N Bedford St,,East Bridgewater,MA,2333,US,,5087155122,j79miller@gmail.com,2018-09-05,2020-03-06,Yes,V,CBD,,,
Emporium Newstand,444 N Main St,,East Longmeadow,MA,1028,US,,4135250715,,2019-10-12,,,S,,,,
New England Smoke shop,3088 Cranberry Hwy,,East Wareham,MA,2538,US,http://newenglandecigsmokeemporiuminc.business.site/,5082956555,newenglandecig@gmail.com,2020-01-09,,,S,,,,
High End Smoke Shop - Everett,378 Broadway,,Everett,MA,2149,US,http://high-end-smoke-shop-everett.business.site/,6172941836,,2018-08-06,2019-09-25,Yes,S,CBD,,,
Kloud King Smoke Shop,957 Broadway,,Everett,MA,2149,US,http://www.smokeshopeverett.com/,6172940379,,2018-08-06,2019-10-08,,S,,Yes,,
Lucky Smoke Shop,423 Broadway,,Everett,MA,2149,US,https://luckysmokeshop-tobaccoshop.business.site/,6173876691,,2019-11-20,2019-11-20,Yes,S,CBD,Yes,,
Rt 99 Smoke Shop,893 Broadway,,Everett,MA,2149,US,,6172944160,,2018-10-12,,,S,,,,
Amazing,10 Sconticut Neck Rd,,Fairhaven,MA,2719,US,https://amazingstores.com/,5089918191,,2018-06-28,2018-10-13,Yes,S,CBD,,,
Fairhaven Smoke Shop,177 Huttleston Ave,,Fairhaven,MA,2719,US,,7749297003,fairhavensmokeshop@gmail.com,2018-10-22,2019-04-12,,S,,,,
Atlas Smoke Shop,155 Hope St,,Fall River,MA,2721,US,https://famous-smoke-shop-tobacco-shop.business.site/,5086178899,fsmokeshop101@gmail.com,2020-08-18,,Yes,S,CBD,Yes,,
Bizarro Smoke,1310 S Main St,,Fall River,MA,2724,US,,5086754744,,2020-08-18,,,S,,Yes,,
Casino Smoke Shop,390 Rhode Island Ave,,Fall River,MA,2721,US,https://casinosmokeshop.com/,7749555181,casinosmokeshop@gmail.com,2020-08-17,,Yes,S,CBD,,,
Choice Minimart & Smoke Shop,927 S Main St,,Fall River,MA,2724,US,,5086722211,,2019-08-05,,,S,,,,
S&K Convenience Store Smoke and Vape Shop,696 Eastern Ave,,Fall River,MA,2723,US,,5086724979,,2020-08-18,,Yes,S,CBD,,,
The Let's Roll Express,440 Stafford Rd Ste 4,,Fall River,MA,2721,US,https://the-lets-roll-express.business.site/,5085674667,bashir.sons@aol.com,2019-07-27,,Yes,S,CBD,Yes,,
"Uplifted Vapor and Smoke Supplies, LLC",499 Springfield St,,Feeding Hills,MA,1030,US,https://www.feedinghillsvapeshop.com/,4132760367,,2018-09-20,,Yes,V,CBD,,,
Jay's Smoke Shop,66 John Fitch Hwy,,Fitchburg,MA,1420,US,,9788788866,jaysmoke.6684@gmail.com,2022-04-19,2022-04-19,Yes,S,CBD,,,
Bird's Store,94 Maple St,,Florence,MA,1062,US,,4135860667,gaurangpatel80@hotmail.com,2018-09-30,,,S,,,,
Dab Smoke Shop,389 Worcester Rd 1st Fl,,Framingham,MA,1701,US,http://www.dabsmokeshop.com,5088750500,admin@dabsmokeshop.com,2018-12-16,,Yes,S,CBD,Yes,,
Hellawicked Smoke Shop,2 Bishop St,,Framingham,MA,1702,US,http://www.hellawicked.com,5082020771,info@hellawicked.com,2019-01-03,,Yes,H,CBD,,,
Rise Above Smoke Shop,861 Edgell Rd,,Framingham,MA,1701,US,https://www.riseabovestore.com/,5088751312,riseabovestore1@gmail.com,2021-10-27,,Yes,H,CBD,,,
The Grateful Head,225 Worcester Rd,,Framingham,MA,1701,US,http://thegratefulheadshop.com,5088723025,thegratefulheadshop@gmail.com,2018-11-18,,Yes,H,CBD,,,
Vape Daddy's,971 Concord St,,Framingham,MA,1701,US,http://www.vapedaddys.com/,5086201100,info@vapedaddys.com,2018-09-20,,,V,,,,
Franklin Smoke Shop,24 E Central St,,Franklin,MA,2038,US,http://www.franklinsmokeshop.com,5085284686,franklinsmokeshop25@gmail.com,2018-10-22,2019-04-12,Yes,S,CBD,,,
101 E-Cigs and Vapors,265 Gardner Rd,,Gardner,MA,1440,US,,9786301108,101ministorage@comcast.net,2015-07-22,2019-04-11,,V,,,,
Terrapin Traders,302 Central St,,Gardner,MA,1440,US,,9786324893,,2018-11-23,,,H,,,,
Your CBD Store,9 W Main St,,Georgetown,MA,1833,US,https://cbdrx4u.com,3512075141,georgetown502@cbdrx4u.com,2020-12-06,,Yes,C,CBD,,,
Sunny Variety,34 Railroad Ave,,Gloucester,MA,1930,US,,9782832600,,2018-09-22,,,S,,,,
Shire Glass,87 Railroad St,,Great Barrington,MA,1230,US,https://shireglass.com/,4136453597,shireglassgb@gmail.com,2018-09-22,,Yes,H,CBD,,,
Smoke Heaven,239 Main St,,Greenfield,MA,1301,US,http://smoke-heaven.business.site/,4134753863,sales@naxog.com,2020-01-13,,Yes,S,CBD,Yes,,
Boston Hempire,90 Rockland St Ste 3,,Hanover,MA,2339,US,https://www.bostonhempire.com/,7819241011,,2020-11-21,,Yes,C,CBD,,,
East Coast Smokes,228 Columbia Rd,,Hanover,MA,2184,US,https://eastcoastsmokes.com/,7819241395,eastcoastsmokesllc@gmail.com,2021-10-26,,,S,,,,
"Your CBD Store - Hanover, MA",1271 Washington St Unit 5,,Hanover,MA,2339,US,https://cbdrx4u.com/,7818263903,hanover419@cbdrx4u.com,2019-09-13,2019-09-13,Yes,C,CBD,,,
Smoke & Ashes Tobacco Co.,270 Main St,,Hanson,MA,2341,US,http://smokeandashestobacco.com/,7817540716,,2018-10-28,,Yes,S,CBD,,,
Fully Baked Smoke Shop,216 Main St #5,,Harwich,MA,2671,US,,7742379707,,2018-10-22,,Yes,S,CBD,,,
Rajas Smoke Shack,13 Railroad Square,,Haverhill,MA,1832,US,https://rajassmokeshack.com/,9785198124,rajas.smokeshack@gmail.com,2018-08-09,2021-10-27,Yes,S,CBD,,,
VL Glass & Smoke,558 River St,,Haverhill,MA,1832,US,,9787024855,vaporliciousinc@gmail.com,2021-10-28,2021-10-28,,H,,,,
Vape City Smoke Shop,406 Washington St,,Holliston,MA,1746,US,https://www.vapecitysmokeshop.com/,5082833735,,2018-09-20,,Yes,S,CBD,,,
A Plus Convenience and Smoke Shop,301 High St,,Holyoke,MA,1040,US,https://a-plus-convenience-and-smoke-shop.business.site/,4133153020,,2019-07-14,,,S,,,,
Smoke N' Pipe Deals,1500 Northampton St,,Holyoke,MA,1040,US,http://smokenpipe.business.site/,4135335300,,2020-02-20,,,S,,,,
Vapers Edge,241 Main St,,Holyoke,MA,1040,US,https://www.vapers-edge.com/,4138884263,info@vapers-edge.com,2018-08-06,2020-01-07,Yes,V,CBD,,,
A Z Smokeshop,150 Hartford Ave Unit B,,Hopedale,MA,1747,US,http://a-z-smokeshop.business.site/,5083811417,,2018-06-02,2018-10-12,,S,,,,
EZ Smoke Shop,527 Nantasket Ave,,Hull,MA,2045,US,,7819253025,,2021-12-10,2021-12-10,,S,,,,
Instant Karma,547 Main St,,Hyannis,MA,2601,US,http://www.instantkarmahyannis.com,5088274212,,2018-11-18,,Yes,H,CBD,Yes,,
Joke Shop & Adult Connection,624 Main St,,Hyannis,MA,2601,US,,5088622480,,2019-01-18,,Yes,H,CBD,,,
The Vape Way,11 Enterprise Rd Unit 7,,Hyannis,MA,2601,US,http://www.thevapeway.com/,7744704529,hyannis@thevapeway.com,2018-09-22,,Yes,V,CBD,,,
Cape Ann Botanicals,8 Central St,,Ipswich,MA,1938,US,https://www.capeannbotanicals.com,9783563493,info@capeannbotanicals.com,2020-06-15,,Yes,C,CBD,,,
21+ Smoke Shop #3,168 South St,,Jamaica Plain,MA,2130,US,https://21smokeshop.com/,6175248000,twentyoneplussmokeshop@hotmail.com,2019-06-10,2019-06-10,Yes,S,CBD,Yes,,
South Shore Vapors,8 Pembroke St,,Kingston,MA,2364,US,http://southshorevaporsllc.com/,7814223649,southshorevapors@gmail.com,2019-10-14,,,V,,,,
Uniq Vape,655 Cheshire Rd,,Lanesborough,MA,1237,US,,4134991210,uniqvap@gmail.com,2015-10-16,2019-07-07,Yes,V,CBD,Yes,,
Hookah Outlet,8 S Broadway,,Lawrence,MA,1843,US,https://www.hookahoutletma.com/,7082474742,hookahoutletma@gmail.com,2021-10-26,,,S,,,,
Dragons Leyr,875 Merriam Ave,,Leominster,MA,1453,US,https://www.facebook.com/dragonsleyr,9784665102,dragonsleyr420@gmail.com,2019-01-15,2022-01-24,Yes,S,CBD,,,
2 Brothers Smoke Shop & Vape,158 Wood St #2,,Lowell,MA,1851,US,,9787106050,2014harryp@gmail.com,2020-10-01,2020-10-01,Yes,S,CBD,Yes,,
YaYa Cigars and Vapes,309 Chelmsford St,,Lowell,MA,1851,US,,9788567289,yayacigarandvapes@gmail.com,2019-06-07,,Yes,S,CBD,,,
Ludlow Smoke Shop & Convenience,246 East St,,Ludlow,MA,1056,US,,4136101556,,2019-05-02,,,S,,,,
City Line Smoke Shop,6 Massachusetts Ave,,Lunenburg,MA,1462,US,https://chris18matthews.wixsite.com/citylinesshop,9783433874,citylinesmokeshop@gmail.com,2018-10-18,2018-10-18,Yes,S,CBD,Yes,,
Lineage Vapors,5 Summer St Unit 9,,Lunenburg,MA,1462,US,,9784007339,kyle@lineagevapors.com,2018-08-06,2019-12-28,Yes,V,CBD,,,
Cal's News Store,53 Central Ave,,Lynn,MA,1901,US,,7815959277,,2021-12-11,2021-12-11,,O,,,,
Jolly Vapors,104 Woodman St Ste 1K,,Lynn,MA,1905,US,http://jollyvaporslynn.com/,7814179178,pictureitjolly@gmail.com,2019-04-28,,,V,,,,
Highland Smoke Shop,132 Highland Ave,,Malden,MA,2148,US,,7813978885,,2019-11-26,,Yes,S,CBD,,,
Pleasant Smoke Shop,428 Main St,,Malden,MA,2148,US,,7813213593,,2018-12-11,,,S,,,,
Raja's Smoke Shack,50 Summer St,,Malden,MA,2148,US,https://rajassmokeshack.tumblr.com/,7816051211,rajas.smokeshack@gmail.com,2018-08-09,2020-02-04,Yes,S,CBD,Yes,,
Wicked Vaped,266 N Main St,,Mansfield,MA,2048,US,,7742844964,wickedvaped@gmail.com,2018-09-05,2020-03-06,Yes,V,CBD,,,
Cigars & More,197 Boston Post Rd W Ste C,,Marlborough,MA,1752,US,http://www.cigarsandmorema.com/,5087924427,burlingtoncigar@gmail.com,2021-10-26,2021-10-26,Yes,S,CBD,,,
Marlboro Smoke Shop,170 Pleasant St,,Marlborough,MA,1752,US,http://marlborosmokeshops.com/,9086564389,smokeshop01752@gmail.com,2021-10-26,2021-10-26,Yes,S,CBD,Yes,,
Oriental City,601 Donald Lynch Blvd #4220,,Marlborough,MA,1752,US,,5084853888,orientalcity2006@gmail.com,2018-08-09,2020-02-04,Yes,H,CBD,,,
Post Road Pantry,21 Boston Post Rd E,,Marlborough,MA,1752,US,,5084810352,,2020-02-04,,,T,,,,
Vape City Smoke Shop,42 Boston Post Rd E,,Marlborough,MA,1752,US,https://www.vapecitysmokeshop.com/,5084601365,marlboroughsmokeshop@gmail.com,2018-09-15,,Yes,V,CBD,,,
Growing In Health,800 Falmouth Rd Unit 104C,,Mashpee,MA,2649,US,https://www.growthinhealth.org/,5084656500,jobroach@growthinhealth.org,2021-01-19,,Yes,C,CBD,,,
The Vape Way,387 Nathan Ellis Hwy,,Mashpee,MA,2649,US,http://www.thevapeway.com/,7742282197,vape@thevapeway.com,2018-09-13,,Yes,V,CBD,,,
Amazing Intimate Essentials - Medford,423 Mystic Ave,,Medford,MA,2155,US,https://www.soamazing.com/,7813917438,service@soamazing.com,2020-06-18,,Yes,O,CBD,,,
Medford Square Smoke Shop,37 Riverside Ave,,Medford,MA,2155,US,,7813952970,,2021-10-26,,,S,,,,
Smoke 4 Less,562 High St,,Medford,MA,2155,US,,7816431504,,2021-10-27,,Yes,S,CBD,,,
Freedom Tobacco Shop,436 Broadway,,Methuen,MA,1844,US,,9786880233,,2018-10-22,,Yes,S,CBD,Yes,,
Lifestyle Vape,321 W Grove St Unit A,,Middleborough,MA,2346,US,,7744194956,,2018-08-06,2019-12-28,,V,,,,
Jay's Smoke Shop,9 Medway Rd,,Milford,MA,1757,US,,5084886596,,2019-06-16,,Yes,S,CBD,Yes,,
Matt's Hydroponics,206 E Main St Unit 5,,Milford,MA,1757,US,http://www.mattshydroponics.com/,5084780710,contact@mattshydroponics.com,2018-12-23,,,H,,,,
Milford CBD & Wellness by 5 Star Nutrition,196 E Main St Ste 7C,,Milford,MA,1757,US,https://5starnutritionusa.com/,5084786100,milford@5starnutritionusa.com,2021-03-13,,Yes,O,CBD,,,
Milford Vapes & Smoke,206 E Main St #5,,Milford,MA,1757,US,http://milfordvapes.com/,5082820763,milfordvapesupply@gmail.com,2020-01-20,,Yes,S,CBD,,,
"Your CBD Store - Needham, MA",1096 Great Plain Ave,,Needham,MA,2492,US,https://cbdrx4u.com/,7814005614,needham452@cbdrx4u.com,2019-09-13,2019-09-13,Yes,C,CBD,,,
Bizarro Smoke,1345 Purchase St,,New Bedford,MA,2740,US,https://bizarrosmoke.com/,5089994797,bizarrosmoke@hotmail.com,2018-10-31,,,S,,,,
Brennan's Smoke Shop,189 Popes Island,,New Bedford,MA,2740,US,https://brennans-smoke-shop.business.site/,5089945773,,2019-07-28,,,S,,,,
Downtown Smoke Shop,277 Union St,,New Bedford,MA,2740,US,http://nbsmokeshop.com/,7744253914,,2018-10-21,,Yes,S,CBD,Yes,,
Goodfella Vapor,475 Belleville Ave,,New Bedford,MA,2746,US,https://www.goodfellavapor.com/,7744252191,goodfellavapor@gmail.com,2018-08-06,2019-12-22,Yes,V,CBD,,,
Growing In Health,319 Union St #A,,New Bedford,MA,2740,US,https://www.growthinhealth.org/,5084656500,jobroach@growthinhealth.org,2021-01-19,,Yes,C,CBD,,,
ZA's Smoke Shop,1894 Acushnet Ave,,New Bedford,MA,2746,US,,7749915336,zasmokeshop@gmail.com,2019-08-30,,Yes,S,CBD,,,
Uniq Vape,420 Curran Hwy,,North Adams,MA,1247,US,,4133464963,,2016-10-12,2019-10-23,Yes,V,CBD,Yes,,
Kashmir Smoke,91 Water St,,North Andover,MA,1845,US,,9785523071,,2020-02-11,2020-02-11,Yes,S,CBD,,,
"Your CBD Store - North Andover, MA",73 Main St,,North Andover,MA,1845,US,https://cbdrx4u.com/,9785523545,cbd3507@gmail.com,2019-09-13,2019-09-13,Yes,C,CBD,,,
Cedars Smoke Shop,17 Faunce Corner Rd,,North Dartmouth,MA,2747,US,,5089940873,cedarssmokeshop@gmail.com,2018-10-15,,Yes,S,CBD,,,
King Smoke Shop,245 State Rd,,North Dartmouth,MA,2747,US,http://www.kingsmoke1.com/,7749927481,contactkingsmoke@gmail.com,2020-07-08,,Yes,S,CBD,,,
Route 28 Lucky Mart,202 North St,,North Reading,MA,1864,US,,9783577104,,2018-09-22,,Yes,S,CBD,Yes,,
Amazing,138 Bridge St,,North Weymouth,MA,2191,US,https://amazingstores.com/,7818033221,,2018-06-28,2018-10-13,Yes,S,CBD,,,
Florence Smoke Shop,2 N Main St,,Northampton,MA,1062,US,https://florencesmokeshop.com,4135860667,,2018-11-02,,,S,,,,
Shop Therapy,189 Main St,,Northampton,MA,1060,US,https://www.shoptherapy.com/,4137273786,xtc@shoptherapy.com,2018-09-22,,,H,,,,
The Vault,135 Main St Ste 1,,Northampton,MA,1060,US,http://www.vaultvape.net/,4135862820,thevaultma74@gmail.com,2018-09-22,,Yes,V,CBD,,,
Amazing Superstore - Northborough,15 Belmont St,,Northborough,MA,1532,US,https://www.soamazing.com/,5083663807,,2020-06-20,,Yes,O,CBD,,,
V&R Smoke Shop,130 Mansfield Ave,,Norton,MA,2766,US,https://vandrsmokeshop.business.site/,5082854026,,2018-09-20,,,S,,,,
Amazing,82 Newbury St,,Peabody,MA,1960,US,https://amazingstores.com/,9785357999,,2018-06-28,2018-10-13,Yes,S,CBD,,,
Main Street Smoke Shop,7 Main St,,Peabody,MA,1960,US,,9785328118,ketansub@gmail.com,2018-08-06,2019-10-19,Yes,S,CBD,Yes,,
Peabody Vapors,50 Main St,,Peabody,MA,1960,US,,9785489619,peabodyvapors@gmail.com,2015-05-02,2018-12-29,,V,,,,
Brennan's Smoke Shop,95 Church St #5,,Pembroke,MA,2359,US,http://www.brennanssmokeshopma.com/,7818265773,,2019-07-28,,,S,,,,
The Vape Way,243 Church St #M,,Pembroke,MA,2359,US,http://www.thevapeway.com/,7819245047,pembroke@thevapeway.com,2018-09-22,2020-07-19,Yes,V,CBD,,,
Blazin Station,158 Main St,,Pepperell,MA,1463,US,https://www.blazinstation.com/,9786501234,yourbuds@blazinstation.com,2021-10-26,,,H,,,,
Amazing,1575 W Housatonic St,,Pittsfield,MA,1201,US,https://amazingstores.com/,4134647890,,2018-06-28,2018-10-13,Yes,S,CBD,,,
Berkshire Pipe & Tobacco,498 Tyler St,,Pittsfield,MA,1201,US,,4134648080,,2019-07-22,,,T,,,,
Your CBD Store,180 Elm St Ste E,,Pittsfield,MA,1201,US,https://cbdrx4u.com/find-us/massachusetts/pittsfield,4133444022,pittsfield@cbdinnewengland.com,2021-06-04,2021-06-04,Yes,C,CBD,,,
Beantown Vapor Store,24 Samoset St,,Plymouth,MA,2360,US,http://www.beantownstore.com/,7743435181,info@beantownstore.com,2016-05-21,2019-03-20,,V,,,,
Brennan's Smoke Shop,2A Court St,,Plymouth,MA,2360,US,http://www.brennanssmokeshopma.com/,5087465711,,2019-07-28,,,S,,,,
Cedarville Smoke Shop,2240 State Rd,,Plymouth,MA,2360,US,,7742052116,tqjameel@gmail.com,2019-08-01,,Yes,S,CBD,,,
Green Apothecary,783 State Rd Unit 3,,Plymouth,MA,2360,US,http://greenapothecary.net/,7747739198,info@greenapothecary.net,2020-07-02,,Yes,C,CBD,,,
Pirate Girl Smoke Boutique,297 Court St,,Plymouth,MA,2360,US,http://pirategirlshop.com,5089274557,pirategirldesigns@gmail.com,2018-11-25,2020-01-30,Yes,H,CBD,,,
The Vape Way,50 Sandwich St,,Plymouth,MA,2360,US,http://www.thevapeway.com/,5087474088,vape@thevapeway.com,2018-09-08,2019-04-26,Yes,V,CBD,,,
Shop Therapy,286 Commercial St,,Provincetown,MA,2657,US,https://www.shoptherapy.com/,5084879387,xtc@shoptherapy.com,2018-09-22,,,H,,,,
Franklin Smoke Shop,106 Franklin St,,Quincy,MA,2169,US,https://www.franklintobacco.com/,6174810150,106franklintobacco@gmail.com,2021-10-26,,Yes,S,CBD,Yes,,
Hancock Tobacco,1500 Hancock St,,Quincy,MA,2169,US,,6174792320,,2021-10-26,2021-10-26,,S,,,,
Three Guys Smoke Shop,5 Copeland St,,Quincy,MA,2169,US,http://threeguyssmokeshop.com/,6174811973,threeguyssmokeshop@gmail.com,2018-09-22,,,S,,,,
V&K Smoke Shop - Quincy,1576 Hancock St,,Quincy,MA,2169,US,http://www.viksmokeshop.com/,6174811365,store@viksmokeshop.com,2018-09-20,,,S,,,,
Lifestyle Vape,22 Mazzeo Dr,,Randolph,MA,2368,US,http://www.lifestylevapeinc.com/,7818853350,,2017-12-02,2019-01-30,,V,,,,
Randolph Smoke Shop,937 N Main St,,Randolph,MA,2368,US,,7818853463,,2019-10-13,,Yes,S,CBD,Yes,,
Brennan's Smoke Shop,1470 New State Hwy,,Raynham,MA,2359,US,http://www.brennanssmokeshopma.com/,5088285773,,2019-07-28,,,S,,,,
Phat Daddy's Smoke Shop,407 New State Hwy,,Raynham,MA,2767,US,,5088233500,,2019-09-10,,,H,,,,
"Your CBD Store - Reading, MA",587 Main St,,Reading,MA,1867,US,https://cbdrx4u.com/,7812056020,readingma@cbdrx4u.com,2019-09-13,2019-09-13,Yes,C,CBD,,,
Wonderland Smoke Shop,3 Park St,,Rehoboth,MA,2769,US,https://wonderland-smokeshop.business.site/,5084550856,wonderlandsmokeshop435@gmail.com,2020-08-18,2020-08-18,Yes,S,CBD,,,
Revere Smoke Shop,163 Squire Rd,,Revere,MA,2151,US,http://www.reveresmokeshop.com/,7816291858,psilfani@hotmail.com,2018-08-09,2020-02-04,Yes,S,CBD,,,
Irie Bliss,221 Union St,,Rockland,MA,2370,US,https://iriebliss.com/,7817096765,irieblisswellness@gmail.com,2019-08-07,,Yes,C,CBD,,,
King Smoke Shop,683 Canterbury St,,Roslindale,MA,2131,US,http://www.kingsmoke1.com/,6179428638,contactkingsmoke@gmail.com,2020-07-08,,Yes,S,CBD,,,
Seymore Green,35 Poplar St,,Roslindale,MA,2131,US,http://www.smokenshirts.com/,6173255900,smokenshirts@gmail.com,2018-09-22,,Yes,H,CBD,,,
City Smoke Shop,1 Lafayette St,,Salem,MA,1970,US,https://citysmokeshop.com/,7817189981,salem@citysmokeshop.com,2021-10-26,,Yes,S,CBD,Yes,,
Red Lion Smoke Shop,94 Washington St,,Salem,MA,1970,US,,9787452050,,2020-02-08,,,T,,,,
Vapor Outlet,103 Lafayette St,,Salem,MA,1970,US,,9785945623,vaporoutletllc@gmail.com,2019-10-08,,,V,,,,
"Your CBD Store - Salem, MA",304 Essex St,,Salem,MA,1970,US,https://cbdrx4u.com/,9785941374,readingma@cbdrx4u.com,2019-09-13,2019-09-13,Yes,C,CBD,,,
Raja's Smoke Shack,158 Bridge Rd,,Salisbury,MA,1952,US,https://rajassmokeshack.com/,9783587486,rajas.smokeshack@gmail.com,2019-05-08,2021-10-27,Yes,S,CBD,,,
G's Gallery,184 Broadway Ste 8,,Saugus,MA,1906,US,https://www.gsgalleryonline.com/,7815582457,,2021-10-26,,Yes,H,CBD,,,
Gateway Newstand,Square One Mall,,Saugus,MA,1906,US,,7812338500,,2021-10-26,,,O,,,,
Vapor Zone,184 Broadway,,Saugus,MA,1906,US,,8885105105,vaporzonema@gmail.com,2018-09-05,2020-03-06,Yes,V,CBD,,,
Galaxy Vapes & Glass,72 Mink St,,Seekonk,MA,2771,US,https://galaxyvapesandglass.com/,5085571676,galaxyvapesandglass@gmail.com,2022-04-15,2022-04-15,Yes,H,CBD,,,
Levitation Gallery Smoke Shop,1200 Fall River Ave Ste 6,,Seekonk,MA,2771,US,http://www.levitationglass.com,5085571247,jon@levitationglass.com,2018-11-18,2018-11-18,Yes,H,CBD,,,
Stateline Smoke Shop,155 Fall River Ave,,Seekonk,MA,2771,US,https://www.statelinesmokeshop.com/,5083365000,,2020-04-06,,Yes,S,CBD,,,
Turnpike Smoke Shop,424 Hartford Turnpike,,Shrewsbury,MA,1545,US,https://turnpike-smoke-shop.business.site/,2012347938,,2020-07-20,,Yes,S,CBD,Yes,,
SG Smoke Shop,1314 Grand Army of the Republic Hwy,,Somerset,MA,2726,US,,5085676275,,2019-05-11,,,S,,,,
Smokiez Smoke Shop,957 Grand Army of the Republic Hwy,,Somerset,MA,2726,US,https://www.smokiezsmokeshop.com/,7743656062,smokiezsmokeshop@gmail.com,2020-08-18,,Yes,S,CBD,,,
Bluemoon Smoke Shop,1147 Broadway,,Somerville,MA,2144,US,,6177645702,,2021-10-26,2021-10-26,Yes,H,CBD,Yes,,
J's Vapor Den,679 Washington St,,South Attleboro,MA,2703,US,http://www.jsvaporden.com/,5086399845,jsvaporden@yahoo.com,2018-08-06,2018-11-10,,V,,,,
Smoke & Ashes Tobacco Co.,1602 Main St,,South Weymouth,MA,2190,US,http://smokeandashestobacco.com/,7818036895,,2018-10-28,,Yes,S,CBD,,,
Smoke Signals,14 Hamilton St,,Southbridge,MA,1550,US,,5089096851,,2019-05-13,,,S,,,,
VAPORSS The True Alternative,26 Hamilton St,,Southbridge,MA,1550,US,http://vaporss.com/,7744529109,service@vaporss.com,2018-09-05,2020-03-06,,V,,,,
"Your CBD Store - Southwick, MA",549 College Hwy Unit C,,Southwick,MA,1077,US,https://cbdrx4u.com/,4139983250,southwickma@cbdrx4u.com,2019-09-13,2019-09-13,Yes,C,CBD,,,
Smokin Sadies Tobacco Shoppe,150 Main St,,Spencer,MA,1562,US,,7747450336,smokinsadies@yahoo.com,2019-10-15,,Yes,V,CBD,,,
Buckeye Bros Smokeshop/Harry's Caffe,974 Main St,,Springfield,MA,1103,US,,4137316842,buckeye2454@aol.com,2019-07-06,,,S,,,,
Pasco Road Convenience And Smoke Shop,265 Pasco Rd,,Springfield,MA,1118,US,,4135431390,,2018-09-30,2021-06-15,,S,,,,
Potco,1021 Main St,,Springfield,MA,1103,US,https://potco.co/,4137340420,potcosales@gmail.com,2021-02-09,,Yes,C,CBD,,,
Smok'in Deals,1285 Boston Rd,,Springfield,MA,1119,US,https://www.smokindealsspringfield.com/,4137834483,,2018-09-22,,,S,,Yes,,
UR Discount Tobacco & Lottery,1207 Parker St,,Springfield,MA,1129,US,,4134552641,,2019-10-16,,,T,,,,
Voltage Vape Shop,114 State St,,Springfield,MA,1103,US,https://voltagevape.com/,5676948273,voltagevape@gmail.com,2018-09-05,2020-03-06,Yes,V,CBD,,,
Western Mass Hydroponics,1760 Boston Rd,,Springfield,MA,1129,US,https://wmhydro.com/,4133725309,,2019-06-27,,Yes,H,CBD,,,
Zains Smoke Shop & Convenience Store,889 Carew St,,Springfield,MA,1104,US,,4134376113,,2019-05-13,2019-05-13,Yes,S,CBD,,,
Brennan's Smoke Shop,356 Washington St Ste B,,Stoughton,MA,2072,US,,7813445773,,2019-07-28,2019-07-28,Yes,S,CBD,,,
Vapors Paradise,176 Worcester-Providence Turnpike,,Sutton,MA,1590,US,https://myvaporsparadise.com/,5088650374,myvaporsparadise@gmail.com,2017-10-12,2019-01-19,Yes,V,CBD,,,
Your CBD Store,222 Humphrey St,,Swampscott,MA,1907,US,https://cbdrx4u.com/find-us/massachusetts/swampscott,7817329119,swampscott641@cbdrx4u.com,2021-06-04,2021-08-14,Yes,C,CBD,,,
Dunnys Smoke Essentials,246 Ocean Grove Ave,,Swansea,MA,2777,US,,5085676331,,2020-08-18,,,S,,,,
GoodFella Vapor,840 Grand Army of the Republic Hwy,,Swansea,MA,2777,US,https://www.goodfellavapor.com/,5086763244,goodfellavapor@gmail.com,2018-09-30,2019-12-22,Yes,V,CBD,,,
Smokiez Smoke Shop,103 Swansea Mall Dr,,Swansea,MA,2777,US,http://www.swanseasmokeshop.com/,5086721111,,2020-03-21,2020-03-21,Yes,S,CBD,,,
Swansea Mobil Mart & Smoke Shop,651 Grand Army of the Republic Hwy,,Swansea,MA,2777,US,https://swansea-mobil-mart-smoke-shop.business.site/,7743575130,,2020-08-18,,Yes,O,CBD,,,
"The Mass Apothecary | CBD Store - CBD Oil, CBD Gummies, & More",50 Joanne Lane,,Swansea,MA,2777,US,https://massapothecary.com,7743016135,info@massapothecary.com,2020-02-02,2020-10-04,Yes,C,CBD,,,
Brennan's Smoke Shop,1 Broadway,,Taunton,MA,2780,US,http://www.brennanssmokeshopma.com/,5088235773,,2019-07-28,,,S,,,,
Vape City Smoke Shop,306 Winthrop St Unit 6,,Taunton,MA,2780,US,https://www.vapecitysmokeshop.com/,5083862421,tauntonsmokeshop@gmail.com,2018-09-14,,,S,,,,
Route 38 Smoke Shop,553 Main St,,Tewksbury,MA,1876,US,,9788580440,,2018-11-01,2018-11-01,Yes,S,CBD,,,
Save On Smokes,2324 Main St,,Tewksbury,MA,1867,US,,9784475149,,2018-12-18,,Yes,S,CBD,Yes,,
The Tobacconist,1875 Main St,,Tewksbury,MA,1876,US,,9784527400,,2018-09-22,,,T,,,,
Island Puff n Pass,15 Main St,,Tisbury,MA,2568,US,https://islandpuffnpass.com,5086879228,,2018-12-31,2018-12-31,Yes,H,CBD,,,
Jay's Smoke Shop,5 S Main St Ste B,,Uxbridge,MA,1569,US,,5087797655,,2019-06-16,,Yes,S,CBD,Yes,,
Ez Cig Vapors,88 Albion St,,Wakefield,MA,1880,US,,7815870131,,2018-06-28,2019-07-13,,V,,,,
Amazing,465 Moody St,,Waltham,MA,2453,US,https://amazingstores.com/,7818945063,,2018-06-28,2018-10-13,Yes,S,CBD,,,
Moody St Smoke Shop,420 Moody St,,Waltham,MA,2453,US,https://moody-st-smoke-shop.business.site/,7813733139,moodystsmokeshop@gmail.com,2022-02-10,2022-02-10,Yes,S,CBD,Yes,,
Safehouse Vapors,855 Main St,,Waltham,MA,2453,US,,7814722348,,2018-10-12,,Yes,V,CBD,,,
Cloud-9 Vaping Supplies,164 West St,,Ware,MA,1082,US,http://cloud9ware.com/,4132770130,,2016-09-15,2019-04-05,Yes,V,CBD,,,
Brennan's Smoke Shop,208 Main St,,Wareham,MA,2571,US,http://www.brennanssmokeshopma.com/,5082955773,,2019-07-28,,,S,,,,
Phat Daddy's Smoke Shop,3147 Cranberry Hwy,,Wareham,MA,2538,US,https://phatdaddyssmokeshop.com/,5087438435,,2018-10-31,,,S,,,,
Milked Premier Vape Shop & Glass Gallery,71 Arlington St,,Watertown,MA,2472,US,http://www.milkedofficial.com,8572594753,team@milkedofficial.com,2018-08-06,2019-12-29,Yes,V,CBD,,,
Moda & Tobacco Inc,550 Arsenal St #36,,Watertown,MA,2472,US,,6179247700,,2022-05-03,2022-05-03,,T,,,,
The Vapor Shoppe,129 E Main St Ste 8,,Webster,MA,1570,US,https://www.safervapors.com/,5089433720,safervapors@gmail.com,2014-10-08,2020-06-20,Yes,V,CBD,Yes,,
Choice Smoke Shop,244 W Boylston St,,West Boylston,MA,1583,US,,5088353975,,2019-08-05,,,S,,,,
J & J Variety,360 W Boylston St,,West Boylston,MA,1583,US,,7742614099,,2021-10-26,,Yes,S,CBD,Yes,,
Your CBD Store,360 W Boylston St #105,,West Boylston,MA,1583,US,https://cbdrx4u.com/find-us/massachusetts/west-boylston,5083046570,westboylston599@cbdrx4u.com,2021-06-04,,Yes,C,CBD,,,
Amazing,1524 VFW Pkwy,,West Roxbury,MA,2132,US,https://amazingstores.com/,6174696417,,2018-06-28,2018-10-13,,S,,,,
King Smoke Shop,1526 VFW Parkway #B,,West Roxbury,MA,2132,US,http://www.kingsmoke1.com,6179427348,eradensboston@gmail.com,2018-10-29,,,S,,,,
The Head Shop,524 Main St,,West Springfield,MA,1089,US,,4132731720,,2019-06-27,,Yes,H,CBD,,,
King Smoke Shop,39 South St #A,,Westborough,MA,1581,US,,5086164444,,2019-12-26,,Yes,S,CBD,,,
Vape City Smoke Shop,135 Turnpike Rd Ste 2,,Westborough,MA,1581,US,,5083060788,,2018-09-20,,Yes,S,CBD,,,
One World Gallery,121 N Elm St,,Westfield,MA,1085,US,,4134541914,,2022-03-07,2022-03-07,,H,,,,
Tobacco Barn,53 Elm St #2,,Westfield,MA,1085,US,http://tobaccobarnwestfield.com/,4135687286,,2020-06-06,,,T,,,,
Wise Vapors,30 Main St,,Westfield,MA,1085,US,,4134643539,,2019-09-10,2019-09-10,,V,,,,
Westford Smoke Shop,175 Littleton Rd Unit K,,Westford,MA,1886,US,https://westford-smoke-shop.business.site/,9784961821,,2021-10-27,2021-10-27,Yes,S,CBD,Yes,,
Cedars Smoke Shop,35 State Rd,,Westport,MA,2790,US,,7743195775,,2019-08-01,2019-08-01,Yes,S,CBD,,,
CBD American Shaman - Weymouth,1690 Main St,,Weymouth,MA,2190,US,http://cbdamericanshaman.com,7813400034,cbdofweymouth@gmail.com,2020-04-26,,Yes,C,CBD,,,
Leaf N Legend Vape & Smoke Shop,605 Bedford St Ste 3,,Whitman,MA,2382,US,https://www.leafnlegend.com/,7815241057,leafnlegend@gmail.com,2019-04-30,,Yes,S,CBD,Yes,,
Smoke & Ashes Tobacco Co.,410 Bedford St,,Whitman,MA,2382,US,http://smokeandashestobacco.com/,7815241386,contact@smokeandashestobacco.com,2018-10-28,,Yes,S,CBD,,,
The Smoke Shop Whitman,533 Washington St,,Whitman,MA,2382,US,https://the-smoke-shop-whitman.business.site/,7814477777,,2019-05-20,,,S,,,,
Route 38 Smoke Shop,474 Main St Unit 55,,Wilmington,MA,1887,US,,9784475778,,2018-11-01,2018-11-01,Yes,S,CBD,,,
Classic Smokes & Vape,38 Montvale Ave,,Woburn,MA,1801,US,https://www.facebook.com/classicsmokes/,3399992929,,2019-03-29,2019-03-29,Yes,S,CBD,Yes,,
MJ's Smoke Shop,27 Russell St,,Woburn,MA,1801,US,https://mjswoburn.shopsettings.com/,7814910112,mjs.woburn@gmail.com,2021-10-27,2021-10-27,Yes,H,CBD,,,
New Edge Smoke & Vapors,158 Main St,,Woburn,MA,1801,US,,7812811670,,2018-08-09,2020-06-30,Yes,S,CBD,,,
Belmont Smoke Shop,96 Belmont St,,Worcester,MA,1605,US,,5084591616,,2018-08-09,2020-02-04,Yes,S,CBD,,,
Brightleaf Tobacco,560 Lincoln St,,Worcester,MA,1605,US,https://www.brightleaf-tobacco.com/,5088525700,,2019-07-28,,,T,,,,
Double G Enterprises LLC,70 James St,,Worcester,MA,1603,US,http://www.doublegenterprises.com,5087541103,double-g@charter.net,2018-11-07,,Yes,H,CBD,,,
Green Zone Smoke & Gifts Shop,84 Green St,,Worcester,MA,1604,US,,5087551878,greenzones1975@gmail.com,2018-11-19,,Yes,S,CBD,Yes,,
Jay's Smoke Shop,83 Maywood St,,Worcester,MA,1603,US,,5084381465,,2019-06-16,2019-06-16,Yes,S,CBD,Yes,,
Jay's Smoke Shop,725 Grafton St,,Worcester,MA,1604,US,,5084591043,,2019-06-16,,Yes,S,CBD,Yes,,
Jay's Smoke Shop,475 Lincoln St,,Worcester,MA,1605,US,,5083732727,,2019-06-16,,Yes,S,CBD,Yes,,
JK Smoke Shop,60 S Ludlow St,,Worcester,MA,1609,US,http://jk-smoke-shop.business.site/,5084590576,,2019-12-18,2020-01-25,,S,,,,
Lili's Glass,589 Park Ave,,Worcester,MA,1603,US,https://lilisglass.com/,7744202696,lilis.whitney.field@gmail.com,2018-08-06,2019-10-14,Yes,H,CBD,,,
New G & M Grocery Mart,504 Cambridge St,,Worcester,MA,1610,US,,5087579940,,2020-01-27,,Yes,S,CBD,Yes,,
Park Avenue Smoke Shop,194 Park Ave,,Worcester,MA,1609,US,http://www.parkavenuesmokeshop.com/,7742431287,parkavenuesmokeshop@gmail.com,2019-05-06,,,S,,,,
Rize+,652 Park Ave #C,,Worcester,MA,1603,US,https://therizeshop.com/,7742431070,info@thevaporizeshop.com,2018-09-22,2020-05-07,Yes,V,CBD,Yes,,
Rock & Smoke Shop,830 Main St,,Worcester,MA,1610,US,,5084599956,,2020-02-10,2020-02-10,Yes,S,CBD,Yes,,
"Your CBD Store - Worcester, MA",91 Stafford St #5,,Worcester,MA,1603,US,https://cbdrx4u.com/,5089268595,cbd3507@gmail.com,2019-09-13,2019-09-13,Yes,C,CBD,,,