Shop Name,Address 1,Address 2,City,State/Province,Zip/Postcode,Country,Website,Phone,Email,Added,Updated,CBD,Biz Type,MJ,Kratom,Buyer name ,Title 
Vape N Chill,123 S Main St,,Ada,OH,45810,US,,4196340060,vapenchill@gmail.com,2018-09-15,2021-12-12,,V,,,,
Arsenic & Old Lace,779 N Main St,,Akron,OH,44310,US,,3307947507,,2018-10-25,,,H,,,,
Awesome Sauce Vapor,1947 W Market St Ste 106,,Akron,OH,44313,US,https://www.vaporizerstoreakron.com/,3308495139,awesomesaucevapor@gmail.com,2019-02-18,,,V,,,,
Buckeye Smoke and Vapor,1376 N Portage Path,,Akron,OH,44313,US,http://thebuckeyesmokeshop.com/,3302080078,buckeyesmokeshop@gmail.com,2018-12-26,2021-03-28,Yes,H,CBD,Yes,,
High Intentions,3 Merriman Rd,,Akron,OH,44303,US,http://highintentions.life,3304004996,highintentions.social@gmail.com,2020-09-08,2020-09-08,Yes,H,CBD,Yes,,
Kings of Vapor + CBD,2311 East Ave,,Akron,OH,44311,US,http://kingsofvapor.com/,3307453244,info@kingsofvapor.com,2018-08-07,2020-01-21,Yes,V,CBD,,,
Kings of Vapor + CBD,1286 Canton Rd,,Akron,OH,44312,US,http://kingsofvaporohio.com,3307940100,info@kingsofvapor.com,2018-08-07,2020-01-21,Yes,V,CBD,,,
Kings of Vapor + CBD,1872 S Arlington Rd,,Akron,OH,44306,US,http://kingsofvaporohio.com,3307733244,info@kingsofvapor.com,2018-08-07,2020-01-21,Yes,V,CBD,,,
Legend Vapor,1089 E Tallmadge Ave,,Akron,OH,44310,US,http://www.legendvapor.com/,3306338273,sales@legendvapor.com,2018-09-30,,Yes,V,CBD,,,
Marley & Me Novelty Shop,764 W Market St Ste 1,,Akron,OH,44303,US,https://www.mnmeusa.com/,3308176663,contactus@mnmeusa.com,2019-11-04,,Yes,H,CBD,,,
Puffy's Vapor Lounge,3430 S Arlington Rd Unit F,,Akron,OH,44312,US,,2344019020,puffysvl@gmail.com,2021-08-09,2021-08-14,Yes,V,CBD,,,
Short Stops Market & Tobacco,1690 Massillon Rd,,Akron,OH,44312,US,,3306157470,,2019-05-11,,,T,,,,
Smokers Outlet Store,508 Canton Rd,,Akron,OH,44312,US,https://www.smokersoutletonline.com/,3307942233,,2020-03-13,2020-03-13,Yes,S,CBD,Yes,,
Stew's Smoke Shop,2257 Newton St,,Akron,OH,44305,US,,3307337373,stewssmokeshop@hotmail.com,2019-10-20,,,S,,,,
The Glass House,1004 Kenmore Blvd,,Akron,OH,44314,US,http://www.glasshouseohio.com/,3307533600,glasshouseapplication@gmail.com,2018-09-28,,Yes,H,CBD,,,
The Odd Corner,360 E Exchange St,,Akron,OH,44304,US,,3303760852,,2019-11-01,,,H,,,,
Twisted Headz Smokeshop,1091 E Tallmadge Ave,,Akron,OH,44310,US,http://www.twistedheadz.com/,3307947856,twistedheadzsmokeshop@gmail.com,2019-01-08,,Yes,H,CBD,Yes,,
Alliance Vapor Station,640 W State St,,Alliance,OH,44601,US,http://westsidevapor.com/,3309137199,,2018-09-30,2020-03-03,Yes,V,CBD,Yes,,
Cali Culture,131 E Main St,,Alliance,OH,44601,US,https://caliculture.business.site/,3302575695,ilovemymjsalesgroup@gmail.com,2018-11-05,2021-01-03,Yes,H,CBD,Yes,,
Cheap Tobacco,1180 W State St,,Alliance,OH,44601,US,,3308230108,,2018-10-02,,Yes,S,CBD,,,
Happi Daze,2119 W State St,,Alliance,OH,44601,US,,3306808516,mezmorize2009@yahoo.com,2019-01-03,,,H,,Yes,,
The Vapor Shed,11392 Tullis Ave NE,,Alliance,OH,44601,US,,3302576347,lmudrick@neo.rr.com,2018-09-15,2019-09-09,,V,,,,
Discount Beer & Tobacco,1365 Ohio Pike,,Amelia,OH,45102,US,,5139437726,,2019-10-06,,Yes,S,CBD,Yes,,
Happys Smoke Shop,1737 E Ohio Pike,,Amelia,OH,45102,US,https://happys-smoke-shop.business.site/,5137975555,,2019-06-15,,,S,,,,
King Smoking Shop,7 W Main St #B,,Amelia,OH,45102,US,,5134494008,kingsmokingshop@yahoo.com,2018-08-07,2020-01-20,Yes,S,CBD,Yes,,
Moore Vapes,1761 E Ohio Pike Ste F,,Amelia,OH,45102,US,,5137978273,moorevapes@gmail.com,2015-06-15,2018-11-12,,V,,,,
PURE CBD,1723 Ohio Pike #1,,Amelia,OH,45102,US,https://purecbdcincy.com/,5137970024,purecbdamelia@gmail.com,2021-02-05,,Yes,C,CBD,,,
Cheap Tobacco,1915 Cooper Foster Park Rd,,Amherst,OH,44001,US,https://www.cheaptobaccousa.com/,4409607484,,2018-10-02,2021-06-15,Yes,S,CBD,,,
Glass N More Store Amherst,134 Cleveland Ave,,Amherst,OH,44001,US,http://glassnmorestore.com/,4409847639,glasswarenow@yahoo.com,2019-01-03,2020-05-10,Yes,H,CBD,Yes,,
Planet Of The Vapes - Amherst,933 N Leavitt Rd,,Amherst,OH,44001,US,,4407140055,potvamherst@gmail.com,2019-04-24,,Yes,V,CBD,,,
The Glass House,7511 Leavitt Rd,,Amherst,OH,44001,US,http://www.glasshouseohio.com/,4405419698,,2021-06-15,,,H,,,,
Your CBD Store,2231 Kresge Dr,,Amherst,OH,44001,US,https://cbdrx4u.com/find-us/ohio/amherst,4407144297,lorainoh@cbdrx4u.com,2021-06-10,2021-06-10,Yes,C,CBD,,,
Cheap Tobacco,25 Amberwood Pkwy Ste 6,,Ashland,OH,44805,US,https://www.cheaptobaccousa.com/,4192818012,,2018-10-02,2019-08-02,Yes,S,CBD,,,
Puckerfish Vape,75 Amberwood Plaza Ste G,,Ashland,OH,44805,US,https://www.puckerfishvape.com/,4194960600,,2018-10-02,,,V,,,,
Cheap Tobacco,2612 W Prospect Rd,,Ashtabula,OH,44004,US,https://www.cheaptobaccousa.com/,4409920099,,2018-10-02,,Yes,S,CBD,,,
Papa Smokes Ashtabula,1229 W Prospect Rd Ave,,Ashtabula,OH,44004,US,https://www.papasmokes.net/,4405364727,papasmokesoperations@gmail.com,2021-02-14,,Yes,S,CBD,Yes,,
Smoker Friendly,1760 W Prospect Rd,,Ashtabula,OH,44004,US,http://www.smokerfriendly.com/,4409980751,,2020-03-04,2020-03-04,,T,,,,
Your CBD Store,2318 Lake Ave,,Ashtabula,OH,44004,US,https://cbdrx4u.com,4405365011,,2020-12-07,,Yes,C,CBD,,,
Cheap Tobacco,906 E State St,,Athens,OH,45701,US,https://www.cheaptobaccousa.com/,7405921700,marketing@ctobacco.com,2018-10-02,,Yes,S,CBD,,,
Import House,68 N Court St,,Athens,OH,45701,US,http://theimporthouses.com/,7405935155,,2019-01-05,,Yes,H,CBD,,,
Silver Serpent Exotic Gifts,55 N Court St,,Athens,OH,45701,US,,7402494214,,2020-01-03,2020-06-06,Yes,S,CBD,,,
Smoke Zone,80 N Court St,,Athens,OH,45701,US,,7405920553,,2020-03-02,,Yes,S,CBD,Yes,,
Smoker Friendly,1698 S Raccoon Rd,,Austintown,OH,44515,US,http://smokerfriendly.com/,3307938955,,2020-03-03,2020-03-03,,S,,,,
Valley Tobacco,5880 Mahoning Ave,,Austintown,OH,44515,US,http://valleytobaccousa.com/,3307793830,v.tobacco@yahoo.com,2019-10-14,,Yes,S,CBD,Yes,,
Seeds of Wellness llc,33501 Lake Rd Suite H,,Avon Lake,OH,44012,US,http://www.seedsofwellnessllc.com/,4409337733,store@seedsofwellnessllc.com,2018-10-02,,Yes,C,CBD,,,
Beer & Tobacco World,143 Wooster Road N,,Barberton,OH,44203,US,,3307531871,,2018-10-14,,,T,,,,
Haze,240 5th St SE,,Barberton,OH,44203,US,,2345715001,hazeherbalhydro@gmail.com,2021-01-22,,Yes,H,CBD,,,
Stew's Smoke Shop,1424 Wooster Rd W,,Barberton,OH,44203,US,,3302171025,,2020-04-08,2020-04-08,Yes,S,CBD,Yes,,
The Glass House,536 W Tuscarawas Ave,,Barberton,OH,44203,US,http://www.glasshouseohio.com/,3307530500,glasshouseapplication@gmail.com,2018-09-28,2019-11-12,,H,,,,
Ohm Slaw Vapors Eastgate,978 Old State Route 74 Ste D,,Batavia,OH,45103,US,http://slawvapors.com/,5137528273,info@ohmslawjuice.com,2020-01-15,,Yes,V,CBD,,,
I Adore CBD,2727 Fairfield Commons Blvd #E265,,Beavercreek,OH,43950,US,https://iadorecbd.com/,9373068252,iadorecbd@gmail.com,2020-07-08,2021-02-26,Yes,C,CBD,,,
Rapture Vapor and CBD,2324 Grange Hall Rd,,Beavercreek,OH,43950,US,https://www.rapturevapor.com/,4403344651,rapturevapor2324@gmail.com,2019-05-08,2019-12-03,Yes,V,CBD,,,
The Vapor Garage,2495 Commons Blvd #A7,,Beavercreek,OH,45424,US,https://www.thevaporgarage.com/,9373068755,thevaporgarage@gmail.com,2018-09-30,,,V,,,,
Crown Smoke & Vape,8212 Princeton Glendale Rd,,Beckett Ridge,OH,45069,US,,5138891079,crownsmokeshop1@gmail.com,2022-03-18,2022-03-18,,S,,,,
Peace Pipes,3195 Union St,,Bellaire,OH,43906,US,http://peacepipes.biz/,7402982390,bellairepeacepipes@gmail.com,2019-01-08,,Yes,H,CBD,,,
The Holistic Cloud,3048 Belmont St,,Bellaire,OH,43906,US,https://theholisticcloud.com,7403103239,theholisticcloud@gmail.com,2020-12-16,,Yes,C,CBD,,,
Smokers Paradise,922 E Sandusky Ave,,Bellefontaine,OH,43311,US,,9372927827,,2021-08-12,,Yes,T,CBD,,,
Vapor Royals,1724 S Main St,,Bellefontaine,OH,43311,US,,9374049624,vaporroyals@yahoo.com,2018-08-19,2020-02-17,Yes,V,CBD,,,
Your CBD Store,930 E Sandusky Ave,,Bellefontaine,OH,43311,US,https://cbdrx4u.com,9374049321,bellefontaine559@cbdrx4u.com,2020-12-07,,Yes,C,CBD,,,
Glass N More Store Inc. Bellevue,110 E Main St,,Bellevue,OH,44811,US,,5672144046,glasswarenow@yahoo.com,2019-01-03,2020-05-10,Yes,H,CBD,Yes,,
Royal Smokes,404 W Bagley Rd,,Berea,OH,44017,US,https://royalsmokes.business.site/,4402974034,royalsmokes2020@gmail.com,2021-08-09,2021-08-09,Yes,S,CBD,Yes,,
Choice Cigars & Tobacco,110 E Plane St #A,,Bethel,OH,45106,US,,5137346180,,2019-08-05,,,S,,,,
Peb's Smokes & Things,107 S Broadway St,,Blanchester,OH,45107,US,,9377832384,,2018-09-30,2018-11-12,Yes,S,CBD,Yes,,
Atom's Glass & Vape,92 Boardman-Poland Rd,,Boardman,OH,44512,US,https://atomsglassandvape.com/,3309532110,theguys@atomsglassandvape.com,2018-08-06,2021-08-02,Yes,H,CBD,,,
"Blended Botanicals, LLC",8060 Southern Blvd Ste D,,Boardman,OH,44512,US,https://www.blendedbotanicals.com,3309532233,blendedbotanical@gmail.com,2020-04-02,,Yes,O,CBD,Yes,,
Pipe Dreamz,4605 Market St,,Boardman,OH,44512,US,,3307889100,mezmorize2009@yahoo.com,2019-01-03,,Yes,H,CBD,Yes,,
Retro Vape,4605 Market St Ste 3,,Boardman,OH,44512,US,,3309530500,,2018-10-02,,,V,,,,
Rocco's Vape Lounge,1235 Boardman Canfield Rd Ste 2,,Boardman,OH,44512,US,,2342544223,roccosvapelounge@gmail.com,2018-10-02,,,V,,,,
Tobacco City,110 Boardman Poland Rd,,Boardman,OH,44512,US,,3302702705,,2021-08-04,,,S,,,,
Your CBD Store,106 Boardman Poland Rd,,Boardman,OH,44512,US,https://cbdrx4u.com,8776310130,boardman566@cbdrx4u.com,2020-12-07,,Yes,C,CBD,,,
Loonar Station,163 N Main St,,Bowling Green,OH,43402,US,http://www.loonarstation.com,4198064614,,2019-01-08,,Yes,H,CBD,,,
Rise Smoke/Vape Shop,425 E Wooster St Ste B,,Bowling Green,OH,43402,US,,4193156702,,2018-12-03,2019-09-18,Yes,H,CBD,Yes,,
Vape Super Center,1616 E Wooster St Ste 2,,Bowling Green,OH,43402,US,https://www.vscstore.com/,4198064189,dan@vapesupercenter.com,2018-09-30,,Yes,V,CBD,,,
Wild Bill's Tobacco,1060 N Main St,,Bowling Green,OH,43402,US,https://wildbillstobacco.com,4193525989,,2020-12-10,2020-12-10,Yes,S,CBD,Yes,,
House of Vapes,1100 W Royaltron Rd,,Broadview Heights,OH,44147,US,,4404577670,,2018-08-06,2021-08-09,Yes,V,CBD,,,
Icabod's Smoke Shop,394 OH-7,,Brookfield Township,OH,44403,US,http://www.icabodsmoke.com/,3306195316,customercare@icabodsmoke.com,2019-12-03,,,T,,,,
The Land Smoke Shop,4308 Ridge Rd,,Brooklyn,OH,44144,US,https://smokeshopbrooklyn.com/,2164178668,,2021-08-10,,,S,,Yes,,
Brookpark Smokes & Beverages,5707 Smith Rd,,Brookpark,OH,44142,US,,2162650367,,2021-08-09,,Yes,S,CBD,Yes,,
Jojo Vapes,428 N Wolfe Creek St,,Brookville,OH,45309,US,https://jojovapes.com/,9377703006,sales@jojovapes.com,2018-09-30,,,V,,,,
Brunswick Smoke Shop,3843 Center Rd,,Brunswick,OH,44212,US,,3302251295,brunswicksmokes@yahoo.com,2019-07-29,,,T,,,,
Discount Cigarette Mart,55 Pearl Rd,,Brunswick,OH,44212,US,,3302731290,,2019-09-13,,,S,,,,
Havana's Choice Cigars,170 Pearl Rd,,Brunswick,OH,44212,US,https://havanaschoicecigars.com/pearl-rd-brunswick/,2348032012,info@havanaschoicecigars.com,2021-07-31,2021-07-31,Yes,T,CBD,,,
Just Vape and CBD,3813 Center Rd,,Brunswick,OH,44212,US,http://www.justvapeohio.com/,3304603043,justvapeohio@gmail.com,2018-08-07,2020-01-26,Yes,V,CBD,,,
Kings Of Vapor Brunswick,3305 Center Rd 13,,Brunswick,OH,44212,US,https://www.vapeshopbrunswick.com/,3305589008,kingsofvaporbrunswick@gmail.com,2019-04-13,,Yes,V,CBD,Yes,,
Nhalables,1147 Pearl Rd,,Brunswick,OH,44212,US,http://www.nhalables.com,3308798645,nhalables@gmail.com,2019-01-03,2020-01-03,Yes,H,CBD,,,
Radical Vapes,1480 Pearl Rd #11,,Brunswick,OH,44212,US,https://www.vaporshopbrunswick.com/,3302209122,,2018-10-02,,,V,,,,
E Vapor Hut,209 S Main St,,Bryan,OH,43506,US,https://www.evaporhut.com/,4197992978,april@evaporhut.com,2014-08-28,2021-06-16,Yes,V,CBD,,,
Wild Bill's Tobacco,1121 W High St,,Bryan,OH,43506,US,https://www.wildbillstobacco.com/,4196300332,,2019-09-02,2019-09-02,,S,,Yes,,
Smokey's Tobacco & Brew,314 N Sandusky Ave,,Bucyrus,OH,44820,US,,4195629622,,2020-03-20,,Yes,S,CBD,,,
Cheap Tobacco,1250 Southgate Pkwy,,Cambridge,OH,43725,US,https://www.cheaptobaccousa.com/,7404399601,marketing@ctobacco.com,2018-10-02,2019-06-12,Yes,S,CBD,Yes,,
Hollywood Vapor,2330 Locust St S,,Canal Fulton,OH,44614,US,https://hollywood-vapor.business.site/,3309704141,,2018-09-30,,,V,,,,
Canal Winchester Vapor Station,6286 Gender Rd,,Canal Winchester,OH,43110,US,http://www.westsidevapor.com/,6148296710,,2018-06-02,2018-11-11,Yes,V,CBD,,,
Save n Smoke,6211 Gender Rd,,Canal Winchester,OH,43110,US,,6143214985,,2020-02-14,,,S,,,,
The Vape Room,3544 Gender Rd,,Canal Winchester,OH,43110,US,,6145246444,thevaperoomcw@gmail.com,2018-09-28,2021-12-11,Yes,V,CBD,,,
AltSmoke,4360 Belden Village St NW,,Canton,OH,44718,US,https://altsmoke.com/,3309158398,,2014-08-26,2019-02-18,,V,,,,
Beadle Hut 2nd Chance,3010 12th St NW,,Canton,OH,44708,US,,3304555166,,2018-11-05,2018-11-05,,H,,,,
Cheap Tobacco,2872 Whipple Ave NW,,Canton,OH,44720,US,http://www.cheaptobacco.com/,3304772568,,2018-10-02,,Yes,S,CBD,,,
InkShak,1139 12th St NW,,Canton,OH,44703,US,,3304520444,inkshak2015@gmail.com,2018-12-26,,Yes,H,CBD,Yes,,
Just Vape and CBD,1220 30th St NW,,Canton,OH,44709,US,http://www.justvapeohio.com/,2343603866,justvapeohio@gmail.com,2018-08-07,2020-01-20,Yes,V,CBD,,,
Kronung Vapors,5862 Fulton Dr NW,,Canton,OH,44718,US,,3302449468,,2018-08-07,2020-01-21,Yes,V,CBD,,,
Quonset Hut,3775 Cleveland Ave NW,,Canton,OH,44709,US,http://www.qhut.com/,3304921293,info@qhut.com,2018-10-27,2021-06-18,Yes,H,CBD,,,
The Party Store,2535 Tuscarawas St W,,Canton,OH,44708,US,,3304522026,,2019-10-31,,,T,,,,
The Vapor Lounge LLC,4026 Cleveland Ave NW,,Canton,OH,44709,US,,3304914861,vaporlounge330@yahoo.com,2018-09-15,,,V,,,,
Therapy,4968 Tuscarawas St W,,Canton,OH,44708,US,,3304799920,mezmorize2009@yahoo.com,2018-11-19,2022-02-01,,H,,Yes,,
V Cignature 2,1430 Whipple Ave NW,,Canton,OH,44708,US,,3306206459,smokeanywhereinc@gmail.com,2019-10-14,,,V,,Yes,,
Vapor Station Canton,2850 Whipple Ave NW,,Canton,OH,44708,US,http://www.westsidevapor.com/,3304797183,kellie1323@yahoo.com,2018-08-19,2021-10-07,Yes,V,CBD,,,
The Refuge,2600 OH-568 Ste C,,Carey,OH,43316,US,http://www.refugevapors.com/,4193961588,customerservice@refugevapors.com,2019-10-31,,,V,,,,
The Joint on 33,3560 Dolson Ct Ste C,,Carroll,OH,43112,US,https://www.thejointonhigh.com/the-joint-on-33,7404155349,jointon33@gmail.com,2022-01-17,2022-01-17,Yes,S,CBD,,,
M & M Tobacco,701 Canton Rd NW,,Carrollton,OH,44615,US,,3306272579,mmtobacco10@yahoo.com,2020-01-05,,,T,,,,
Grand Lake Vapor,419 S Main St,,Celina,OH,45822,US,,4198528010,,2018-10-02,,,V,,,,
CBD Oil of Dayton,6052 Wilmington Pike,,Centerville,OH,45459,US,https://cbdhempoiloh.com/,9377099012,dayton@cbdhempoiloh.com,2020-11-28,,Yes,C,CBD,,,
I-Vape,1001 S Main St,,Centerville,OH,45458,US,,9379513722,ivapecenterville@yahoo.com,2018-08-07,2021-10-03,Yes,S,CBD,,,
Vapor Haus,1002 Miamisburg Centerville Rd,,Centerville,OH,45458,US,https://vapor-haus-centerville.business.site/,9379387288,chris.vaporhaus@gmail.com,2018-08-19,2020-02-17,Yes,V,CBD,,,
VaporCast,175 E Alex Bell Rd Ste 260,,Centerville,OH,45459,US,http://www.vaporcast.com/,9374363540,adam@vaporcast.com,2018-08-19,2020-02-17,,V,,,,
Your CBD Store,5820 Wilmington Pike,,Centerville,OH,45459,US,https://cbdrx4u.com,9375220049,centerville505@cbdrx4u.com,2020-12-07,,Yes,C,CBD,,,
Nimbus Vapors,8555 E Washington St,,Chagrin Falls,OH,44023,US,,4407081309,nimbusvapors@gmail.com,2019-05-05,2019-05-05,,V,,,,
Higher Minds,4541 Mahoning Ave NW,,Champion,OH,44483,US,http://www.shophigherminds.com,3308470449,info@highermindsllc.com,2018-10-30,,Yes,H,CBD,Yes,,
Coop's Tobacco & More,602 South St,,Chardon,OH,44024,US,,4402790102,,2019-08-31,2019-08-31,,S,,,,
Premium Hemp Co.,409 Water St,,Chardon,OH,44024,US,https://premiumhempco.com/,4402149075,premiumhempco@gmail.com,2020-02-04,2021-02-09,Yes,C,CBD,,,
Premium Vapors,409 Water St,,Chardon,OH,44024,US,http://premiumvaporsinc.com/,4402149075,premiumvapors@gmail.com,2021-07-30,,Yes,V,CBD,,,
Save On Cigarettes,540 Water St Ste 103,,Chardon,OH,44024,US,http://www.tobaccoshopchardonoh.com/,4402863333,saveoncigarettes02@gmail.com,2019-06-21,2021-08-02,Yes,S,CBD,Yes,,
District 4 Vapor - Chesapeake OH,530 3rd Ave Ste 6,,Chesapeake,OH,45619,US,https://district4vapor.com/,7405310002,sales@district4vapor.com,2018-06-25,2019-07-05,,V,,,,
3rd Rock Vapor,79 N Paint St,,Chillicothe,OH,45601,US,,7407028273,3rdrockvapor@gmail.com,2018-09-30,,Yes,V,CBD,,,
Cheap Tobacco,1 N Bridge St,,Chillicothe,OH,45601,US,https://www.cheaptobaccousa.com/,7407725600,marketing@ctobacco.com,2018-10-02,,Yes,S,CBD,,,
Smoker Friendly,613 Central Center,,Chillicothe,OH,45601,US,https://www.smokerfriendlywv.com/,7407799710,,2018-10-02,2018-10-28,Yes,S,CBD,,,
Smoker Friendly,1080 N Bridge St,,Chillicothe,OH,45601,US,https://www.smokerfriendlywv.com/,7407752180,,2018-10-02,2018-10-28,Yes,S,CBD,,,
The CBD Store,4 Consumer Center Dr,,Chillicothe,OH,45601,US,,7406567554,cbdstoreoh@gmail.com,2020-12-19,,Yes,C,CBD,,,
Vapor Station Chillicothe,1534 N Bridge St,,Chillicothe,OH,45601,US,https://www.vaporstation.com/,7407738273,help@vaporstation.com,2018-08-19,2019-10-07,Yes,V,CBD,,,
Vapors,2 Consumer Center Dr Ste 2,,Chillicothe,OH,45601,US,http://www.fusejuse.com/,7407758273,juice@fusejuse.com,2016-07-19,2019-02-02,,V,,,,
Waterbeds N Stuff,885 N Bridge St,,Chillicothe,OH,45601,US,http://www.waterbedsnstuff.com,7407751171,admin@waterbedsnstuff.com,2018-11-08,2019-10-29,Yes,H,CBD,Yes,,
A 2 Z Smoke Shop,7618 Hamilton Ave,,Cincinnati,OH,45231,US,http://a2zsmokeshop.business.site/,5138323718,,2019-07-14,,,S,,,,
AltSmoke,4450 Eastgate South Dr Ste 248,,Cincinnati,OH,45245,US,https://altsmoke.com/,5138436727,,2014-08-26,2019-02-18,,V,,,,
Bell's House of Tobacco,12123 Montgomery Rd,,Cincinnati,OH,45249,US,http://www.bellscigar.com/,5137740270,bells1@fuse.net,2018-08-06,2019-08-16,,T,,,,
Big Cloud Smoke Shop,10974 Hamilton Ave,,Cincinnati,OH,45231,US,,5139993777,,2021-08-10,,Yes,S,CBD,,,
Choice Cigars & Tobacco,545 Clough Pike #600,,Cincinnati,OH,45244,US,,5135286160,,2019-08-05,,,S,,,,
Cincinnati Hemp Company,101 W Elder St,,Cincinnati,OH,45202,US,https://www.cincinnatihempcompany.org/,5134210123,support@cincinnatihempcompany.org,2021-08-05,,Yes,C,CBD,,,
Cincinnati Vapor Trail,8433 Beechmont Ave,,Cincinnati,OH,45255,US,,5133889600,,2017-12-02,2019-01-19,,V,,,,
Cincy Vapors,6586 Glenway Ave,,Cincinnati,OH,45205,US,http://cincy-vapors.com/,5135741232,info@cincy-vapors.com,2014-08-28,2019-02-18,,V,,,,
Cut Rate Tobacco At Hi-Lo Beverage,6595 Glenway Ave,,Cincinnati,OH,45211,US,,5135742563,,2019-09-02,,,T,,,,
Discount Tobacco,356 Northland Blvd,,Cincinnati,OH,45246,US,,5132236809,discounttobacco356@yahoo.com,2019-10-31,2019-10-31,Yes,S,CBD,,,
Eastgate Tobacco Junction,775 Eastgate S Dr #B,,Cincinnati,OH,45245,US,http://eastgatesmokeshop.com/,5132783136,,2019-10-05,2019-10-05,Yes,S,CBD,Yes,,
Helix Vapor,834 OH-125,,Cincinnati,OH,45245,US,,5137520235,,2019-11-28,2019-11-28,,V,,,,
Hemptations,2034 Madison Rd,,Cincinnati,OH,45208,US,https://www.hemptations.com/,5138714367,hemptations@yahoo.com,2019-01-08,,Yes,H,CBD,,,
High on the Hill,8683 OH-32,,Cincinnati,OH,45244,US,http://hothcincy.com/,5134741545,hoth_1978@yahoo.com,2018-12-26,,Yes,H,CBD,Yes,,
I.M. Dazed,2038 Beechmont Ave,,Cincinnati,OH,45230,US,https://im-dazed.business.site/,5132310527,im.dazedcorp@gmail.com,2021-08-05,,Yes,S,CBD,,,
King Vapors,3408 Harrison Ave,,Cincinnati,OH,45211,US,,5136628273,,2018-08-07,2020-01-20,Yes,V,CBD,,,
Lefty's Tobacco Colerain,8459 Colerain Ave Ste C,,Cincinnati,OH,45239,US,https://www.leftysplus.com/,5139239222,leftysplus@gmail.com,2018-08-07,2019-06-11,,S,,,,
Mazaj Smoke Shop,10045 Springfield Pike,,Cincinnati,OH,45215,US,https://mazaj-smoke-shop-ohio.business.site/,5139781006,,2021-08-05,,Yes,S,CBD,,,
Mt Lookout Smoke Shop,3165 Linwood Ave,,Cincinnati,OH,45208,US,https://mt-lookout-smoke-shop.business.site/,5138739590,mtlookoutsmokeshop@gmail.com,2021-08-05,2021-08-05,,S,,,,
Nu Image,4601 Eastgate Blvd Ste 200,,Cincinnati,OH,45245,US,,5139470312,,2021-08-05,,,H,,,,
Ohio CBD Guy,9520 Montgomery Rd,,Cincinnati,OH,45242,US,https://ohiocbdguy.com/,5138734355,ohiocbdguy@gmail.com,2021-02-21,,Yes,C,CBD,,,
Ohio CBD Guy - Cincinnati,2817 Woodburn Ave,,Cincinnati,OH,45206,US,https://ohiocbdguy.com/,5138736040,ohiocbdguy@gmail.com,2021-02-21,,Yes,C,CBD,,,
Peb's Too Smokes & Things,3114 Springdale Rd,,Cincinnati,OH,45251,US,,5138279088,,2019-01-05,,Yes,S,CBD,Yes,,
Planet Caravan Smoke Shop,9268 Colerain Ave,,Cincinnati,OH,45251,US,,5133810710,planetcaravan513@gmail.com,2021-02-10,,Yes,S,CBD,,,
Planet Caravan Smoke Shop,243 W McMillan St,,Cincinnati,OH,45219,US,https://www.planetcaravansmokeshop.com/,5135790420,,2018-10-02,,,S,,,,
Planet Caravan Smoke Shop,2826 Jefferson Ave,,Cincinnati,OH,45219,US,https://www.planetcaravansmokeshop.com/,5138610420,,2018-10-02,,,S,,,,
Puff Smoke Shop,73 W McMillan St,,Cincinnati,OH,45219,US,http://www.puffsmokeshop.biz/,5139145662,puffsmokeshop2724@gmail.com,2018-10-02,2021-06-15,Yes,S,CBD,,,
Puff Smoke Shop,2724 Vine St,,Cincinnati,OH,45219,US,http://www.puffsmokeshop.biz/,5139545541,puffsmokeshop2724@gmail.com,2018-10-02,,Yes,S,CBD,,,
Puff Smoke Shop,261 W McMillan St,,Cincinnati,OH,45219,US,http://www.puffsmokeshop.biz/,5136207051,puffsmokeshop261@gmail.com,2018-10-02,,Yes,S,CBD,,,
Puff Smoke Shop,5979 Glenway Ave #C,,Cincinnati,OH,45238,US,http://www.puffsmokeshop.biz/,5139237833,puffsmokeshop261@gmail.com,2021-06-15,,Yes,S,CBD,,,
Scarlet Vapors & Smoke Shop,11424 Montgomery Rd,,Cincinnati,OH,45249,US,http://www.scarletsmokeshop.com/,5132478383,harpers@scarletsmokeshop.com,2020-01-03,2020-01-03,Yes,S,CBD,,,
Smoke N Save,1091 Ohio Pike,,Cincinnati,OH,45245,US,https://www.smokensaveoh.com/,5139437283,,2019-10-06,2019-10-06,Yes,S,CBD,Yes,,
Studio Vapes,9680 Colerain Ave,,Cincinnati,OH,45251,US,https://www.studiovapes.com/,5134104923,studiovapes@gmail.com,2018-09-28,2018-11-13,,V,,,,
Studio Vapes,6302 Harrison Ave,,Cincinnati,OH,45247,US,https://www.studiovapes.com/,5135506937,studiovapes@gmail.com,2018-09-28,,,V,,,,
Studio Vapes,5872 Cheviot Rd,,Cincinnati,OH,45247,US,https://www.studiovapes.com/,5136526583,studiovapes@gmail.com,2018-09-12,,,V,,,,
Terps Smokeshop & Gallery,6213 Montgomery Rd,,Cincinnati,OH,45213,US,https://terps.shopsettings.com/,5138738515,terpsgallery@gmail.com,2020-08-30,2020-08-30,Yes,H,CBD,,,
The Annex Smoke Shop/Gypsy Hookah Lounge,117 Calhoun St,,Cincinnati,OH,45219,US,https://www.annexgypsy.com/,5134076199,rzayed26@yahoo.com,2018-11-26,2021-08-05,,S,,,,
The Cupboard,2613 Vine St,,Cincinnati,OH,45219,US,http://the-cupboard.net/,5132818110,info@the-cupboard.net,2018-11-25,,Yes,H,CBD,,,
The Eastern Kentucky Hemp Company,231 W McMillan St,,Cincinnati,OH,45219,US,https://ekyhemp.com/,5139933012,,2021-11-27,2021-11-27,Yes,C,CBD,,,
Up In Smoke,5729 Glenway Ave,,Cincinnati,OH,45238,US,,5139220600,c9220600@gmail.com,2018-10-29,,Yes,S,CBD,,,
Vape It Up,5063 Delhi Ave,,Cincinnati,OH,45238,US,http://www.vapeitupcincinnati.com/,5133869087,vapeitupdelhi@yahoo.com,2018-09-15,,,V,,,,
Vapor Vybe,8601 Winton Rd,,Cincinnati,OH,45231,US,,5135228923,,2018-08-19,2020-02-17,Yes,V,CBD,,,
Village Vapours,7813 Laurel Ave,,Cincinnati,OH,45243,US,,5139238273,cincinnati-ohio@hotmail.com,2018-08-19,2020-02-17,Yes,V,CBD,,,
VIP Discount & Smoke Shop,7014 Vine St,,Cincinnati,OH,45216,US,,5134293075,vip45211@yahoo.com,2019-09-28,,,S,,,,
VIP Wireless & Smoke Shop,3197 Harrison Ave,,Cincinnati,OH,45211,US,,5139540125,,2019-09-28,,,S,,,,
Wonderland Smoke Shop,314 Ludlow Ave,,Cincinnati,OH,45220,US,http://www.wonderlandsmokeshop.net/,5134073233,wonderlandsmokeshop18@gmail.com,2018-08-19,2020-02-17,Yes,S,CBD,,,
"Your CBD Store - Anderson Township, OH",8144 Beechmont Ave,,Cincinnati,OH,45255,US,https://cbdrx4u.com/,5138736000,cbd3507@gmail.com,2019-09-15,2019-09-15,Yes,C,CBD,,,
Your CBD Store - Deerfield Township,9984 Kings Auto Mall Rd,,Cincinnati,OH,45249,US,https://cbdrx4u.com/find-us/ohio/deerfield-township,5134444022,yourcbdstoredeerfieldtwp@gmail.com,2021-06-10,,Yes,C,CBD,,,
Your CBD Store - Green Township,6355 Harrison Ave #12,,Cincinnati,OH,45248,US,https://cbdrx4u.com,5139794010,,2020-12-06,2021-06-10,Yes,C,CBD,,,
Your CBD Store - Red Bank,4791 Red Bank Expressway,,Cincinnati,OH,45227,US,https://cbdrx4u.com/find-us/ohio/red-bank,5135104430,redbank627@cbdrx4u.com,2021-06-10,2021-06-10,Yes,C,CBD,,,
"Your CBD Store - Springdale, OH",11802 Springfield Pike Ste 15,,Cincinnati,OH,45246,US,https://cbdrx4u.com,5136710081,springdale611@cbdrx4u.com,2020-12-06,,Yes,C,CBD,,,
Smoke and Cell,1027 S Court St,,Circleville,OH,43113,US,http://smokeandcell.business.site/,7404200011,,2019-12-27,,,S,,,,
Vapors Of Ohio,1236 N Court St,,Circleville,OH,43113,US,http://www.fusejuse.com/,7405006026,juice@fusejuse.com,2019-10-01,,Yes,V,CBD,,,
All Puffs Vape & Smoke Shop,2124 Brookpark Rd,,Cleveland,OH,44134,US,,2163310131,,2022-01-24,2022-01-24,Yes,S,CBD,,,
Brothers Boutique,4117 E 71st St,,Cleveland,OH,44105,US,,2164290969,bbrinsey@gmail.com,2018-11-25,,,H,,,,
Cleveland Botanical Destination,2823 Detroit Ave,,Cleveland,OH,44113,US,https://www.cbdhingetown.com/,2164174344,info@cbdhingetown.com,2022-03-25,2022-03-25,Yes,C,CBD,,,
Daystar Boutique,15798 Lorain Ave,,Cleveland,OH,44111,US,http://www.shopdaystar.com/,2169414144,,2019-01-07,,Yes,H,CBD,,,
Daze & Nite,3477 W 117th,,Cleveland,OH,44111,US,,2164653074,,2021-08-09,,Yes,S,CBD,Yes,,
Discount Cigarette Mart,5323 Broadview Rd,,Cleveland,OH,44134,US,,2167391903,,2019-09-13,2019-09-13,,S,,,,
Discount Cigarette Mart,5855 Turney Rd,,Cleveland,OH,44125,US,,2164754815,,2019-09-13,,,S,,,,
Discount Tobacco & Beverage,744 Richmond Rd,,Cleveland,OH,44143,US,,2162979944,,2019-11-04,,Yes,S,CBD,Yes,,
Fli High Smoke shop,3005 Clark Ave,,Cleveland,OH,44109,US,https://www.smokeshopcleveland.com/,2163127921,,2021-08-09,,Yes,S,CBD,Yes,,
Flower City Gift Shop,2999 Payne Ave Ste 124,,Cleveland,OH,44114,US,https://flowercity.com/,2166966628,flowercitygiftshop@gmail.com,2021-08-09,,,H,,,,
Get Lit Tobacco & Vape Store,12204 Lorain Ave,,Cleveland,OH,44111,US,,2169387653,,2020-03-02,,Yes,S,CBD,Yes,,
High Society Boutique,11223 Detroit Rd,,Cleveland,OH,44102,US,http://highsocietyboutique.com/,2168624906,highsocietyboutique.cleveland@gmail.com,2019-01-07,,,H,,,,
Memie's Green Room,23575 Lorain Rd,,Cleveland,OH,44070,US,https://eosandteas.com/,4404714277,,2020-01-20,2020-01-20,Yes,C,CBD,Yes,,
Midnight Smoke Shop & More,3712 Pearl Rd,,Cleveland,OH,44109,US,https://midnight-smoke-shop-and-more.business.site/,2167130618,,2019-06-17,,Yes,S,CBD,Yes,,
Parma Heights Smoke Shop,6647 Pearl Rd,,Cleveland,OH,44130,US,,4408863449,,2018-10-31,2020-03-02,Yes,S,CBD,Yes,,
Peter Pipers Pipe Shop,9410 Lorain Ave.,,Cleveland,OH,44102,US,,2166311655,,2020-02-20,,,S,,,,
Planet Of The Vapes,4200 W 130th St,,Cleveland,OH,44135,US,,2169067777,,2016-03-15,2019-01-30,Yes,V,CBD,,,
Record Revolution,1832 Coventry Rd,,Cleveland,OH,44118,US,,2163217661,recordrev@yahoo.com,2018-11-30,2018-11-30,,H,,,,
Savvy Smokes,10324 St Clair Ave,,Cleveland,OH,44108,US,,2166753139,,2020-02-15,,,S,,,,
Smoke World,6493 Pearl Rd,,Cleveland,OH,44130,US,,4408421988,,2020-03-02,,,S,,,,
The Glass House,4264 Pearl Rd,,Cleveland,OH,44109,US,http://www.glasshouseohio.com/,2167493440,glasshouseapplication@gmail.com,2018-09-28,,,H,,,,
The Real Deal Boutique,9607 Lorain Ave,,Cleveland,OH,44102,US,http://www.trdleather.com/,2169617510,trdleather@hotmail.com,2018-11-12,2019-06-19,,H,,Yes,,
The Releaf Center,3284 W 117th St,,Cleveland,OH,44111,US,,2167955954,,2020-12-09,,Yes,C,CBD,,,
Vapor House - South Euclid,14439 Cedar Rd,,Cleveland,OH,44121,US,,2167447175,,2021-08-01,2021-08-01,Yes,S,CBD,,,
Wax & Beyond,5100 Pearl Rd,,Cleveland,OH,44129,US,,2163519292,waxandbeyond@yahoo.com,2018-12-27,,Yes,H,CBD,Yes,,
Sunshine Headquarters Too,1788 Coventry Rd,,Cleveland Heights,OH,44118,US,,2163211211,sunshinehq2@yahoo.com,2018-11-04,2018-11-04,Yes,H,CBD,Yes,,
Twisted Minds,2150 Lee Rd,,Cleveland Heights,OH,44118,US,http://www.twistedmindssmokeshop.com,2163469950,esanyok@gmail.com,2018-12-27,2021-07-14,Yes,S,CBD,Yes,,
Vapor Express,323 Marion Pike Ste 3,,Coal Grove,OH,45638,US,,7404427169,vaporexpress45638@gmail.com,2018-09-24,,,V,,,,
Stone Creek Boutique,24521 Sprague Rd,,Columbia Station,OH,44028,US,,4402350483,,2018-12-06,,Yes,H,CBD,,,
A M Smoke Shop,2500 Clime Rd,,Columbus,OH,43223,US,,6142720199,,2019-07-14,,,S,,,,
AltSmoke,2460 N High St,,Columbus,OH,43202,US,https://altsmoke.com/,6147325694,,2014-08-26,2019-02-18,,V,,,,
AVAIL Vapor - Olentangy,811 Bethel Rd Ste 140,,Columbus,OH,43214,US,https://www.availvapor.com/,6148264537,custservice@availvapor.com,2018-08-06,2019-06-18,Yes,V,CBD,,,
Busch Center Smoke & More,6112 Boardwalk St,,Columbus,OH,43229,US,,6147850800,,2019-07-29,,,S,,,,
Carolina Hemp Company,5212 N High St Ste A,,Columbus,OH,43214,US,https://www.carolinahempcompany.com/,6149875885,shaun@chchemp.com,2020-11-23,,Yes,C,CBD,,,
Cigs-N-Such,1898 Hard Rd,,Columbus,OH,43235,US,,6143890279,cnscustomerservice@hotmail.com,2019-08-28,2019-08-28,Yes,S,CBD,,,
Clique614,2930 N High St,,Columbus,OH,43202,US,http://clique614.com/,6147064248,clique614ever@gmail.com,2021-08-06,,Yes,C,CBD,,,
Cloud Nine,2151 E Dublin Granville Rd,,Columbus,OH,43229,US,,6142620999,,2018-10-02,2020-03-13,Yes,H,CBD,Yes,,
Cloud Nine,2136 Eakin Rd Ste A,,Columbus,OH,43223,US,,6143080999,,2018-10-02,2020-03-13,Yes,H,CBD,Yes,,
Columbus Botanical Depot,14 W Pacemont Rd,,Columbus,OH,43202,US,http://www.cbdhemphealth.com,6144074420,columbusbotanicaldepot@gmail.com,2018-12-13,2019-08-16,Yes,C,CBD,,,
Great Vapes,1294 Bethel Rd,,Columbus,OH,43220,US,http://www.greatvapes.biz/,6149148558,,2018-08-06,2019-12-23,Yes,V,CBD,,,
Headies Hideout,114 Parsons Ave,,Columbus,OH,43215,US,http://headieshideout.com,6146008680,headieshideout@gmail.com,2018-12-23,2018-12-23,,H,,,,
High Up Head Shop,1434 N High St,,Columbus,OH,43201,US,,6147325400,,2018-11-06,2019-10-25,Yes,H,CBD,,,
Hookah Rush,2394 N High St,,Columbus,OH,43202,US,,6142676463,hookahrush@gmail.com,2021-08-06,2021-08-06,Yes,T,CBD,,,
House of Cigar,7099 Huntley Rd,,Columbus,OH,43229,US,http://houseofcigar.net/,6148486764,houseofcigar@yahoo.com,2019-12-10,,Yes,T,CBD,,,
Humidor Plus,6157 Cleveland Ave,,Columbus,OH,43231,US,,6148919483,humidorpluscigarswine@gmail.com,2021-08-07,,,T,,,,
Life Of Kratom,2398 N High St,,Columbus,OH,43081,US,https://lifeofkratom.com/,6145309297,lokcolumbus@gmail.com,2021-03-13,,Yes,O,CBD,,,
Lockbourne Smoke Shop,1730 Lockbourne Rd # B,,Columbus,OH,43207,US,,6144438427,,2019-12-30,,,S,,,,
Midwest Wellness,5425 Bethel Sawmill Center,,Columbus,OH,43235,US,https://www.midwestwellnessstore.com/,6144679900,midwestwellness.info@gmail.com,2021-08-07,2021-08-07,Yes,C,CBD,,,
Miracle Kratom,3643 W Broad St,,Columbus,OH,43228,US,https://buykratompowders.com/,6147158444,info@buykratompowders.com,2021-03-13,2021-03-13,Yes,O,CBD,,,
Poor Girls Vapor,5329 W Broad St,,Columbus,OH,43228,US,,6146330880,,2018-10-02,,,V,,,,
Purely CBD,3258 E Main St,,Columbus,OH,43213,US,https://www.purelycbd.net/,6149273567,columbus@thepurelycbd.com,2020-11-06,,Yes,C,CBD,,,
S F & M Tobacco N More,3329 Maize Rd,,Columbus,OH,43224,US,,6147251163,,2020-02-13,2020-02-13,,T,,,,
Smoke Outlet,2471 E Dublin Granville Rd,,Columbus,OH,43229,US,,6148958600,,2020-02-20,2020-02-20,,T,,,,
Smoke Outlet,1635 Parsons Ave,,Columbus,OH,43207,US,,6144491700,,2020-02-20,,,T,,,,
Smoke Shop,1895 Sullivant Ave,,Columbus,OH,43223,US,https://smokeshoop.com/,6142792227,,2020-02-24,,Yes,S,CBD,Yes,,
Smoke Zone,1202 N High St,,Columbus,OH,43201,US,,6147541656,inthesmokezone@gmail.com,2019-01-08,,Yes,S,CBD,,,
Smoke Zone,4 E 13th Ave,,Columbus,OH,43201,US,,6148242331,smokezonefacebook@gmail.com,2019-01-08,,Yes,S,CBD,,,
Smokie Talkie,1230 Demorest Rd,,Columbus,OH,43204,US,,6142749960,demorestcellular@gmail.com,2020-02-14,2020-02-14,Yes,S,CBD,,,
The Columbus Vapor Connection,183 S Hamilton Rd,,Columbus,OH,43213,US,http://www.columbusvapors.com/,6149471775,thevaporconnection183@gmail.com,2019-05-20,2019-05-20,,V,,,,
The Hippie Hut Guitars & Things,1359 N High St,,Columbus,OH,43201,US,http://hippiehutonline.com/,6146705775,hippiehut1@yahoo.com,2018-11-28,,Yes,H,CBD,,,
The Joint on High,1186 N High St,,Columbus,OH,43201,US,http://www.thegardencolumbus.net/thejoint/,6142981394,jointonhigh@gmail.com,2019-01-01,2022-01-17,Yes,S,CBD,Yes,,
The Vape Spot,1456 Bethel Rd,,Columbus,OH,43220,US,,6144597022,ohiovape@gmail.com,2018-09-22,,,V,,,,
The Wild Man's Leather-N-Lace,2264 S Hamilton Rd,,Columbus,OH,43232,US,,6148666764,,2019-07-07,2019-07-07,Yes,S,CBD,Yes,,
Tobacco and Brew Discount Mart,3192 N High St,,Columbus,OH,43202,US,,6149727286,,2021-08-07,,,S,,,,
Tobacco Discounters,3767 S High St,,Columbus,OH,43207,US,,6144970757,tdohio5@gmail.com,2018-09-15,,Yes,T,CBD,Yes,,
Tobacco Discounters,208 Graceland Blvd,,Columbus,OH,43214,US,,6147810050,,2020-01-13,2020-01-13,,S,,Yes,,
Tobacco Discounters,2139 Eakin Rd,,Columbus,OH,43223,US,,6149295650,,2021-08-07,2021-08-07,Yes,S,CBD,,,
Tobacco Outlet,4804 W Broad St,,Columbus,OH,43228,US,http://www.tobaccoroadoutlet.com/,6149545004,info@tobaccoroadoutlet.com,2019-09-21,,,S,,,,
Tobacco Outlet,5769 Cleveland Ave,,Columbus,OH,43231,US,,,,2019-11-10,2019-11-10,,S,,,,
Top Notch Vapor,3496 W Dublin Granville Rd,,Columbus,OH,43235,US,http://www.top-notchvapor.com/,6145537144,jamie@top-notchvapor.com,2014-09-25,2018-11-13,,V,,,,
Uprite Vapor,3270 S High St,,Columbus,OH,43207,US,https://www.upritevapor.com/,6146542123,upritevapor@yahoo.com,2018-09-15,,Yes,V,CBD,,,
USA Tobacco,4967 N High St,,Columbus,OH,43214,US,,6144339286,,2019-10-28,,,S,,,,
Vapor Maven,1345 Worthington Centre Dr,,Columbus,OH,43085,US,https://vapormavencolumbus.com,6149877996,vapormavencolumbus@gmail.com,2020-12-13,,Yes,V,CBD,Yes,,
Vapor Station,5058 N High St,,Columbus,OH,43214,US,http://www.vaporstationcolumbus.com/,6144368273,vaporstationcolumbus@msn.com,2018-08-06,2018-09-24,Yes,V,CBD,,,
Vapor Station Columbus,1154 S High St,,Columbus,OH,43206,US,http://westsidevapor.com/,6142302025,vaporstationcolumbus@msn.com,2018-08-19,2018-09-24,Yes,V,CBD,,,
VaporFi,2471 N High St,,Columbus,OH,43202,US,https://www.vaporfi.com/,6146707904,info@osucampus.vaporfi.com,2016-06-03,2019-01-11,,V,,,,
VaporFi,303 S Hamilton Rd,,Columbus,OH,43230,US,https://www.vaporfi.com/,6147064603,info@grovecity.vaporfi.com,2016-06-03,2019-01-11,,V,,,,
VaporFi,1077 Polaris Pkwy,,Columbus,OH,43240,US,https://www.vaporfi.com/,6149477561,,2016-06-03,2019-01-11,Yes,V,CBD,,,
VaporFi,1728 Hilliard Rome Rd,,Columbus,OH,43026,US,https://www.vaporficbdhilliard.com/,6142191793,info@hilliard.vaporfi.com,2018-08-19,2020-02-17,Yes,V,CBD,,,
Waterbeds N Stuff,815 S Hamilton Rd,,Columbus,OH,43213,US,http://www.waterbedsnstuff.com,6142397270,admin@waterbedsnstuff.com,2018-12-27,2019-10-29,Yes,H,CBD,Yes,,
Waterbeds N Stuff,3592 Soldano Blvd,,Columbus,OH,43228,US,http://www.waterbedsnstuff.com,6142764722,admin@waterbedsnstuff.com,2018-12-27,2019-10-29,Yes,H,CBD,Yes,,
Waterbeds N Stuff,2194 N High St,,Columbus,OH,43201,US,http://www.waterbedsnstuff.com,6142912188,admin@waterbedsnstuff.com,2018-12-27,2019-10-29,Yes,H,CBD,Yes,,
Waterbeds N Stuff,2230 Morse Rd,,Columbus,OH,43229,US,http://www.waterbedsnstuff.com/,6144784030,admin@waterbedsnstuff.com,2018-12-27,2019-10-29,Yes,H,CBD,Yes,,
Waterbeds N Stuff,5846 Emporium Square,,Columbus,OH,43231,US,http://www.waterbedsnstuff.com/,6148902853,admin@waterbedsnstuff.com,2018-12-27,2019-10-29,Yes,H,CBD,Yes,,
White Horse Vapor Columbus,35 E 5th Ave,,Columbus,OH,43201,US,https://whitehorseohio.com/,6148524669,columbus@whitehorseohio.com,2018-09-30,,,V,,,,
Your CBD Store,2042 Polaris Pkwy,,Columbus,OH,43240,US,https://cbdrx4u.com/find-us/ohio/columbus,6145050684,columbus637@cbdrx4u.com,2020-12-07,,Yes,C,CBD,,,
710 Vapor & Lounge,666 Main St,,Conneaut,OH,44030,US,,8447108273,,2016-05-17,2019-02-17,Yes,V,CBD,,,
Cheap Tobacco,360 W Main Rd,,Conneaut,OH,44030,US,https://www.cheaptobaccousa.com/,4405936773,,2018-10-02,2019-02-17,Yes,S,CBD,,,
Vapor Station Akron,1360 S Cleveland Massillon Rd,,Copley,OH,44321,US,http://www.westsidevapor.com,3306650365,kellie1323@yahoo.com,2018-08-19,2021-10-07,Yes,V,CBD,Yes,,
Hemptations,4179 Hamilton Ave,,Corryville,OH,45219,US,https://www.hemptations.com/,5135690420,hemptations@yahoo.com,2018-11-17,,Yes,H,CBD,Yes,,
The Glass House,523 Main St,,Coshocton,OH,43812,US,http://www.glasshouseohio.com/,7402959277,glasshouseapplication@gmail.com,2021-06-15,,Yes,H,CBD,,,
Tobacco Discounters,400 Downtowner Plaza,,Coshocton,OH,43812,US,https://www.tobaccodiscounterscoshocton.com/,7406227172,tdohio5@gmail.com,2020-06-17,,Yes,S,CBD,,,
Awesome Sauce Vapor,694 Howe Ave,,Cuyahoga Falls,OH,44221,US,https://www.vaporizerstorecuyahogafalls.com/,3308495075,,2020-11-18,,Yes,V,CBD,,,
Chasin Vapors,2036 Bailey Rd,,Cuyahoga Falls,OH,44221,US,https://chasin-vapors.com/,3307074051,chasinvapors@gmail.com,2018-09-30,,Yes,V,CBD,,,
Groove - Cuyahoga Falls,120 Portage Trail,,Cuyahoga Falls,OH,44221,US,https://groovecf.com/,2345711100,info@grooveejuice.com,2019-12-24,2019-12-24,Yes,V,CBD,Yes,,
Headz Up,2037 State Rd,,Cuyahoga Falls,OH,44223,US,,3308222439,headzup2037@gmail.com,2018-12-26,,Yes,H,CBD,,,
Kings of Vapor + CBD,2611 State Rd,,Cuyahoga Falls,OH,44223,US,http://kingsofvaporohio.com,3307733244,info@kingsofvapor.com,2018-08-07,2020-01-21,Yes,V,CBD,,,
Urban Konnection Smoke Shop & Vape Shop,1652 State Rd,,Cuyahoga Falls,OH,44223,US,http://urbankonnection.com/,2345711088,,2021-07-31,,Yes,S,CBD,,,
Your CBD Store,1907 State Rd,,Cuyahoga Falls,OH,44223,US,https://cbdrx4u.com,3304004174,cuyahogafalls536@cbdrx4u.com,2020-12-07,,Yes,C,CBD,,,
Arrow Wine & Spirits Smoke Shop,2950 Far Hills Ave,,Dayton,OH,45419,US,http://www.arrowwineandspirits.com/,9372942100,arrowwinefh@hotmail.com,2019-07-19,,,T,,,,
Belmont Market,344 Watervliet Ave,,Dayton,OH,45420,US,https://www.facebook.com/belmontmarketdayton/,9372567780,,2018-08-06,2020-01-11,Yes,O,CBD,,,
CBD Haus,619 Watervliet Ave,,Dayton,OH,45420,US,https://mycbdhaus.com/,9378133125,admin@mycbdhaus.com,2020-11-24,,Yes,C,CBD,,,
Centerville Smoke & Vape Shop,383 Miamisburg Centerville Rd,,Dayton,OH,45459,US,http://www.centervillesmokeshop.com/,9373295363,centervillesmokeshop@gmail.com,2018-08-06,2019-09-01,Yes,S,CBD,,,
Diamond Smoke & Vape Shop,6676 Town Center Dr,,Dayton,OH,45414,US,,9375760381,diamondsmokeandvapeshop2@gmail.com,2021-12-30,2021-12-30,Yes,S,CBD,,,
Diamond Smoke & Vape Shop,3319 Seajay Dr,,Dayton,OH,45430,US,https://diamondsmokevape.business.site/,9377029115,,2021-08-10,,Yes,S,CBD,Yes,,
Eastown Smoke Shop,3931 Linden Ave,,Dayton,OH,45432,US,,9372583258,,2018-09-17,,,S,,,,
Eliaa Smoke Shop,1810 E 3rd St,,Dayton,OH,45403,US,,9379493632,eliaasmokeshop@yahoo.com,2018-10-30,2018-10-30,Yes,S,CBD,,,
Hazy Shade Disc Golf And More,723 Watervliet Ave,,Dayton,OH,45420,US,http://www.hazyshade.com/,9372562690,sales@hazyshade.com,2018-12-22,,Yes,H,CBD,,,
Hemptations,548 Wilmington Ave,,Dayton,OH,45420,US,http://www.hemptations.com,9379911015,hemptations@yahoo.com,2018-11-18,,Yes,H,CBD,Yes,,
Hot Vapes Dayton,119 N Springboro Pike,,Dayton,OH,45449,US,http://www.hotvapesvapeshopdaytonoh.com/,9374358273,hotvapesohio@gmail.com,2018-08-06,2019-12-02,,V,,,,
K D Discount Smoke Shop,1943 S Alex Rd,,Dayton,OH,45449,US,http://www.discountsmokeshop.com/,9378661295,,2019-12-23,2019-12-23,,S,,,,
King Smoke Shop,3805 N Dixie Dr,,Dayton,OH,45414,US,,9375595512,,2019-12-26,2019-12-26,,S,,,,
Liquid Nics Dayton,7070 Miller Ln Ste 102,,Dayton,OH,45414,US,http://www.liquidnics.com/,9376572552,liquidnics@gmail.com,2018-08-07,2019-12-22,Yes,V,CBD,,,
Prime Vape & Smoke Shop,3846 Linden Ave,,Dayton,OH,45432,US,https://www.primevapeandsmokeshop.com/,9378295557,primevapeandsmokeshop@gmail.com,2018-10-02,,Yes,V,CBD,,,
Smokers Plus,534 Wilmington Ave,,Dayton,OH,45420,US,http://smokersplusvapes.com/,9372522806,,2020-03-14,,Yes,S,CBD,Yes,,
Smokers Saver,2525 S Smithville Rd,,Dayton,OH,45420,US,,9372547283,,2019-05-16,,,S,,,,
The Hemp & CBD Shop,2105 Needmore Rd Ste B,,Dayton,OH,45414,US,,9377236402,,2020-12-17,2020-12-17,Yes,C,CBD,,,
Up In Smoke Vape & Tobacco Shop,5101 N Springboro Pike,,Dayton,OH,45439,US,,9372993200,,2018-08-06,2019-12-11,,S,,,,
Vapor Haus,617 Watervliet Ave,,Dayton,OH,45420,US,https://vaporhausdayton.com/,9375595778,chris.vaporhaus@gmail.com,2018-08-19,2020-02-17,Yes,V,CBD,,,
CravinVapes,1832 N Clinton St Ste C,,Defiance,OH,43512,US,http://cravinvapes.com/,4197828273,socialmedia@cravinvapes.com,2018-08-06,2020-01-12,,V,,,,
The Stash House,24 S Sandusky St,,Delaware,OH,43015,US,https://ohiostashhouse.com/,7404174207,info@ohiostashhouse.com,2018-11-21,,,H,,,,
U Roll It Tobacco,1185 US-23 N,,Delaware,OH,43015,US,,7403627711,,2018-09-15,,,T,,,,
Vapor Station of Delaware,652 W Central Ave Ste 70,,Delaware,OH,43015,US,,7403628273,,2016-06-27,2019-01-12,,V,,,,
Waterbeds N Stuff,6477 Sawmill Rd,,Dublin,OH,43017,US,http://www.waterbedsnstuff.com,6147640085,admin@waterbedsnstuff.com,2018-12-27,2019-10-29,Yes,H,CBD,Yes,,
CBD Healthy,16044 OH-170 Ste B,,East Liverpool,OH,43920,US,https://cbdhealthy.com/,3303680174,cbdhealthyllc@gmail.com,2020-11-25,,Yes,C,CBD,Yes,,
Cheap Tobacco,15765 OH-170,,East Liverpool,OH,43920,US,https://www.cheaptobaccousa.com/,3303854727,,2018-10-02,,Yes,S,CBD,,,
Liquid Coils Vape Shop Co. - Calcutta,16761 St Clair Ave Ste H,,East Liverpool,OH,43920,US,,3303680692,liquidcoils@gmail.com,2018-08-07,2020-01-21,Yes,V,CBD,,,
Route 170 Drive Thru & Vape Shop,16028 OH-170,,East Liverpool,OH,43920,US,http://route170drivethru.com/,3303854969,route170@outlook.com,2018-10-02,,,S,,,,
Vapor House,34280 Vine St Ste B,,Eastlake,OH,44095,US,https://www.vaporhousestores.com/,4402184307,vaporhouseohio@gmail.com,2018-08-19,2020-02-17,Yes,V,CBD,,,
Vitrum Glass Gallery & Smoke Shop,"34525 Vine Street, Willowick, OH",,Eastlake,OH,44095,US,https://www.vitrumsmoke.com/,4408561245,,2019-09-27,,Yes,H,CBD,,,
Dr. Smokey's Discount Tobacco,1575 N Barron St,,Eaton,OH,45320,US,,9374561980,,2019-09-18,,,T,,,,
Innovation Wellness Medical Cannabis Solutions,111 S Barron St,,Eaton,OH,45102,US,https://innovation-wellness.com/,9376838435,tracwolf1@yahoo.com,2021-02-11,,Yes,C,CBD,,,
Purely CBD,538 N Barron St Ste 5,,Eaton,OH,45320,US,https://www.purelycbd.net/,9376838070,eaton@thepurelycbd.com,2020-11-06,,Yes,C,CBD,,,
AVAIL Vapor - Chestnut Commons,641 Chestnut Commons Dr,,Elyria,OH,44035,US,https://www.availvapor.com/,4403655440,custservice@availvapor.com,2018-08-06,2019-06-18,Yes,V,CBD,,,
Birdies,611 1/2 Cleveland St,,Elyria,OH,44035,US,,4403653979,jennafrombirdies@gmail.com,2019-07-25,2019-07-25,Yes,H,CBD,,,
Eastside Glass,350 Cleveland St,,Elyria,OH,44035,US,https://eastsideglass.godaddysites.com/,4402225555,eastsideglass19@gmail.com,2021-08-09,,,H,,,,
Glass N More Store Inc.,884 Cleveland St,,Elyria,OH,44035,US,http://glassnmorestore.com,4402819201,glasswarenow@yahoo.com,2020-06-25,2020-06-26,Yes,H,CBD,Yes,,
Kalamazoo Vapor,1533 W River Rd,,Elyria,OH,44035,US,http://kalamazoovaporshop.com/,4402818150,customerservice@kalamazoovaporshop.com,2018-08-07,2020-01-20,Yes,V,CBD,,,
Mystical Moon,144 Middle Ave,,Elyria,OH,44035,US,,4403235130,mysticalmoonjj@icloud.com,2020-01-23,,Yes,H,CBD,,,
Purple Haze Smoke Shop,506 N Abbe Rd,,Elyria,OH,44035,US,http://www.purplehazess.com,4406575060,,2019-11-14,2019-11-14,Yes,S,CBD,,,
Smoker's Warehouse,511 N Abbe Rd #A,,Elyria,OH,44035,US,,4403650008,,2020-03-10,,,T,,Yes,,
Smokerz Paradise,409 Broad St,,Elyria,OH,44035,US,https://www.smokerzparadiseohio.com/,4404124042,smokersparadise409@gmail.com,2021-08-10,,Yes,S,CBD,,,
The Other Joint,558 Cleveland St,,Elyria,OH,44035,US,,4404123054,tojsmoke@gmail.com,2019-10-05,,Yes,H,CBD,Yes,,
Think Wireless - Dungeon Smokeshop,515 N Abbe Rd Ste D,,Elyria,OH,44035,US,,4403651848,,2019-01-03,2020-03-10,Yes,H,CBD,Yes,,
Monkeys Smoke Shop,571 S Main St,,Englewood,OH,45322,US,http://www.monkeysusa.com,9377717003,nick@monkeysusa.com,2018-12-06,2021-08-10,Yes,S,CBD,Yes,,
Celtronix,639 E 185th St,,Euclid,OH,44119,US,https://celtronix.business.site/,2169388563,,2019-06-18,2019-06-18,Yes,S,CBD,Yes,,
Ez Go Kwik Mart,19019 Euclid Ave,,Euclid,OH,44117,US,,2163566767,,2019-06-28,,,O,,,,
I-Smoke,39 E Dayton Yellow Springs Rd,,Fairborn,OH,45324,US,,9378732455,ismokefairborn@yahoo.com,2019-12-09,,Yes,S,CBD,Yes,,
MadHouse Smoke & Vape,2622 Colonel Glenn Hwy,,Fairborn,OH,45324,US,,9374276599,,2018-08-06,2019-10-19,Yes,S,CBD,,,
Vapor Haus,1894 S Maple Ave,,Fairborn,OH,45324,US,https://vaporhausdayton.com/,9373188008,chris.vaporhaus@gmail.com,2018-08-19,2020-02-17,Yes,V,CBD,,,
Cincy Vapors,5080 Pleasant Ave,,Fairfield,OH,45014,US,http://cincy-vapors.com/,5137373800,info@cincy-vapors.com,2018-08-06,2019-12-14,Yes,V,CBD,,,
Concentrated Relief,875 Walnut St Bldg B,,Fairfield,OH,45013,US,https://www.concentratedrelief.com/,5138632837,info@concentratedrelief.com,2020-12-05,,Yes,C,CBD,,,
Ground Zero Vaping Lounge,6679 Dixie Hwy Unit B,,Fairfield,OH,45014,US,http://www.groundzerovaping.com/,5137956125,sales@groundzerovaping.com,2018-08-06,2019-12-24,Yes,V,CBD,,,
Lefty's Tobacco Plus,5413 Dixie Hwy,,Fairfield,OH,45014,US,https://www.leftysplus.com/,5138291248,leftysplus@gmail.com,2018-08-07,2019-06-11,,S,,,,
VIP Smoke & Wireless,5146 Pleasant Ave,,Fairfield,OH,45014,US,https://www.fairfieldsmokeshop.com/,5138057864,,2022-03-25,2022-03-25,Yes,S,CBD,,,
Your CBD Store,530 Wessel Dr Ste G,,Fairfield,OH,45014,US,https://cbdrx4u.com,5138892039,fairfield659@cbdrx4u.com,2020-12-07,,Yes,C,CBD,,,
Kings of Vapor + CBD,2855 W Market St,,Fairlawn,OH,44333,US,http://kingsofvapor.com/,3308673244,,2018-08-07,2020-01-21,Yes,V,CBD,,,
Euphoria Vapor of Fairview Park,22906 Lorain Rd,,Fairview Park,OH,44126,US,http://www.euphoriavapor.com/,4403857918,info@euphoriavapor.com,2018-09-30,,,V,,,,
Fog Vapery,21446 Lorain Rd,,Fairview Park,OH,44126,US,https://www.fogvapery.com/,2164718931,,2021-08-09,,,V,,,,
Butt Hut,1928 Tiffin Ave,,Findlay,OH,45840,US,http://butthutohio.com/,4194209966,,2019-07-29,,,S,,,,
Loonar Station - Findlay,1051 Tiffin Ave,,Findlay,OH,45840,US,https://www.loonarstation.com,5675255599,jobs@loonarstation.com,2018-11-02,2019-10-25,Yes,H,CBD,,,
Smoke-N-Stuff,1406 N Main St Ste B,,Findlay,OH,45840,US,,4194201744,,2020-03-02,,Yes,S,CBD,,,
The Attic Smoke Shop & Glass Art,531 Trenton Ave,,Findlay,OH,45840,US,,4194290000,kouza.mike@gmail.com,2018-11-28,,Yes,S,CBD,,,
Vape Super Center - Findlay,2018 Tiffin Ave,,Findlay,OH,45840,US,https://www.vscstore.com/,5672508150,,2018-09-15,2020-06-21,,V,,,,
Vapor Emporia,1016 Tiffin Ave Ste A,,Findlay,OH,45840,US,http://www.vaporemporia.com,4194240202,vaporemporia@gmail.com,2018-08-19,2019-05-30,,V,,,,
Your CBD Store,820 N Main St #1,,Findlay,OH,45840,US,https://cbdrx4u.com,5673012416,findlay508@cbdrx4u.com,2020-12-07,,Yes,C,CBD,,,
Butt Hut,1405 N County Line St,,Fostoria,OH,44830,US,http://butthutohio.com/,4194361422,,2019-07-29,2019-07-29,,S,,,,
Mojo Vapes,408 S Main St,,Franklin,OH,45005,US,,9375509273,mojodistributions@gmail.com,2018-08-07,2020-01-22,Yes,V,CBD,,,
Smoke Stop,1060 E 2nd St,,Franklin,OH,45005,US,,9377040218,,2020-03-01,,,S,,,,
Cheap Tobacco,1002 W State St,,Fremont,OH,43420,US,https://www.cheaptobaccousa.com/,4193322536,marketing@ctobacco.com,2018-10-02,2021-05-13,Yes,S,CBD,,,
Glass N More Store Inc. Fremont,1316 W State St,,Fremont,OH,43420,US,http://glassnmorestore.com/,5672804007,glasswarenow@yahoo.com,2019-01-03,2020-05-10,Yes,H,CBD,Yes,,
Puckerfish Vape,1038 Oak Harbor Rd,,Fremont,OH,43420,US,https://www.puckerfishvape.com/,5672809200,fremont@puckerfish.net,2018-10-02,,,V,,,,
The Hookah Connection,517 W State St,,Fremont,OH,43420,US,https://thehookahconnectionfremont.business.site/,5672012676,,2019-01-08,,Yes,S,CBD,Yes,,
Advanced Vapor,358 S Hamilton Rd Ste C,,Gahanna,OH,43230,US,http://www.advancedvapor.info,6145327281,,2018-07-02,2019-07-18,,V,,,,
AltSmoke,1323 Stoneridge Dr,,Gahanna,OH,43230,US,http://www.vapestoregahanna.com/,6149449160,,2014-08-26,2019-02-18,,V,,,,
Tobacco Land,79 N Stygler Rd,,Gahanna,OH,43230,US,https://www.tobaccolandgahanna.com/,6143426022,tobacooland@gmail.com,2021-08-07,2021-08-07,Yes,S,CBD,,,
Waterbeds N Stuff,1245 N Hamilton Rd,,Gahanna,OH,43230,US,http://www.waterbedsnstuff.com,6144720101,admin@waterbedsnstuff.com,2018-12-27,2019-10-29,Yes,H,CBD,Yes,,
Downtown Vapor Lounge,127 Harding Way E,,Galion,OH,44833,US,http://www.downtownvaporlounge.com/,4194628273,vapemats@gmail.com,2019-09-18,,,V,,,,
The Ashtray,900 Bucyrus Rd,,Galion,OH,44833,US,,4194627634,,2019-07-19,,,S,,,,
Midtown Vapor,10 N Broadway,,Geneva,OH,44041,US,,4403614324,buyselltradeofgeneva@yahoo.com,2017-08-02,2019-05-12,Yes,V,CBD,Yes,,
The Glass House,16 N State St,,Girard,OH,44420,US,http://www.glasshouseohio.com/,3305458131,glasshouseapplication@gmail.com,2018-09-28,,,H,,,,
Vapors Dream,38 S State St,,Girard,OH,44420,US,http://www.vaporsdream.com/,3305307148,vaporsdream@live.com,2018-08-19,2019-06-03,Yes,V,CBD,,,
Cheap Tobacco,531 Wagner Ave,,Greenville,OH,45331,US,https://www.cheaptobaccousa.com/,9375483444,marketing@ctobacco.com,2018-08-06,2021-07-16,Yes,S,CBD,,,
Midwest Vapors,2344 Stringtown Rd,,Grove City,OH,43123,US,http://www.midwestvaporsohio.com/,6142778541,info@midwestvaporsohio.com,2014-09-11,2019-01-26,Yes,V,CBD,,,
One Stop Tobacco Shop,3508 Broadway,,Grove City,OH,43123,US,,6148755256,3508onestop@gmail.com,2019-01-08,,Yes,S,CBD,,,
Top Notch Vapor,3210 Broadway,,Grove City,OH,43123,US,http://topnotchvapor.com/,6145942075,,2020-01-26,,,V,,,,
VaporFi,2241 Stringtown Rd,,Grove City,OH,43123,US,https://www.vaporfi.com/,6149910341,info@grovecity.vaporfi.com,2016-06-03,2019-01-11,Yes,V,CBD,,,
Cincy Vapors,1244 Main St,,Hamilton,OH,45013,US,http://cincy-vapors.com/,5138894610,info@cincy-vapors.com,2018-08-06,2019-12-14,,V,,,,
Discount Tobacco,1018 Main St,,Hamilton,OH,45013,US,,5138952059,,2019-04-07,,,S,,,,
Lefty's Tobacco Plus,1480 S Erie Blvd,,Hamilton,OH,45011,US,https://www.leftysplus.com/,5137956793,leftysplus@gmail.com,2018-08-07,2019-06-11,,S,,,,
Lefty's Tobacco West Hamilton,1434 Main St,,Hamilton,OH,45013,US,https://www.leftysplus.com/,5138831311,leftysplus@yahoo.com,2018-08-07,2019-06-11,,S,,,,
Liberty Vape,5578 Eureka Dr,,Hamilton,OH,45011,US,https://liberty-vape-co.business.site/,5138895051,,2021-08-11,,,V,,,,
Moondog's Incense N Things,516 Main St,,Hamilton,OH,45013,US,,5132857329,incensenthings@gmail.com,2018-09-30,,,H,,,,
Relief Buddies,2525 Pleasant Ave #OFC,,Hamilton,OH,45015,US,https://www.thereliefbuddies.com/,5138936101,cbdbuddies@gmail.com,2021-05-18,,Yes,C,CBD,,,
Zips Tobacco,1011 High St,,Hamilton,OH,45011,US,,5138879477,zipstobacco@yahoo.com,2019-08-20,,,S,,,,
Exiled Vapes,10548 Harrison Ave Ste 1900,,Harrison,OH,45030,US,,5132020521,,2020-07-01,,Yes,V,CBD,,,
Galaxy Vapors - Harrison,1150 Harrison Ave,,Harrison,OH,45030,US,,5138454284,galaxyvapors12@gmail.com,2019-04-16,,Yes,V,CBD,,,
Studio Vapes,10567 Harrison Ave,,Harrison,OH,45030,US,https://www.studiovapes.com/,5134104455,studiovapes@gmail.com,2018-09-30,,Yes,V,CBD,,,
Hartville Vapor Station,839 W Maple St,,Hartville,OH,44632,US,https://westsidevapor.com/,3308772036,info@westsidevapor.com,2019-10-07,,,V,,,,
Crazy Ed's Discount Tobacco,1002 Hebron Rd,,Heath,OH,43056,US,,7405222809,discounttobacco620@gmail.com,2019-04-02,2019-04-02,,S,,,,
Vapor Station of Heath,611 Hebron Rd,,Heath,OH,43056,US,http://www.the-vapor-station.com/,7409154334,heathvaporstation@yahoo.com,2018-08-19,2018-09-24,Yes,V,CBD,,,
Waterbeds N Stuff,688 Hebron Rd,,Heath,OH,43056,US,http://www.waterbedsnstuff.com,7405221807,admin@waterbedsnstuff.com,2018-12-27,2019-10-29,Yes,H,CBD,Yes,,
Vapor Station Hebron,620 E Main St Unit J,,Hebron,OH,43025,US,,7408220042,ordervst@gmail.com,2021-02-03,2021-02-03,Yes,V,CBD,Yes,,
Bucks Smoke Shop,5051 Roberts Rd,,Hilliard,OH,43026,US,,6148506102,,2018-11-03,,,S,,,,
CBD Pro,3756 Fishinger Blvd,,Hilliard,OH,43026,US,https://cbdproohio.com/,16143635030,cbdproohio@gmail.com,2020-11-29,,Yes,C,CBD,,,
Hippie Hut Smoke Shop,3257 Hilliard Rome Rd,,Hilliard,OH,43026,US,https://www.hippiehutsmokeshop.com/,6143193131,,2021-08-06,,Yes,S,CBD,,,
Puff Palace,4700 Cemetery Rd,,Hilliard,OH,43026,US,,6147771227,puffpalace1@gmail.com,2019-01-08,,Yes,S,CBD,,,
Smoke House,5439 Roberts Rd,,Hilliard,OH,43026,US,,6147427644,123smokehouse@gmail.com,2019-01-08,2019-01-08,Yes,S,CBD,Yes,,
"Your CBD Store - Hilliard, OH",5480 Roberts Rd,,Hilliard,OH,43026,US,https://cbdrx4u.com,6145419486,hilliard498@cbdrx4u.com,2020-12-07,,Yes,C,CBD,,,
Cheap Tobacco,1220 N High St,,Hillsboro,OH,45133,US,https://www.cheaptobaccousa.com/,9373934490,marketing@ctobacco.com,2018-10-02,2021-07-16,Yes,S,CBD,,,
21st Century Tobacco,7130 Airport Hwy,,Holland,OH,43528,US,https://www.21stcenturysmoke.com/,4194910991,,2020-11-14,,Yes,S,CBD,,,
The CBD Dispensary,6646 Centers Dr,,Holland,OH,43528,US,https://purecbd1.com/,4198613244,customerservice@purecbd1.com,2020-02-17,,Yes,C,CBD,,,
The Head Shed,7448 Airport Hwy,,Holland,OH,43528,US,,4198668200,,2018-10-26,2018-10-26,Yes,H,CBD,,,
DUBZ Smoke & Vapor 2,205 N Main St,,Hubbard,OH,44425,US,https://dubzsv.com/,3305684404,,2022-04-18,2022-04-18,Yes,S,CBD,Yes,,
Monkeys Smoke Shop,7523 Brandt Pike,,Huber Heights,OH,45424,US,http://www.monkeysusa.com,9373952514,nick@monkeysusa.com,2018-10-29,2019-09-04,Yes,S,CBD,Yes,,
Smokers Outpost,6067 Brandt Pike,,Huber Heights,OH,45424,US,,9376101111,,2020-03-13,,,T,,,,
Vape Girls,5430 Fishburg Rd,,Huber Heights,OH,45242,US,http://www.vapegirls.net/,9376410020,vapegirls@hotmail.com,2018-09-30,,,V,,,,
Vapor Kings,7805 Waynetowne Blvd,,Huber Heights,OH,45424,US,https://www.vaporkingshhohio.com/,9379387249,tracyg.vk@gmail.com,2017-12-02,2019-12-27,Yes,V,CBD,Yes,,
VaporCast,7200 Taylorsville Rd,,Huber Heights,OH,45424,US,http://www.vaporcast.com/,9372375550,contact@vaporcast.com,2018-08-19,2020-02-17,,V,,,,
Bear Vapor,112 S 3rd St,,Ironton,OH,45638,US,,7404427419,,2019-07-22,,,V,,,,
Flower Power CBD,2424 S 3rd St,,Ironton,OH,45638,US,,7405298960,,2021-10-07,2021-10-07,Yes,C,CBD,,,
Granny's,2443 S 5th St,,Ironton,OH,45638,US,,7405349463,,2018-12-27,,Yes,H,CBD,,,
Cheap Tobacco,731 E Main St Ste 7,,Jackson,OH,45640,US,https://www.cheaptobaccousa.com/,7402866240,,2018-10-02,,Yes,S,CBD,,,
GVapor & More,311 Water St,,Jackson,OH,45640,US,,7405779202,,2019-11-20,2021-06-02,Yes,V,CBD,,,
Advanced Vapor,850 W Coshocton St,,Johnstown,OH,43031,US,http://www.advancedvapor.info/,7408178072,advancedvapor.org@gmail.com,2014-09-21,2019-02-18,,V,,,,
Bubba's DeathStar Nation,168 Cherry St,,Kent,OH,44240,US,,3306775055,deathstarsnation@gmail.com,2018-11-03,2019-09-08,Yes,H,CBD,,,
Groove-E-Juice,132 S Water St Ste B,,Kent,OH,44240,US,http://www.grooveejuice.com/,3309902731,grooveejuice@gmail.com,2018-08-06,2019-12-24,Yes,V,CBD,Yes,,
Kings of Vapor + CBD,1154 W Main St,,Kent,OH,44240,US,http://kingsofvapor.com/,3306738273,info@kingsofvapor.com,2018-08-07,2020-01-21,Yes,V,CBD,,,
Midnight Oasis,1108 S Water St,,Kent,OH,44240,US,http://midnightoasis.weebly.com,3306778011,christodd420@gmail.com,2019-01-08,,,S,,Yes,,
Puff' N Stuff,421 E Main St,,Kent,OH,44240,US,http://www.puffnstuffstores.com/,3306735270,,2019-01-08,,Yes,H,CBD,,,
"Vapor Emporia - Kenton, Ohio",100 W Columbus St,,Kenton,OH,43326,US,http://www.vaporemporiakenton.com/,4196791798,vaporemporia@gmail.com,2018-08-19,2020-02-17,Yes,V,CBD,,,
Liquid Nics,3361 E Stroop Rd,,Kettering,OH,45440,US,http://www.liquidnics.com/,9376718111,liquidnics@gmail.com,2018-08-07,2019-12-22,Yes,V,CBD,,,
Vapor Haus,4013 Marshall Rd,,Kettering,OH,45429,US,https://vaporhausdayton.com/,9373444892,chris.vaporhaus@gmail.com,2018-08-19,2020-02-17,Yes,V,CBD,,,
Wisteria Smoke & vape,2039 E Dorothy Ln,,Kettering,OH,45420,US,https://wisteria-smoke-vape.business.site/,9379859298,,2022-02-25,2022-02-25,Yes,S,CBD,Yes,,
Zero1 Vape Lounge & Retail,2841 Wilmington Pike,,Kettering,OH,45419,US,https://www.zero1vape.com/,9379490101,zero1vape@gmail.com,2018-08-19,2020-02-17,,V,,,,
Black Sheep 216,2011 Carabel Ave,,Lakewood,OH,44107,US,https://blacksheep216.com/,2162217777,ogore74@gmail.com,2018-12-26,,,H,,,,
Cleveland Vape,17114 Detroit Rd,,Lakewood,OH,44107,US,http://clevelandvape.com/,2162263065,info@clevelandvape.com,2018-08-06,2019-12-14,Yes,V,CBD,,,
Daystar Boutique,17102 Detroit Ave,,Lakewood,OH,44107,US,http://shopdaystar.com/,2162284522,,2019-01-05,,,H,,,,
North Coast Vape,13306 Detroit Ave,,Lakewood,OH,44107,US,https://www.northcoastvape.com/,4407998777,info@northcoastvape.com,2018-10-02,,,V,,,,
"Your CBD Store - Lakewood, OH",15207 Detroit Ave,,Lakewood,OH,44107,US,https://cbdrx4u.com/,2164107826,cbd3507@gmail.com,2019-09-15,2019-09-15,Yes,C,CBD,,,
Cheap Tobacco,700 N Memorial Dr,,Lancaster,OH,43130,US,https://www.cheaptobaccousa.com/,7406542281,,2018-10-02,,Yes,S,CBD,,,
Exquisite Tobacco,1020 W Fair Ave,,Lancaster,OH,43130,US,,7406536330,,2019-11-24,,,T,,,,
Uprite Vapor,1189 N Memorial Dr,,Lancaster,OH,43130,US,https://www.upritevapor.com/,7407854432,upritevapor@yahoo.com,2018-09-15,,Yes,V,CBD,,,
Waterbeds N Stuff,1251 N Memorial Dr,,Lancaster,OH,43130,US,http://www.waterbedsnstuff.com,7406543385,sales@waterbedsnstuff.com,2018-12-27,2019-10-29,Yes,H,CBD,Yes,,
Lebanon Smoke Shop,601 E Main St Ste B,,Lebanon,OH,45036,US,http://www.lebanonsmokeshop.com,5139347020,hello@lebanonsmokeshop.com,2018-10-02,2019-10-15,Yes,S,CBD,Yes,,
Tobacco Discounters,1231 Columbus Ave #G1,,Lebanon,OH,45036,US,https://www.tobaccodiscounterslebanon.com/,5139324580,tdohio5@gmail.com,2021-08-06,,Yes,S,CBD,Yes,,
Your CBD Store,1248 Columbus Ave #13,,Lebanon,OH,45036,US,https://cbdrx4u.com,5139347269,,2020-12-07,,Yes,C,CBD,,,
Waterbeds N Stuff,720 Polaris Pkwy,,Lewis Center,OH,43035,US,http://www.waterbedsnstuff.com,6148022574,admin@waterbedsnstuff.com,2018-12-27,2019-10-29,Yes,H,CBD,Yes,,
420 West Side Clinic,1000 N Cole St,,Lima,OH,45805,US,,4192244200,doc14enterprises@gmail.com,2018-10-23,2021-08-19,Yes,H,CBD,Yes,,
Cas Vapors,1151 Shawnee Rd,,Lima,OH,45805,US,,5677122953,casvapors@yahoo.com,2014-10-29,2019-01-28,,V,,,,
Cloud Five Vape,855 N Metcalf St,,Lima,OH,45801,US,,5672895555,shop@cloudfivevape.com,2019-01-28,2020-01-28,Yes,V,CBD,,,
CravinVapes,3219 Elida Rd,,Lima,OH,45805,US,http://cravinvapes.com/,4192228273,helpdesk@cravinvapes.com,2018-06-02,2019-06-18,Yes,V,CBD,,,
DG Essentials,2818 Elida Rd,,Lima,OH,45805,US,,4196041946,dgessentials@roadrunner.com,2018-09-30,2021-08-19,Yes,V,CBD,,,
Discount Tobacco,2509 Shawnee Rd,,Lima,OH,45806,US,,4192211796,,2019-12-31,2019-12-31,,S,,,,
Epic Vapes Lima,1209 Allentown Rd,,Lima,OH,45805,US,https://www.epicvapes.com/,5673013030,info@epicvapes.com,2018-08-06,2019-12-19,Yes,V,CBD,,,
Just Smokes,200 N Metcalf St #E,,Lima,OH,45801,US,,4192226599,,2019-12-23,,,T,,,,
Ron's Vapor Station,2100 Harding Hwy Ste 15,,Lima,OH,45804,US,http://rons-vapor-station.business.site,4192241220,vaporstationlima@gmail.com,2020-03-03,,Yes,V,CBD,Yes,,
Cheap Tobacco,31784 Chieftan Dr,,Logan,OH,43138,US,https://www.cheaptobaccousa.com/,7403858808,,2018-10-02,,Yes,S,CBD,,,
A One Smoke Shop,289 Lafayette St Ste L,,London,OH,43140,US,,7409083066,aonesmokeshop1@gmail.com,2021-07-05,2021-07-05,Yes,S,CBD,,,
Poorboys Vapor World,935 US-42,,London,OH,43140,US,https://www.poorboysvaporworld.com/,7408450391,,2019-10-02,,,V,,,,
Smokerz Paradise,2515 Colorado Ave,,Lorain,OH,44052,US,https://www.smokerzparadiseohio.com/,4406542077,smokersparadise409@gmail.com,2021-08-10,,Yes,S,CBD,,,
The Glass House,832 Broadway Ave,,Lorain,OH,44052,US,http://www.glasshouseohio.com/,4402424080,glasshouseapplication@gmail.com,2018-09-28,,Yes,H,CBD,,,
Ohm Slaw Vapors Goshen,1517 OH-28 Ste F,,Loveland,OH,45140,US,http://slawvapors.com/,5137228273,info@ohmslawjuice.com,2020-01-15,2020-01-15,Yes,V,CBD,,,
Unique Boutique,1513 OH-28 Ste A,,Loveland,OH,45140,US,,5137220036,celticfun1985@gmail.com,2018-10-26,2021-03-27,Yes,H,CBD,,,
Stuff-N-Puffs,775 E Aurora Rd,,Macedonia,OH,44056,US,,3304682200,macedonia.oh@stuffnpuffs.com,2018-08-19,2020-04-09,,V,,,,
Wine and Tobacco World,2583 Walter Green Commons,,Madison,OH,44057,US,,4404170100,tobaccoworldmadison@live.com,2019-09-15,2019-09-15,Yes,S,CBD,Yes,,
Vapor Supply,6032 OH-48,,Maineville,OH,45039,US,http://www.vaporsupplyohio.com/,5134800136,info@vaporsupplyohio.com,2018-08-19,2019-10-05,,V,,,,
Cheap Tobacco,152 Lexington Ave,,Mansfield,OH,44907,US,https://www.cheaptobaccousa.com/,4195220150,,2018-10-02,2021-07-16,Yes,S,CBD,,,
Jade Vapor,518 Park Ave W,,Mansfield,OH,44906,US,http://www.jadevapor.com/,4199822474,hooney9@aol.com,2018-08-07,2018-11-10,Yes,V,CBD,,,
Jade Vapor,989 Ashland Rd,,Mansfield,OH,44905,US,http://www.jadevapor.com/,5675605480,hooney9@aol.com,2018-08-07,2020-01-20,Yes,V,CBD,,,
Lava Smoke Shop,1525 Lexington Ave,,Mansfield,OH,44907,US,http://lavasmokeshop.business.site/,4196312325,,2019-12-31,2019-12-31,Yes,S,CBD,,,
The Glass House,522 Park Ave W,,Mansfield,OH,44906,US,http://www.glasshouseohio.com/,4195221695,,2018-09-28,,,H,,,,
Tobacco Inn North,777 Ashland Rd,,Mansfield,OH,44905,US,,4195890081,,2020-07-11,,,T,,,,
Your CBD Store,1408 Lexington Ave #B,,Mansfield,OH,44907,US,https://cbdrx4u.com/find-us/ohio/mansfield,5673077386,mansfield512@cbdrx4u.com,2021-06-10,,Yes,C,CBD,,,
Hi Ghlass,128 Maple St,,Marietta,OH,45750,US,,6144201593,highlass128@gmail.com,2019-07-06,,,H,,,,
Smoker Friendly,134 Gross St #A,,Marietta,OH,45750,US,,7403749224,,2018-10-02,2020-03-06,Yes,S,CBD,,,
Tropical Oasis Smoke Shop & Hookah Lounge,122 Front St,,Marietta,OH,45750,US,,7403367021,tropicaloasishookahlounge@yahoo.com,2019-12-11,,,L,,,,
Valley Vapory,444 Pike St,,Marietta,OH,45750,US,http://valleyvapory.com/,7403731690,valleyvapory@gmail.com,2018-08-06,2020-01-04,Yes,V,CBD,,,
House of Cigar,1230 Mt Vernon Ave,,Marion,OH,43302,US,http://houseofcigar.net/,7406929737,hocmarion@yahoo.com,2022-03-07,2022-03-07,Yes,S,CBD,,,
King Vapor,1295 Mt Vernon Ave #200,,Marion,OH,43302,US,,7407516456,,2021-08-10,2021-08-10,Yes,S,CBD,,,
Life Of Kratom,167 James Way,,Marion,OH,43302,US,https://lifeofkratom.com/,6148869096,,2021-03-13,,Yes,O,CBD,,,
MVP Vapor,1603 Marion-Mt Gilead Rd,,Marion,OH,43302,US,,7403862990,,2019-05-05,2020-01-17,,V,,,,
TJ's Tobacco,118 Jefferson St,,Marion,OH,43302,US,https://www.tjstobaccoandvapormarion.com/,7407514077,tobysmithllc@gmail.com,2019-05-19,2022-03-07,Yes,S,CBD,,,
U Roll It Tobacco,1315 Delaware Ave,,Marion,OH,43302,US,,7407514889,u.roll.it.2010@gmail.com,2018-09-15,,,T,,,,
Your CBD Store,1296 Delaware Ave,,Marion,OH,43302,US,https://cbdrx4u.com,7407514003,marion676@cbdrx4u.com,2020-12-06,,Yes,C,CBD,,,
Groovy Glassware,108 S 4th St,,Martins Ferry,OH,43935,US,http://groovyglassware.com,7406097209,groovyglassware@yahoo.com,2019-01-03,2019-01-03,Yes,H,CBD,Yes,,
Poor Boys Vapor World,893 Delaware Ave,,Marysville,OH,43040,US,,9375654446,tom@poorboyssmoke.com,2020-02-03,2020-02-03,Yes,V,CBD,,,
Smokers Paradise,1117 W 5th St,,Marysville,OH,43040,US,,9376443076,melayaseh2@gmail.com,2020-03-14,2020-03-14,Yes,S,CBD,,,
Smokes,1075 Reading Rd,,Mason,OH,45040,US,,5132041682,,2020-01-07,,Yes,S,CBD,,,
Cheap Tobacco,3530 Lincoln Way E,,Massillon,OH,44646,US,https://www.cheaptobaccousa.com/,3308339595,,2018-10-02,,Yes,S,CBD,,,
Crazy Cloudz,805 Lincoln Way E,,Massillon,OH,44646,US,,3308803024,,2018-08-07,2020-01-19,,V,,,,
Souzza,3315 Lincoln Way E,,Massillon,OH,44646,US,https://www.souzza.com/,3308800777,web@souzza.com,2019-01-03,2020-11-13,Yes,S,CBD,Yes,,
Vapor Station,8519 Navarre Rd SW,,Massillon,OH,44646,US,http://westsidevapor.com/,3303548900,kellie1323@yahoo.com,2018-08-19,2021-10-07,Yes,V,CBD,,,
Vivid Vapor,619 Lincoln Way W,,Massillon,OH,44647,US,,3302360080,ntdretail@gmail.com,2018-09-30,,,V,,,,
Black Castle Glass and Vape,701 Conant St,,Maumee,OH,43537,US,,4197948485,,2018-10-14,,Yes,S,CBD,,,
Spoiled,209 Conant St,,Maumee,OH,43537,US,https://www.spoiledhealth.com/,4197943422,info@spoiledhealth.com,2021-01-04,,Yes,C,CBD,,,
The Crave Cave Vapor Lounge,915 Conant St,,Maumee,OH,43537,US,https://www.cravecavevaporlounge.com/,4197403045,cravecavevaporlounge@gmail.com,2018-09-19,,,V,,,,
Your CBD Store,477 W Dussel Dr,,Maumee,OH,43537,US,https://cbdrx4u.com/find-us/ohio/maumee,4197941170,maumee0094@cbdrx4u.com,2021-06-10,,Yes,C,CBD,,,
Just Vape and CBD,5819 Mayfield Rd,,Mayfield Heights,OH,44124,US,http://www.justvapeohio.com/,4404592215,justvapejoe@gmail.com,2018-08-07,2020-01-20,Yes,V,CBD,,,
Puff' N Stuff,6627 Mayfield Rd,,Mayfield Heights,OH,44124,US,http://www.puffnstuffstores.com/,4404425474,info@puffnstuffstores.com,2019-01-08,,Yes,H,CBD,,,
42 Degrees Inc.,443 W Liberty St,,Medina,OH,44256,US,https://www.bestcbdmedina.com/,3304218416,lpresser@ymail.com,2022-05-06,2022-05-06,Yes,C,CBD,,,
Awesome Sauce Vapor,140 N Court St,,Medina,OH,44256,US,https://www.vaporizerstoremedina.com/,3307228273,awesomesaucevapor@gmail.com,2017-08-30,2019-02-18,,V,,,,
Best Price Cigarettes,1124 N Court St,,Medina,OH,44256,US,,3307251881,,2019-07-24,,,T,,,,
Havana's Choice Cigars,307 E Washington St,,Medina,OH,44256,US,https://havanaschoicecigars.com/washington-st-medina/,3307649700,info@havanaschoicecigars.com,2021-07-31,,Yes,T,CBD,,,
Shop 42,3735 Stonegate Dr,,Medina,OH,44256,US,http://www.shop42clothing.com/,3307252146,,2019-05-11,,,V,,,,
CBD American Shaman Mentor,9391 Mentor Ave,,Mentor,OH,44060,US,http://www.cbdlakecounty.com,4402900940,cbdlakecounty@gmail.com,2020-01-11,2020-05-03,Yes,C,CBD,,,
Kalamazoo Vapor,9201 Mentor Ave,,Mentor,OH,44060,US,http://kalamazoovaporshop.com/,4402050997,john@kalamazoovaporshop.com,2018-08-07,2020-01-20,,V,,,,
Save-On Tobacco & Beverage,7411 Mentor Ave,,Mentor,OH,44060,US,,4409181905,,2019-12-19,2019-12-19,,T,,,,
The Happy Cloud Smoke Shop,6162 Meadowbrook Dr,,Mentor,OH,44060,US,https://www.thehappycloudsmokeshop.com/,4402907088,thehappycloud1@yahoo.com,2022-05-11,2022-05-11,Yes,S,CBD,,,
Twisted Headz Smokeshop,7488 Mentor Ave Ste E,,Mentor,OH,44060,US,http://www.twistedheadz.com/,4405714310,twistedheadzsmokeshop@gmail.com,2019-01-08,,Yes,S,CBD,Yes,,
"Your CBD Store - Mentor, OH",7850 Mentor Ave,,Mentor,OH,44060,US,https://cbdrx4u.com/,4402907234,steveshoe9@gmail.com,2019-09-15,2019-09-15,Yes,C,CBD,,,
Papa Smokes,7901 Munson Rd,,Mentor-On-The-Lake,OH,44060,US,,4402090288,,2019-01-08,,Yes,S,CBD,Yes,,
HempXclusive,2700 Miamisburg Centerville Rd Ste 1268,,Miamisburg,OH,45342,US,https://hempxclusive.com/,9374194367,contact@hempxclusive.com,2021-01-29,,Yes,C,CBD,,,
JJB CBD Wellness,40 N Main St #107,,Miamisburg,OH,45342,US,https://www.jjbwellness.org/,9375302122,sales@jjbcbdwellness.com,2021-02-16,,Yes,C,CBD,,,
Kraken Vapes,36 Main St Ste C,,Miamisburg,OH,45342,US,,5135036342,,2021-08-11,,Yes,V,CBD,Yes,,
Miamisburg Smoke Shop,8106 Springboro Pike,,Miamisburg,OH,45342,US,,9378003003,hello@miamisburgsmokeshop.com,2021-10-02,,Yes,S,CBD,,,
Smoke Stop,1232 E Central Ave,,Miamisburg,OH,45342,US,,9378479850,,2020-03-01,,,T,,,,
The CBD Depot,53 Fiesta Ln,,Miamisburg,OH,45342,US,https://www.healthy-oils.org/,9379994375,healthyoil77@gmail.com,2022-04-18,2022-04-18,Yes,C,CBD,,,
Cheap Tobacco,7559 Pearl Rd,,Middleburg Heights,OH,44130,US,https://www.cheaptobaccousa.com/,4408161374,,2018-10-02,,Yes,S,CBD,,,
Euphoria Vapor,7535 Pearl Rd,,Middleburg Heights,OH,44130,US,http://www.euphoriavapor.com/,4409734247,rhonda@euphoriavapor.com,2018-08-06,2018-11-10,,V,,,,
Marge's Smoke Shop Ltd,15561 W High St,,Middlefield,OH,44062,US,,4406329629,,2020-01-06,,,T,,,,
Dixie's Smoke Shop,4387 S Dixie Hwy,,Middletown,OH,45005,US,http://dixies-smoke-shop.business.site/,9374309074,,2018-09-16,,,S,,,,
Mojo Vapes,629 S Breiel Blvd Ste B,,Middletown,OH,45044,US,,5134331178,,2018-08-07,2020-01-22,,V,,,,
Verity Beverage,2233 N Verity Pkwy,,Middletown,OH,45042,US,,5132176671,,2019-09-30,,,S,,,,
"Your CBD Store - Middletown, OH",4492 Marie Dr,,Middletown,OH,45044,US,https://cbdrx4u.com,8776310388,middletown567@cbdrx4u.com,2020-12-06,,Yes,C,CBD,,,
Altsmoke,1067 OH-28 Ste 500,,Milford,OH,45150,US,https://altsmoke.com/milford-ohio/,5136301111,adeptcitations@gmail.com,2019-07-30,2019-08-22,,V,,,,
Cut Rate Tobacco,800 Main St,,Milford,OH,45150,US,,5132481333,cutratetobacco@yahoo.com,2021-08-05,,,S,,,,
Phantasm Vapors,951 Lila Ave,,Milford,OH,45150,US,http://www.phantasmvapors.com/,5132482431,sales@phantasmvapors.com,2018-08-06,2019-12-31,,V,,,,
Puffin Vapes,1011 OH-28 Ste C,,Milford,OH,45150,US,,5132395951,,2017-12-02,2019-01-19,,V,,,,
Tobacco Hut,815 S Washington St,,Millersburg,OH,44654,US,,3306740219,,2020-07-11,,Yes,S,CBD,,,
P & R Tobacco,225 N Market St,,Minerva,OH,44657,US,,3308680864,,2020-02-02,,,T,,,,
Vapology Inc,25 American Way,,Monroe,OH,45050,US,,5138691161,vapology@yahoo.com,2018-08-19,2020-02-17,,V,,,,
"Your CBD Store - Montgomery, OH",9885 Montgomery Rd,,Montgomery,OH,45242,US,https://cbdrx4u.com/,5139963000,cbd3507@gmail.com,2019-09-15,2019-09-15,Yes,C,CBD,,,
Cheap Tobacco,1204 Lafayette Ave,,Moundsville,OH,26041,US,https://www.cheaptobaccousa.com/,3048455699,,2018-10-02,,Yes,S,CBD,,,
Sonny's Vape Shop,114 N High St,,Mount Orab,OH,45154,US,https://shopsonnys.com/,9374447999,,2018-11-17,2020-04-08,Yes,V,CBD,,,
Cheap Tobacco,112 W High St,,Mount Vernon,OH,43050,US,https://www.cheaptobaccousa.com/,7403974551,marketing@ctobacco.com,2018-10-02,,Yes,S,CBD,,,
Natures Kratom CBD,13 W High St,,Mount Vernon,OH,43050,US,https://mountvernoncbd.com/,7403138012,natureskratomcbd@yahoo.com,2021-03-02,2021-03-02,Yes,C,CBD,Yes,,
Rock Vapor Scissors,1002 Coshocton Ave Unit 3,,Mount Vernon,OH,43050,US,http://www.rvsvapor.com/,7403581821,rvsvapor@yahoo.com,2018-10-02,,Yes,V,CBD,,,
Epic Vapes Express Napoleon,1255 N Scott St Ste 370,,Napoleon,OH,43545,US,https://www.epicvapes.com/,5672882227,info@epicvapes.com,2018-09-30,,Yes,V,CBD,,,
GVapor & More,4637 Gallia St,,New Boston,OH,45662,US,,7407270467,,2018-08-06,2019-12-24,Yes,V,CBD,Yes,,
Just Smokes,650 McAdams Dr,,New Carlisle,OH,45344,US,,9378499087,,2022-03-11,2022-03-11,,T,,,,
Cheap Tobacco,763 Carroll St,,New Lexington,OH,43764,US,https://www.cheaptobaccousa.com/,7403422710,,2018-10-02,,Yes,S,CBD,,,
Coyote Vape,9592 US-40 W,,New Paris,OH,45347,US,,9372400403,coyotevape@gmail.com,2018-08-06,2019-12-15,Yes,V,CBD,,,
AltSmoke,545 W High Ave,,New Philadelphia,OH,44663,US,https://altsmoke.com/,3303651146,,2014-08-26,2019-02-18,,V,,,,
Cheap Tobacco,537 W High Ave,,New Philadelphia,OH,44663,US,https://www.cheaptobaccousa.com/,3303088182,marketing@ctobacco.com,2018-10-02,2022-01-12,Yes,S,CBD,Yes,,
Kool Ragz,118 S Broadway St,,New Philadelphia,OH,44663,US,https://kool-ragz.business.site/,3303396950,,2018-11-14,,,H,,,,
Bonham Candy & Tobacco Co Inc,85 S 5th St,,Newark,OH,43055,US,,7403457425,,2019-07-27,,,T,,,,
Groovy Glassware,1075 N 21st St,,Newark,OH,43055,US,http://www.groovyglassware.com,7406412099,groovyglassware@yahoo.com,2020-02-11,,Yes,H,CBD,Yes,,
Puff N' Stuff,1016 Mt Vernon Rd,,Newark,OH,43055,US,https://www.puffnstuffnewark.com/,7403662552,,2018-10-02,,,S,,,,
Rock Vapor Scissors,1232 N 21st St,,Newark,OH,43055,US,http://www.rvsvapor.com/,7402813115,,2018-10-02,,,V,,,,
The Humidor,267 Deo Dr,,Newark,OH,43055,US,http://thehumidornewark.com/,7403661881,,2018-08-06,2020-04-09,,T,,,,
Uprite Vapor,1285 Log Pond Dr,,Newark,OH,43055,US,https://www.upritevapor.com/,7408994998,upritevapor@yahoo.com,2018-09-15,,,V,,,,
Westview Quick Smoke Shop,20 Ridge Rd,,Newton Falls,OH,44444,US,,3308724027,,2022-02-24,2022-02-24,,S,,,,
Alternative Smokes Vapor Island,2156 Youngstown Warren Rd,,Niles,OH,44446,US,,3305051003,,2019-07-17,,Yes,S,CBD,,,
New Drive Thru,2156 Youngstown Warren Rd,,Niles,OH,44446,US,,3305051003,,2021-08-02,,,O,,,,
Niles Smoke Shop,815 Youngstown Warren Rd,,Niles,OH,44446,US,,3305056133,nsrtrk@yahoo.com,2020-01-09,2021-12-05,,S,,Yes,,
Pandora Novelties & Gifts,5943 Youngstown Warren  Rd,,Niles,OH,44446,US,,3305056052,mezmorize2009@yahoo.com,2018-11-19,2021-02-18,,H,,Yes,,
Tri-Healthy CBD,5555 Youngstown Warren Rd,,Niles,OH,44446,US,https://www.tri-healthy.com/,8449943676,trihealthybiz@gmail.com,2020-06-01,2021-07-14,Yes,C,CBD,,,
Vapor Land Eastwood Mall,5555 Youngstown Warren Rd Unit 248,,Niles,OH,44446,US,https://vapor-land-eastwood-mall.business.site/,3305038507,,2019-06-02,,,V,,,,
Erik's Grocery Bag,835 E Maple St,,North Canton,OH,44720,US,,3304942822,,2021-08-03,,,O,,,,
House Of Vapes Canton,4251 Portage St NW,,North Canton,OH,44720,US,https://house-of-vapes-canton.business.site/,2343470844,,2018-08-06,2019-12-25,,V,,,,
Smoke 4 Less,1664 N Main St Ste 27,,North Canton,OH,44720,US,,3305266219,,2020-02-17,,Yes,T,CBD,,,
Your CBD Store,936 S Main St,,North Canton,OH,44720,US,https://cbdrx4u.com,3305266946,,2020-12-07,,Yes,C,CBD,,,
The Vapors Choice,9011 Market St,,North Lima,OH,44452,US,,3302888896,thevaporschoice@hotmail.com,2017-03-28,2019-12-20,Yes,V,CBD,,,
A Puff Above,27088 Lorain Rd,,North Olmsted,OH,44070,US,,4406176882,,2018-06-02,2018-10-12,,S,,,,
Brick City Vapors,26721 Brookpark Rd Ext,,North Olmsted,OH,44070,US,,4403857374,,2015-02-10,2019-01-30,,V,,,,
Vitrum Smoke Shop - North Olmstead,25193 Lorain Rd,,North Olmsted,OH,44070,US,https://www.vitrumsmoke.com/,4403857575,,2019-09-27,,Yes,H,CBD,Yes,,
Cheap Tobacco,32327 Cook Rd,,North Ridgeville,OH,44039,US,https://www.cheaptobaccousa.com/,4403094046,,2018-10-02,2018-11-11,Yes,S,CBD,,,
Cloud Chamber Vapor Lounge & Emporium,32668 Center Ridge Rd,,North Ridgeville,OH,44039,US,,4403874443,cloudchambervapor@gmail.com,2019-03-31,,Yes,V,CBD,,,
Puckerfish Vape,39043 Center Ridge Rd,,North Ridgeville,OH,44039,US,https://www.puckerfishvape.com/,4403270419,elyria@puckerfish.net,2018-10-02,,,V,,,,
All Puffs Vape & Smoke Shop,13517 W 130th St,,North Royalton,OH,44133,US,,4406529040,,2021-07-21,2021-08-07,Yes,S,CBD,,,
JB's Beverage and Tobacco Shop,10011 W 130th St,,North Royalton,OH,44133,US,,4402378290,,2018-08-07,2020-01-20,Yes,S,CBD,,,
Royalton CBD,12871 State Rd,,North Royalton,OH,44133,US,https://www.royaltoncbd.com/,4407731192,royaltoncbd@gmail.com,2021-01-20,,Yes,C,CBD,,,
Smoke Royal,12643 State Rd,,North Royalton,OH,44133,US,,4406529016,smokeroyal2020@gmail.com,2021-01-06,2021-01-06,Yes,S,CBD,Yes,,
Awesome Sauce Vapor,142 E Aurora Rd,,Northfield,OH,44067,US,http://www.vapeshopnorthfield.com/,3307484757,awesomesaucevapor@gmail.com,2018-08-06,2019-12-20,Yes,V,CBD,,,
Northfield Smoke & Vape Shop,10512 Northfield Rd #3,,Northfield,OH,44067,US,,3304686595,,2018-10-02,,,S,,,,
Deb's Body Jewelry And More,2600 Woodville Rd,,Northwood,OH,43619,US,http://www.debsbodyjewelry.com/,4196913100,debbiereynolds783@yahoo.com,2019-01-08,,Yes,H,CBD,,,
Cheap Tobacco,461 Milan Ave #3,,Norwalk,OH,44857,US,http://www.cheaptobacco.com/,4196639236,,2018-10-02,,Yes,S,CBD,,,
Glass N More Store Inc. - Norwalk,50 N Linwood Ave,,Norwalk,OH,44857,US,http://glassnmorestore.com/,5674246490,glasswarenow@yahoo.com,2019-01-03,2021-02-24,Yes,H,CBD,Yes,,
Puckerfish Vape,158 Milan Ave,,Norwalk,OH,44857,US,https://www.puckerfishvape.com/,4196609567,,2018-10-02,,,V,,,,
Glass N More Store Inc.,148 W Water St,,Oak Harbor,OH,43449,US,https://www.glassnmorestore.com,4196076256,glasswarenow@yahoo.com,2021-04-30,,Yes,H,CBD,Yes,,
Comic Cloud Ontario Vapor & CBD,2073 W 4th St,,Ontario,OH,44903,US,,4199897107,,2019-08-27,2019-08-27,Yes,V,CBD,,,
Puckerfish,1625 W 4th St,,Ontario,OH,44906,US,https://www.puckerfishvape.com/,4195290564,info@puckerfish.net,2018-09-08,2018-11-12,,V,,,,
"Dirt Cheap Tobacco, Vape & Glass",2513 Woodville Rd,,Oregon,OH,43616,US,,5673185655,,2018-08-06,2021-08-11,Yes,S,CBD,,,
The CBD Dispensary,3308 Navarre Ave,,Oregon,OH,43616,US,https://purecbd1.com/,4196983244,customerservice@purecbd1.com,2020-02-17,2020-02-17,Yes,C,CBD,,,
Vapors Quit Smoking Center,3308 Navarre Ave Ste C,,Oregon,OH,43616,US,https://vapors1.com/,4196983244,,2021-08-12,,Yes,V,CBD,,,
Wild Bill's Tobacco,3165 Navarre Ave Ste 3,,Oregon,OH,43616,US,http://www.wildbillstobacco.com/,4192140695,,2019-09-19,,,S,,,,
Village Tobacco,53 E Main St,,Orwell,OH,44076,US,,4404372016,,2019-09-28,,,S,,,,
Oxford Hookah Lounge,17 N Beech St,,Oxford,OH,45056,US,,5135231696,,2021-08-10,,,L,,,,
Oxford Smoke Time,109 W High St,,Oxford,OH,45056,US,,5135235778,,2018-11-17,2018-11-17,Yes,H,CBD,,,
Studio Vapes,111 W High St,,Oxford,OH,45056,US,https://www.studiovapes.com/,5135233304,studiovapes@gmail.com,2018-09-28,,,V,,,,
Wild Berry,15 W High St #1,,Oxford,OH,45056,US,https://www.wild-berry.com/,5135234345,store@wild-berry.com,2018-12-06,,Yes,H,CBD,,,
Grand Mini Mart,642 Mentor Ave,,Painesville,OH,44077,US,,4405795797,grandminimartpainseville@gmail.com,2021-01-14,,Yes,O,CBD,Yes,,
Puff n Snuff,150 Chestnut St,,Painesville,OH,44077,US,,4403572401,,2021-07-30,,Yes,S,CBD,Yes,,
Smokology Smoke Shop,1616 Mentor Ave,,Painesville,OH,44077,US,,4405795216,smokologyllc@gmail.com,2021-01-04,,Yes,S,CBD,,,
Vapor House,1472 Mentor Ave,,Painesville,OH,44077,US,https://www.vaporhousestores.com/,4402184268,vaporhouseohio@gmail.com,2018-08-19,2020-02-17,Yes,V,CBD,,,
Cheap Tobacco,5560 Ridge Rd,,Parma,OH,44129,US,https://www.cheaptobaccousa.com/,4408421228,,2018-10-02,,Yes,S,CBD,,,
E-Vapor Solutions,5359 Ridge Rd,,Parma,OH,44129,US,https://e-vaporsolutions.com/,4408852929,evaporsolutions@yahoo.com,2014-09-29,2019-02-18,,V,,,,
EV Naturals,1765 Snow Rd,,Parma,OH,44134,US,https://evnaturals.com/,4408570262,,2019-12-20,,Yes,C,CBD,,,
Holy Smokes,7872 Broadview Rd,,Parma,OH,44134,US,,2165206995,,2018-11-06,,,S,,Yes,,
Just Vape and CBD,1120 W Pleasant Valley Rd,,Parma,OH,44134,US,http://www.justvapeohio.com/,4408881224,justvapeohio@gmail.com,2018-08-07,2020-01-20,Yes,V,CBD,,,
Planet of the Vapes,5426 Ridge Rd,,Parma,OH,44129,US,,2169658888,,2021-08-09,,Yes,V,CBD,,,
CBD American Shaman Parma Heights,6629 Pearl Rd,,Parma Heights,OH,44130,US,https://cbdamericanshaman.com/,4403455059,dstcleveland@gmail.com,2019-11-11,,Yes,C,CBD,,,
Twisted Headz Smokeshop,6271 Pearl Rd,,Parma Heights,OH,44130,US,http://www.twistedheadz.com/,4403455991,twistedheadzsmokeshop@gmail.com,2018-11-02,,,S,,,,
Vapor Station Pataskala,588 E Broad St,,Pataskala,OH,43062,US,https://pataskalavaporstation.weebly.com/,7409190562,,2019-06-02,,,V,,,,
Premier Vapor,580 Craig Dr #11,,Perrysburg,OH,43551,US,https://www.premiervaporandlounge.com/,4199312012,,2018-10-02,,Yes,V,CBD,,,
The CBD Dispensary,10085 Fremont Pike,,Perrysburg,OH,43551,US,https://purecbd1.com/,4198743244,customerservice@purecbd1.com,2020-02-17,2020-02-17,Yes,C,CBD,,,
Purely CBD,1258 Hill Rd N,,Pickerington,OH,43147,US,https://www.purelycbd.net/,6149293598,holisticapproach1258@gmail.com,2020-11-06,,Yes,C,CBD,,,
Vapor Station,1222 Hill Rd N,,Pickerington,OH,43147,US,http://www.the-vapor-station.com/,6148668680,,2018-08-19,2018-09-24,Yes,V,CBD,,,
Cheap Tobacco,1598 Covington Ave Ste 160,,Piqua,OH,45356,US,https://www.cheaptobaccousa.com/,9377781988,,2018-10-02,2021-07-16,Yes,S,CBD,,,
Crazy Martin's Gifts & Novel,410 N Main St,,Piqua,OH,45356,US,,9377734721,crazymartins@live.com,2019-09-03,2019-09-03,Yes,H,CBD,,,
Nephos Vapor,110 W Ash St,,Piqua,OH,45356,US,https://nephosvapor.com/,9379164160,nephosvapro@gmail.com,2018-08-07,2020-01-22,,V,,,,
Glass N More Store Port Clinton,109 Madison St Ste E,,Port Clinton,OH,43452,US,http://glassnmorestore.com/,4199607117,glasswarenow@yahoo.com,2019-06-09,2020-05-15,Yes,H,CBD,Yes,,
Moonwyck's,115 Madison St,,Port Clinton,OH,43452,US,,4197326106,moonwycks@outlook.com,2020-05-12,2020-05-12,Yes,O,CBD,,,
The CBD Dispensary,4020 E Harbor Rd,,Port Clinton,OH,43452,US,https://purecbd1.com/,4197343244,customerservice@purecbd1.com,2020-02-17,2020-02-17,Yes,C,CBD,,,
VAPORS Quit Smoking Center,4020 E Harbor Rd,,Port Clinton,OH,43452,US,https://vaporsone.com/,4197343244,,2020-12-12,,,V,,,,
GVapor & More,1556 11th St,,Portsmouth,OH,45662,US,,7407270467,,2018-08-06,2019-12-24,Yes,V,CBD,,,
Vapors Portsmouth,2736 Scioto Trl,,Portsmouth,OH,45662,US,,7407758273,,2018-08-19,2020-02-17,Yes,V,CBD,,,
Cafe CBD,9693 Sawmill Rd,,Powell,OH,43065,US,https://cafecbdohio.com/,6146873738,cafecbdohio@yahoo.com,2020-11-21,,Yes,C,CBD,,,
M/I Wellness CBD,10255 Sawmill Pkwy,,Powell,OH,43065,US,https://www.miwellnesscbd.com/,6143895111,hello@miwellnesscbd.com,2021-03-17,,Yes,C,CBD,,,
Cheap Tobacco,1060 W Main St,,Ravenna,OH,44266,US,https://www.cheaptobaccousa.com/,3302963081,,2018-10-02,,Yes,S,CBD,,,
Tinker Box,236 W Main St,,Ravenna,OH,44266,US,,3302966165,thetinkerbox@gmail.com,2018-11-25,,,H,,,,
Advanced Vapor,6851 E Broad St,,Reynoldsburg,OH,43213,US,http://www.advancedvapor.info/,6146264406,,2014-09-21,2019-02-18,,V,,,,
Brice Park Smoke Shop & Carryout,6351 Tussing Rd,,Reynoldsburg,OH,43068,US,,6148683860,,2018-08-06,2019-08-25,Yes,S,CBD,,,
Nishi's Inc,2087 OH-256,,Reynoldsburg,OH,43068,US,,,,2020-01-29,,,T,,,,
Reynoldsburg Vapor Station,7055 E Main St,,Reynoldsburg,OH,43068,US,,6146940196,reynoldsburgvaporstation@yahoo.com,2018-10-02,,,V,,,,
VaporFi,2087 Baltimore Reynoldsburg Rd,,Reynoldsburg,OH,43068,US,https://www.vaporfi.com/,6146268732,info@reynoldsburg.vaporfi.com,2016-06-03,2019-01-11,Yes,V,CBD,,,
Waterbeds N Stuff,2177 OH-256,,Reynoldsburg,OH,43068,US,http://www.waterbedsnstuff.com,6148614650,admin@waterbedsnstuff.com,2018-12-27,2019-10-29,Yes,H,CBD,Yes,,
Vapor Haus,5564 Airway Rd,,Riverside,OH,45431,US,https://vaporhausdayton.com/,9372598694,chris.vaporhaus@gmail.com,2018-08-19,2020-02-17,Yes,V,CBD,,,
CBD American Shaman Lakewood,15000 Detroit Rd,,Rocky River,OH,44107,US,http://cbdamericanshaman.com,2164000402,lakewoodshaman@gmail.com,2020-04-02,2020-04-02,Yes,C,CBD,,,
Low Bob's Discount Tobacco,116 Sunnyside Ave,,Russells Point,OH,43348,US,http://www.lowbob.com/,9378439350,,2019-12-31,2019-12-31,,S,,,,
Bam's Smokes & Vapes,401 E Washington St,,Sabina,OH,45169,US,,9375849998,,2019-01-08,,Yes,S,CBD,Yes,,
I Adore CBD,67800 Mall Ring Rd #620,,Saint Clairsville,OH,43950,US,https://iadorecbd.com/,7408399609,iadorecbd@gmail.com,2020-07-08,2021-02-26,Yes,C,CBD,,,
Ohio Valley Vapor Station,52171 National Rd E Ste 5,,Saint Clairsville,OH,43950,US,https://ovvs.net/,7404492288,colenaylor49@gmail.com,2018-09-30,,Yes,V,CBD,,,
Rapture Vapor,67800 Mall Rd #525,,Saint Clairsville,OH,43950,US,https://www.rapturevapor.com/,7406951945,rapturevapor@gmail.com,2014-10-10,2020-01-18,Yes,V,CBD,,,
Alternative Smokes,2955 E State St,,Salem,OH,44460,US,https://alternativesmokes.business.site/,3307702241,,2018-07-02,2018-10-13,Yes,V,CBD,,,
Cheap Tobacco,200 E 2nd St Ste L,,Salem,OH,44460,US,http://www.cheaptobacco.com/,3303329191,,2018-10-02,,Yes,S,CBD,,,
Drip Drop Juice,265 N Ellsworth Ave,,Salem,OH,44460,US,http://www.dripdropjuice.com/,2345751931,,2018-08-07,2020-01-19,,V,,Yes,,
Valley Tobacco,2789 E State St,,Salem,OH,44460,US,,3303322311,,2022-02-23,2022-02-23,Yes,S,CBD,,,
Butts & More,305 W Perkins Ave,,Sandusky,OH,44870,US,,4196252888,,2019-07-29,,,T,,,,
Cheap Tobacco,221 W Perkins Ave,,Sandusky,OH,44870,US,https://www.cheaptobaccousa.com/,4196211880,,2018-10-02,,Yes,S,CBD,,,
Glass N More Store,202 W Market St,,Sandusky,OH,44870,US,http://glassnmorestore.com/,4195029122,glasswarenow@yahoo.com,2019-01-03,2020-05-10,Yes,H,CBD,Yes,,
Kali-Daze,1028 Cleveland Rd,,Sandusky,OH,44870,US,https://kali-daze.com,4196211811,kalidaze01@gmail.com,2019-01-03,2022-04-27,Yes,H,CBD,Yes,,
Puckerfish Vape,1212 Hull Rd Unit C,,Sandusky,OH,44870,US,https://www.puckerfishvape.com/,4195022282,,2018-10-02,,,V,,,,
Puckerfish Vape,220 W Perkins Ave,,Sandusky,OH,44870,US,https://www.puckerfishvape.com/,4195020232,,2018-10-02,,,V,,,,
Purple Haze Smoke Shop,1144 Cleveland Rd,,Sandusky,OH,44870,US,http://www.purplehazess.com,5672835106,,2019-05-26,2019-06-05,Yes,H,CBD,,,
The CBD Dispensary,513 E Perkins Ave,,Sandusky,OH,44870,US,https://purecbd1.com/,4196253244,customerservice@purecbd1.com,2020-02-17,2020-02-17,Yes,C,CBD,,,
The Hookah Connection,220 W Perkins Ave,,Sandusky,OH,44870,US,https://the-hookah-connection-sandusky.business.site/,4195023030,,2019-01-08,2019-01-08,Yes,H,CBD,,,
VAPORS Quit Smoking Center,513 E Perkins Ave,,Sandusky,OH,44870,US,https://vaporsone.com,4196253244,,2020-12-12,2020-12-12,,V,,,,
"Your CBD Store - Sandusky, OH",3104 Milan Rd Ste D,,Sandusky,OH,44870,US,https://cbdrx4u.com,4199752071,,2020-12-06,,Yes,C,CBD,,,
Hemptations,11353 Lebanon Rd,,Sharonville,OH,45241,US,https://www.hemptations.com/,5135244367,hemptations@yahoo.com,2018-11-30,2018-11-30,Yes,H,CBD,Yes,,
True Vapes,11974 Lebanon Rd,,Sharonville,OH,45241,US,,5135540800,truevapesohio@outlook.com,2017-12-02,2019-01-19,,V,,,,
Erie Shore Vapors,5442 Colorado Ave,,Sheffield,OH,44054,US,,4406950771,glvapes@gmail.com,2019-04-11,2019-04-11,,V,,,,
VaporCast,5220 Cobblestone Rd,,Sheffield Village,OH,44035,US,http://vaporcastsheffield.com/,4409348273,adam@vaporcast.com,2018-08-19,2019-10-02,Yes,V,CBD,,,
CR Butt's Discount Tobacco,569 N Vandemark Rd,,Sidney,OH,45365,US,,9374989585,,2019-09-03,,Yes,T,CBD,,,
Epic Vapes Sidney Ohio,1588 Michigan St,,Sidney,OH,45365,US,https://epicvapes.com/,9375074586,,2021-01-01,,Yes,V,CBD,,,
JoJo Vapes Sidney,2034 W Michigan St,,Sidney,OH,45365,US,https://www.jojovapessidney.us/,8445656827,,2018-08-07,2020-01-20,Yes,V,CBD,,,
AltSmoke of South Euclid,13929 Cedar Rd,,South Euclid,OH,44118,US,https://altsmoke.com/,2162021006,,2015-02-09,2018-10-29,,V,,,,
Trippy's Smoke Shop,4491 Mayfield Rd,,South Euclid,OH,44121,US,https://trippyssmokeshop.com/,2163825804,info@trippyssmokeshop.com,2018-09-15,2019-06-26,Yes,S,CBD,Yes,,
Kure CBD & Vape,294 County Rd 120 S #5,,South Point,OH,45680,US,https://www.kurevapes.com/pages/kure-cbd-and-vape-south-point-oh-county-rd,7402636631,guestservices@kuresociety.com,2021-08-03,,Yes,C,CBD,,,
AltSmoke,11588 Springfield Pike,,Springdale,OH,45246,US,https://altsmoke.com/,5138737701,,2014-08-26,2019-02-18,,V,,,,
East Main Smoke Shop,1814 E Main St,,Springfield,OH,45503,US,,9373223905,,2019-10-02,,,S,,,,
JoJo Vapes,1990 N Bechtle Ave,,Springfield,OH,45504,US,https://jojovapes.com/,9373429005,sales@jojovapes.com,2018-09-30,,,V,,,,
Just Smokes,1629 Selma Rd #20,,Springfield,OH,45505,US,,9373279443,,2019-12-23,,,T,,,,
Just Smokes,1940 Mitchell Blvd,,Springfield,OH,45503,US,,9373900449,,2019-12-23,,,T,,,,
Just Smokes,1012 N Bechtle Ave,,Springfield,OH,45504,US,,9373222332,,2019-12-19,2021-06-28,Yes,T,CBD,,,
Purely CBD-Healthy Oils,1714 E Main St,,Springfield,OH,45503,US,https://purely-cbd-healthy-oils.business.site/,9375059105,,2021-02-07,,Yes,C,CBD,,,
Tip Top Smoke Emporium,3471 E National Rd,,Springfield,OH,45505,US,https://tiptopsmoke.com/,9377171102,support@tiptopsmoke.com,2018-09-15,2022-04-26,Yes,S,CBD,,,
Vapor Haus,2067 N Bechtle Ave,,Springfield,OH,45504,US,https://vaporhausdayton.com/,9375056009,chris.vaporhaus@gmail.com,2020-12-13,,Yes,V,CBD,,,
Vapor Royals,1128 N Plum St,,Springfield,OH,45504,US,,9374607768,vaporroyals@yahoo.com,2018-09-24,,,V,,,,
America's CBD Store,122 W Main St,,St Clairsville,OH,43950,US,,5175265936,,2020-11-17,,Yes,C,CBD,,,
Epic Vapes - St Marys,1246 Indiana Ave,,St Marys,OH,45885,US,https://www.epicvapes.com/,4197386671,geisemj@gmail.com,2015-09-06,2019-04-23,Yes,V,CBD,,,
Pastime J&J Smoke Shop,118 N 6th St,,Steubenville,OH,43952,US,,7403148272,,2018-11-03,,,S,,,,
Smokey's Discount Cigarette,4201 Sunset Blvd,,Steubenville,OH,43952,US,,7402643880,,2020-03-18,,Yes,S,CBD,Yes,,
Smoke Connection,3732 Darrow Rd,,Stow,OH,44224,US,,2346786500,smokeconnectllc@gmail.com,2021-09-03,2021-09-03,Yes,T,CBD,,,
Smoker Friendly,4411 Kent Rd Unit 1,,Stow,OH,44224,US,http://smokerfriendly.com/,3306861188,,2020-03-05,,Yes,S,CBD,,,
Vapor House,9761 OH-14,,Streetsboro,OH,44241,US,https://www.vaporhousestores.com/,3305485900,vaporhouseohio@gmail.com,2018-08-19,2020-02-17,Yes,V,CBD,,,
Botanical Rhapsody Organics,13281 Prospect Rd,,Strongsville,OH,44149,US,https://botanicalrhapsody.com/,4407831986,cs@botanicalrhapsody.com,2020-11-21,,Yes,C,CBD,,,
House of Vapes,14494 Pearl Rd,,Strongsville,OH,44136,US,,4402686616,,2015-01-26,2018-12-25,,V,,,,
The Glass House,19097 Drake Rd,,Strongsville,OH,44136,US,http://www.glasshouseohio.com/,4405728287,glasshouseapplication@gmail.com,2018-09-28,,Yes,H,CBD,,,
Cigarettes 4 Less,866 Youngstown-Poland Rd,,Struthers,OH,44471,US,,3307502505,,2019-09-11,,,S,,,,
The HCV Store,108 S Main St,,Swanton,OH,43558,US,https://www.hcvstores.com/,8445223428,sales@hcvstores.com,2021-08-16,2021-08-16,Yes,H,CBD,Yes,,
The Loonar Station,6423 Monroe St,,Sylvania,OH,43560,US,https://www.loonarstation.com/,4195177170,lora@loonarstation.com,2020-12-15,,Yes,S,CBD,,,
Glass N More Store - Tiffin,164 S Washington St,,Tiffin,OH,44883,US,http://www.glassnmstore.com,5672206330,glasswarenow@yahoo.com,2019-01-03,2020-05-10,Yes,S,CBD,Yes,,
HempCo,204 S Sandusky St,,Tiffin,OH,44883,US,,5672207900,hempco.ohio@gmail.com,2021-01-27,,Yes,C,CBD,,,
The Attic Tiffin,257 S Washington St,,Tiffin,OH,44883,US,https://www.facebook.com/theattictiffin/,5672207064,,2020-11-18,,Yes,S,CBD,,,
"Vapor Emporia - Tiffin, Ohio",390 W Market St Ste 1,,Tiffin,OH,44883,US,https://vapor-emporia-findlay.myshopify.com/,5679386035,vaporemporia@gmail.com,2018-08-19,2020-02-17,Yes,V,CBD,,,
632 Main St,632 Main St,,Toledo,OH,43605,US,,4196937893,,2021-04-30,,Yes,H,CBD,,,
Black Castle Glass and Vape,5846 Central Ave,,Toledo,OH,43615,US,,4192141312,,2018-10-14,,Yes,S,CBD,,,
Butt Hut,216 New Towne Square Dr,,Toledo,OH,43612,US,,4197250080,,2021-08-16,,,T,,,,
Butt Hut,6172 Summit St,,Toledo,OH,43611,US,,4197292888,,2021-08-16,,,T,,,,
CBD 4 Real,1026 N Holland Sylvania Rd,,Toledo,OH,43615,US,https://www.hemp4real.com/,4194809800,cbd4real@gmail.com,2020-11-23,,Yes,C,CBD,,,
Happy Shack Smoke Shop,3820 W Alexis Rd,,Toledo,OH,43623,US,,4198198989,happyshacktoledo@gmail.com,2021-08-16,2021-08-16,Yes,S,CBD,,,
Hemp CBD Vape Glass,3820 W Alexis Rd,,Toledo,OH,43623,US,,4192798611,customersupport@cbdshed.org,2021-01-25,,Yes,C,CBD,,,
Infinite Vapor USA,347 S Reynolds Rd,,Toledo,OH,43615,US,,4194075034,james@infinitevaporusa.con,2018-09-30,,,V,,,,
Loonar Station,1217 S Reynolds Rd,,Toledo,OH,43615,US,http://www.loonarstation.com,4197200505,,2019-01-08,2019-01-08,Yes,H,CBD,,,
Loonar Station,3153 Central Ave,,Toledo,OH,43606,US,http://www.loonarstation.com,4197200424,,2019-01-08,,Yes,H,CBD,,,
Moes Smokes,3015 Glendale Ave,,Toledo,OH,43614,US,https://moessmokes.business.site/,4194075095,,2021-08-16,2022-02-11,Yes,S,CBD,Yes,,
NiceCloud Vapor,5318 Heatherdowns Blvd,,Toledo,OH,43614,US,https://www.nicecloudvapor.com/,4194818151,nicecloudvapes@gmail.com,2018-10-02,2020-03-18,,V,,,,
Revolver Electronic Cigarettes Vapor Lounge,3015 N Holland Sylvania Rd Ste E,,Toledo,OH,43615,US,https://revolvercig.com/,4195319100,customer-service@revolvercig.com,2018-10-02,,,V,,,,
Smoke Shack - Glass & Vape,5235 Dorr St,,Toledo,OH,43615,US,,4195782924,,2019-05-13,,Yes,S,CBD,,,
The CBD Dispensary,5226 Monroe St,,Toledo,OH,43623,US,https://purecbd1.com/,4194753244,customerservice@purecbd1.com,2020-02-17,,Yes,C,CBD,,,
The Crave Cave Vapor Lounge,5 N McCord Rd,,Toledo,OH,43615,US,https://www.cravecavevaporlounge.com/,4198652283,cravecavevaporlounge@gmail.com,2018-09-19,,Yes,V,CBD,,,
The Head Shed,2014 Glendale Ave,,Toledo,OH,43614,US,,4198419747,joe@cybershed.com,2018-11-01,2018-11-13,Yes,H,CBD,,,
The Head Shed,5015 Lewis Ave,,Toledo,OH,43612,US,,4194787883,joe@cybershed.com,2019-01-08,,Yes,H,CBD,,,
Tobacco & Hookah Express,4015 Secor Rd,,Toledo,OH,43623,US,,4192698852,tobaccoxpress@hotmail.com,2021-08-16,,Yes,S,CBD,,,
Tobacco Haven,821 W Alexis Rd,,Toledo,OH,43612,US,,4192699350,,2021-08-16,,,T,,,,
Tobacco Stop,4235 Monroe St #A,,Toledo,OH,43606,US,,4194729883,,2020-02-28,2020-02-28,Yes,T,CBD,,,
Toledo Hemp Center,4925 Jackman Rd Ste 20,,Toledo,OH,43613,US,https://toledohempcenter.com/,4197249588,toledohempcenter@gmail.com,2020-12-03,,Yes,C,CBD,,,
Vape Station,1515 S Byrne Rd Ste 116,,Toledo,OH,43614,US,,4192141501,kyledougherty2193@gmail.com,2018-09-15,,,V,,,,
Vape Super Center - Alexis St.,821 W Alexis Rd Ste E-29,,Toledo,OH,43612,US,https://www.vscstore.com/,4192699350,mike@vapesupercenter.com,2018-09-15,,,V,,,,
Vape Super Center - Monroe St.,4956 Monroe St Ste E,,Toledo,OH,43623,US,https://www.vscstore.com/,4194743084,dan@vapesupercenter.com,2018-09-15,,,V,,,,
VAPORS Quit Smoking Center,5226 Monroe St Unit B,,Toledo,OH,43623,US,https://vaporsone.com,4194753244,,2020-12-12,,Yes,V,CBD,,,
VaporWorld,236 New Towne Square Dr #1A,,Toledo,OH,43612,US,,4192140199,smokeoutcorp@gmail.com,2018-09-22,,Yes,V,CBD,,,
Vaporworld Hemp and CBD,5001 Monroe St,,Toledo,OH,43623,US,https://hemp4real.com/,4194612910,alexisstoresgroup@gmail.com,2021-08-16,2021-08-16,Yes,V,CBD,,,
Wild Bill's Tobacco,1728 W Laskey Rd,,Toledo,OH,43613,US,https://www.wildbillstobacco.com/locations/wild-bills-of-toledo/,4195030708,,2021-08-16,,,S,,Yes,,
Wild Bill's Tobacco,5300 Monroe St,,Toledo,OH,43623,US,https://www.wildbillstobacco.com/locations/wild-bills-of-toledo-2/,4195171381,,2021-08-16,,,S,,Yes,,
"Your CBD Store - Toledo, OH",5239 Dorr St,,Toledo,OH,43615,US,https://cbdrx4u.com/,4192140979,toledooh@cbdrx4u.com,2019-09-15,2019-09-15,Yes,C,CBD,,,
Liquid Cloud Vape,709 E State St,,Trenton,OH,45067,US,,5135716874,,2018-08-07,2020-01-21,Yes,V,CBD,,,
Jojo Vapes,1731 W Main St,,Troy,OH,45373,US,https://jojovapes.com/,8445656827,sales@jojovapes.com,2018-09-30,2020-01-20,Yes,V,CBD,,,
"Your CBD Store - Troy, OH",1802 W Main St,,Troy,OH,45373,US,https://cbdrx4u.com,9377031110,troy606@cbdrx4u.com,2020-12-05,,Yes,C,CBD,,,
Havana's Choice Cigars,8027 Darrow Rd,,Twinsburg,OH,44087,US,https://havanaschoicecigars.com/darrow-rd-twinsburg/,3304869440,info@havanaschoicecigars.com,2021-07-31,,Yes,T,CBD,,,
Stuff-N-Puffs,8936 Darrow Rd Unit C,,Twinsburg,OH,44087,US,http://stuffnpuffs.com/,3304253280,twinsburg.oh@vapermate.com,2018-08-19,2020-04-09,,V,,,,
Smokers Paradise and Liquor,225 E 3rd St,,Uhrichsville,OH,44683,US,,7409228707,smokesrus101@yahoo.com,2021-08-04,,Yes,T,CBD,Yes,,
70s Rock Shop,300 N Main St,,Union,OH,45322,US,,9378367779,,2018-10-25,,,H,,Yes,,
Vape On The Square,17 Monument Square,,Urbana,OH,43078,US,http://vape-square.com/,9379198273,,2018-09-15,,,V,,,,
Epic Vapes,807 Fox Rd,,Van Wert,OH,45891,US,https://www.epicvapes.com/,5672420846,epicvapes1@outlook.com,2018-09-30,,,V,,,,
Jojo Vapes,308 E National Rd,,Vandalia,OH,45377,US,https://jojovapes.com/,9375760001,sales@jojovapes.com,2018-09-30,2018-10-29,,V,,,,
Monkeys Smoke Shop,328 N Dixie Dr,,Vandalia,OH,45377,US,http://www.monkeysusa.com,9376629131,nick@monkeysusa.com,2018-10-29,,Yes,S,CBD,Yes,,
Vapor Haus,786 Northwoods Blvd,,Vandlia,OH,45377,US,https://vaporhausdayton.com/,9373016461,chris.vaporhaus@gmail.com,2018-08-19,2020-02-17,Yes,V,CBD,,,
Awesome Sauce Vapor and CBD,224 High St,,Wadsworth,OH,44281,US,https://www.vaporizerstorewadsworth.com/,3303348273,awesomesaucevapor@gmail.com,2015-09-15,2020-06-18,Yes,V,CBD,,,
Epic Vapes Wapakoneta,1252 Bellefontaine St,,Wapakoneta,OH,45895,US,https://www.epicvapes.com/,4197386671,info@epicvapes.com,2018-09-30,,Yes,V,CBD,,,
Macky's Health & Hemp/CBD Market,124 W Auglaize St,,Wapakoneta,OH,45895,US,,4197399060,,2021-03-17,,Yes,C,CBD,,,
CBD American Shaman Warren,1955 Niles Cortland Rd NE Ste 2,,Warren,OH,44484,US,https://cbdamericanshaman.com/,2348064433,cbdamericanshamanwarren@gmail.com,2020-09-24,,Yes,C,CBD,,,
Cheap Tobacco,4329 Mahoning Ave Ste B,,Warren,OH,44483,US,https://www.cheaptobaccousa.com/,3303928383,,2018-10-02,,Yes,S,CBD,,,
Hodas Tobacco,663 Elm Rd NE,,Warren,OH,44483,US,,3302402348,,2019-12-09,2019-12-09,Yes,S,CBD,,,
Little Bros Smoke Shop,1329 Youngstown Rd SE Ste 1,,Warren,OH,44484,US,,3303674199,,2019-05-02,2019-05-02,Yes,S,CBD,,,
Steel Valley CBD,531 E Market St,,Warren,OH,44483,US,https://steel-valley-cbd.com/,3304696468,steelvalleycbd@gmail.com,2021-01-02,,Yes,C,CBD,,,
Vapors Heaven,1448 Parkman Rd NW,,Warren,OH,44485,US,,2346005001,vaporsheaven@yahoo.com,2018-09-30,2021-07-10,Yes,V,CBD,,,
Cheap Tobacco,92 Washington Sq,,Washington Court House,OH,43160,US,https://www.cheaptobaccousa.com/,7403358437,,2018-10-02,2021-07-16,Yes,S,CBD,,,
Vapors,219 Draper St,,Washington Court House,OH,43160,US,http://www.fusejuse.com/,7406204222,juice@fusejuse.com,2018-01-15,2019-01-22,,V,,,,
Wild Bill's Tobacco,1480 N Shoop Ave,,Wauseon,OH,43567,US,https://www.wildbillstobacco.com/locations/wild-bills-of-wauseon/,4193371000,,2021-08-19,,Yes,S,CBD,,,
The Boo-Tique Smoke Shop & Vapor,676 N Main St,,Wellington,OH,44090,US,,4406470000,boosmat@live.com,2019-05-20,,,S,,,,
Monkeys Smoke Shop,830 Watertower Ln,,West Carrollton,OH,45449,US,http://www.monkeysusa.com,9378184034,nick@monkeysusa.com,2018-11-02,2019-09-04,Yes,S,CBD,Yes,,
Philman's,912 Watertower Ln Ste A,,West Carrollton,OH,45449,US,,9378667445,,2018-11-06,2019-10-20,,H,,,,
Glass House Smoke Shop,8973 Cincinnati Columbus Rd,,West Chester,OH,45069,US,https://cincinnatiglasshousesmokeshop.com,5138471008,glasshousesmokeshopllc@gmail.com,2021-11-07,2021-11-07,Yes,S,CBD,,,
Planet Caravan,8097 Beckett Center Dr,,West Chester,OH,45069,US,,5138680710,,2018-10-02,2020-04-02,Yes,H,CBD,Yes,,
"Your CBD Store - West Chester, OH",7731 Tylers Place Blvd,,West Chester,OH,45069,US,https://cbdrx4u.com/,5138478030,cbd3507@gmail.com,2019-09-15,2019-09-15,Yes,C,CBD,,,
Cloud 9 Oxford,4962 Union Centre Pavilion Dr,,West Chester Township,OH,45069,US,http://www.cloud9vaporlounge.com/,5135238273,cloudninevaporlounge@gmail.com,2018-10-19,2018-10-19,,V,,,,
Max'M Vapes,7320 Kingsgate Way Ste B,,West Chester Township,OH,45069,US,,5138476460,,2018-08-07,2020-01-22,,V,,,,
Purely CBD,8179 Princeton Glendale Rd #G,,West Chester Township,OH,45069,US,https://www.purelycbd.net/,5138600127,westchester@thepurelycbd.com,2020-11-06,,Yes,C,CBD,,,
Tobacco Discounters,7743 Tylersville Rd # B,,West Chester Township,OH,45069,US,http://www.tdohio.com/,5137558847,tdohio5@gmail.com,2018-09-15,,Yes,T,CBD,Yes,,
VaporKings Lounge,509 E Main St,,West Union,OH,45693,US,https://vaporkingslounge.com/,9377793148,tpcentertainment@yahoo.com,2019-10-01,,,V,,,,
Advanced Vapor,536 S State St,,Westerville,OH,43081,US,http://www.advancedvapor.info/,6149426480,,2014-09-21,2019-02-18,,V,,,,
Life Of Kratom,2509 W Schrock Rd,,Westerville,OH,43081,US,https://lifeofkratom.com/,6147497498,,2021-03-13,,Yes,O,CBD,,,
Motive Wellness CBD,170 N Sunbury Rd,,Westerville,OH,43081,US,https://trymotivewellness.com/,8884412963,info@motivecbd.com,2021-03-11,2021-03-11,Yes,C,CBD,,,
Westlake CBD American Shaman,31039 Center Ridge Rd Ste B,,Westlake,OH,44145,US,https://cbdamericanshaman.com/,4405616223,info@westlakecbd.com,2020-07-21,,Yes,C,CBD,,,
Sado's Discount Tobacco,116 Blossom Centre Blvd,,Willard,OH,44890,US,,4199337236,,2019-08-27,,,S,,,,
Premium Hemp Co.,36495 Vine St Ste E,,Willoughby,OH,44094,US,https://premiumhempco.com/,4409758273,premiumhempco@gmail.com,2018-10-02,2021-02-09,Yes,C,CBD,,,
Premium Vapors,36495 Vine St E,,Willoughby,OH,44094,US,http://premiumvaporsinc.com/,4409758273,premiumvapors@gmail.com,2021-07-30,,Yes,V,CBD,,,
Retro Vape 2,37111 Euclid Ave Unit A,,Willoughby,OH,44094,US,,4405714744,,2019-05-09,,,V,,,,
Tye Dye Sky,36495 Vine St Ste K,,Willoughby,OH,44094,US,,4409513838,tyedyesky.shop@gmail.com,2018-10-29,2020-03-21,Yes,H,CBD,Yes,,
Vapor Rev,38669 Mentor Ave Ste B,,Willoughby,OH,44094,US,https://www.vaporrevshop.com/,4405255603,,2018-08-19,2020-02-17,Yes,V,CBD,,,
"Your CBD Store - Willoughby, OH",37812 Vine St,,Willoughby,OH,44094,US,https://cbdrx4u.com,4403068131,willoughby529@cbdrx4u.com,2020-12-04,,Yes,C,CBD,,,
Smoke World,28152 Chardon Rd,,Willoughby Hills,OH,44092,US,,4405852900,,2021-07-30,,,T,,,,
Discount Tobacco & Beverage,34722 Vine St,,Willowick,OH,44095,US,,4409462169,,2019-11-04,2019-11-04,Yes,S,CBD,,,
The Glass House,32888 Vine St,,Willowick,OH,44095,US,http://www.glasshouseohio.com/,4409428668,glasshouseapplication@gmail.com,2018-09-28,,Yes,H,CBD,,,
Tobacco Express,30740 Lakeshore Blvd,,Willowick,OH,44095,US,,4408334070,,2019-12-04,,,T,,,,
Cheap Tobacco,1338 Rombach Ave,,Wilmington,OH,45177,US,http://www.cheaptobacco.com/,9373830709,,2018-10-02,2021-07-16,Yes,S,CBD,,,
Discount Smokes & Gifts,981 S South St,,Wilmington,OH,45177,US,,9373823281,,2018-10-28,2018-10-28,Yes,S,CBD,Yes,,
Giggle Tree Treasures,7763 OH-73 W,,Wilmington,OH,45177,US,https://giggle-tree-treasures.business.site/,5136469951,giggletreetreasures18@gmail.com,2018-11-02,,,H,,,,
Rombach Smoke Shop,1675 Rombach Ave,,Wilmington,OH,45177,US,,9378050500,,2021-06-26,,Yes,S,CBD,,,
Groovy Glassware,150 Frank P Layman Blvd,,Wintersville,OH,43953,US,https://www.groovyglassware.com,3042806086,groovyglassware@yahoo.com,2021-06-18,2021-06-18,Yes,H,CBD,,,
Steel Valley Vapors,432 Main St,,Wintersville,OH,43953,US,,7402754113,,2019-05-19,,,V,,,,
Best Price LLC,516 Beall Ave,,Wooster,OH,44691,US,,3302647293,,2019-07-24,,,T,,,,
Cheap Tobacco,503 E Liberty St,,Wooster,OH,44691,US,https://www.cheaptobaccousa.com/,3302027727,,2018-10-02,2021-07-16,Yes,S,CBD,,,
Mezmorize,340 E Liberty St,,Wooster,OH,44691,US,,3306011680,mezmorize2009@yahoo.com,2019-01-03,,Yes,H,CBD,Yes,,
Vapor Mix,4182 Burbank Rd Ste D,,Wooster,OH,44691,US,https://www.woostervapormix.com/,3303451556,woostervapormix@gmail.com,2018-08-19,2020-02-17,Yes,V,CBD,,,
Liquid Nics,110 Hospitality Dr Ste A,,Xenia,OH,45385,US,http://www.liquidnics.com/,9377088443,liquidnics@gmail.com,2018-08-06,2019-12-22,Yes,V,CBD,,,
Xenia Smoke Shop,37 E Main St,,Xenia,OH,45385,US,,9373720259,,2019-09-03,,Yes,S,CBD,,,
The Import House,124 Dayton St,,Yellow Springs,OH,45387,US,,9377679499,importhouse.ys@gmail.com,2018-10-02,2020-02-28,Yes,H,CBD,,,
The Smoking Octopus,309 Xenia Ave,,Yellow Springs,OH,45387,US,https://www.smokingocto.com/,9377695035,,2020-03-16,2020-03-16,Yes,S,CBD,,,
Alternative Smokes,7105 Lockwood Blvd,,Youngstown,OH,44512,US,https://www.facebook.com/alternativesmokes/,2343204122,,2018-10-27,,Yes,V,CBD,,,
Belmont Drive Thru,1840 Belmont Ave,,Youngstown,OH,44504,US,,3307474013,,2021-07-31,2022-02-15,,O,,,,
Paradise Alley,2721 Mahoning Ave,,Youngstown,OH,44509,US,,3307934279,,2019-01-08,,Yes,H,CBD,,,
Smoker Friendly,3814 Belmont Ave,,Youngstown,OH,44505,US,http://smokerfriendly.com/,3307590034,,2020-03-04,,Yes,T,CBD,,,
St. George & The Dragon,2706 Market St,,Youngstown,OH,44507,US,,3307822086,,2019-01-08,2019-02-18,,H,,,,
The Puff Express,19 Stadium Dr,,Youngstown,OH,44512,US,https://www.thepuffexpress.com/,3303308915,justpuffbarz@gmail.com,2021-08-03,,Yes,V,CBD,,,
Tri-Healthy CBD Southern Park Mall,7401 Market St,,Youngstown,OH,44512,US,https://www.tri-healthy.com/,8449943676,trihealthybiz@gmail.com,2020-06-01,2020-06-01,Yes,C,CBD,,,
Youngstown Vapes,1502 S Raccoon Rd Ste 3,,Youngstown,OH,44515,US,,3303308287,youngstownvapes@gmail.com,2018-08-19,2020-02-17,Yes,V,CBD,,,
Groovy Glassware,3118 Maple Ave,,Zanesville,OH,43701,US,http://www.groovyglassware.com,7402974101,groovyglassware@yahoo.com,2019-01-03,2020-02-10,Yes,H,CBD,Yes,,
Kings of Vapor,131 Maysville Pike,,Zanesville,OH,43701,US,http://kingsofvapor.com/,7404874053,matt@kingsofvapor.com,2018-08-07,2020-01-21,Yes,V,CBD,,,
Kings of Vapor + CBD,3205 Maple Ave,,Zanesville,OH,43701,US,http://kingsofvapor.com/,7404538273,info@kingsofvapor.com,2018-08-07,2020-01-21,Yes,V,CBD,,,
Smoker Friendly,2850 Maysville Pike #B10,,Zanesville,OH,43701,US,https://www.smokerfriendlywv.com/,7404508970,,2018-10-02,2018-10-28,Yes,S,CBD,,,
Smoker Friendly,3285 Maple Ave,,Zanesville,OH,43701,US,https://www.smokerfriendlywv.com/,7405880051,,2018-10-02,2018-10-28,Yes,S,CBD,,,
Vapor Joe's,2365 Maple Ave,,Zanesville,OH,43701,US,,7404870483,,2018-08-19,2020-02-17,Yes,V,CBD,,,