Shop Name,Address 1,Address 2,City,State/Province,Zip/Postcode,Country,Website,Phone,Email,Added,Updated,CBD,Biz Type,MJ,Kratom,Buyer name ,Title 
My CBD Organics,1121 NJ-34,,Aberdeen,NJ,7747,US,https://mycbdorganics.com/,7325766050,info@mycbdorganics.com,2021-08-10,,Yes,C,CBD,,,
J & J Cigars,678 White Horse Pike,,Absecon,NJ,8201,US,,6093778548,,2018-11-23,,,S,,,,
"Your CBD Store - Absecon, NJ",790 White Horse Pike,,Absecon,NJ,8201,US,https://cbdrx4u.com/,6092777792,,2019-09-13,,Yes,C,CBD,,,
Coil & Co. Vape Supply,611 Bangs Ave,,Asbury Park,NJ,7712,US,http://www.coilandco.com/,7324558277,hello@coilandco.com,2018-08-06,2019-01-06,Yes,V,CBD,,,
Funky Donkey Smoke Shop,404 Main St,,Asbury Park,NJ,7712,US,https://funky-donkey-smoke-shop.business.site/,8484594581,funkydonkeysmokeshop@gmail.com,2020-07-25,,Yes,S,CBD,,,
Pipe Dreams,1311 Memorial Dr,,Asbury Park,NJ,7712,US,,7323616364,hello@pipedreamsnj.com,2019-07-04,2019-07-04,Yes,S,CBD,,,
Wacky Tobaccy,716 Cookman Ave,,Asbury Park,NJ,7712,US,https://www.wackytobaccyco.com/,7326372051,admin@wackytobaccyco.com,2019-07-04,2019-07-04,Yes,S,CBD,Yes,,
Continental Tobacco & Candy,2146 Atco Ave,,Atco,NJ,8004,US,,8567672888,,2020-08-05,,,T,,,,
Pasha's Collection Tobacco Outlet,3807 Ventnor Ave,,Atlantic City,NJ,8401,US,https://pashas-collection-tobacco-outlet.business.site/,6094498900,,2021-09-10,,Yes,S,CBD,,,
Smoke and Vape,1729 Boardwalk,,Atlantic City,NJ,8401,US,,,,2021-09-10,,Yes,S,CBD,,,
Smoker Castle Inc,1430 Atlantic Ave,,Atlantic City,NJ,8401,US,https://smoker-castle-inc.business.site/,6093451436,,2018-09-24,,Yes,S,CBD,Yes,,
RAC Vapors,20 Center Ave #3,,Atlantic Highlands,NJ,7716,US,http://www.racvapors.com/,7322042786,contact@racvapors.com,2020-01-18,2020-01-18,Yes,V,CBD,,,
Good Guy Vapes & CBD - Avenel,1180 St George Ave,,Avenel,NJ,7001,US,https://goodguyvapes.com/,7325270669,info@goodguyvapes.com,2019-11-13,2019-11-13,Yes,V,CBD,,,
Vapor Shark,575 N Main St,,Barnegat,NJ,8005,US,https://www.vaporshark.com/,6093661061,support@vaporshark.com,2018-09-08,2020-03-15,,V,,,,
"Good Guy Vapes, CBD & Glass - Bayonne",794 Broadway,,Bayonne,NJ,7002,US,https://goodguyvapes.com/,2012854006,info@goodguyvapes.com,2018-08-06,2019-11-13,Yes,V,CBD,,,
Prime Hookah Inc,460 Broadway,,Bayonne,NJ,7002,US,https://www.primehookah.com/,2012508011,info@primehookah.com,2020-08-05,,,T,,,,
Remedy Smoke And Vape,745 US-9,,Bayville,NJ,8721,US,http://www.remedyofbayville.com,7329988220,remedyofbayville@gmail.com,2019-01-16,,Yes,S,CBD,Yes,,
Belleville Tobacco & Smoke Shop,386 Main St,,Belleville,NJ,7109,US,https://bellevilletobacco.business.site/,9737513081,,2021-09-08,,Yes,S,CBD,Yes,,
Prestige Vaping & Smoke,444 Washington Ave,,Belleville,NJ,7109,US,https://www.cedarsmoke.com/,2012046929,prestigevaping411@gmail.com,2018-09-28,2019-05-10,Yes,V,CBD,,,
Sahara Smoke Shop,115 S Black Horse Pike,,Bellmawr,NJ,8031,US,,8563128256,,2021-09-07,,Yes,S,CBD,,,
Vape HQ,36 S Washington Ave,,Bergenfield,NJ,7621,US,https://thevapehq.com/,2013382446,info@thevapehq.com,2018-09-12,,,V,,,,
Mode E-Cigarettes & Vapor Lounge,2 NJ-73,,Berlin,NJ,8009,US,http://modeecigs.com/,8564098197,,2018-10-07,,Yes,V,CBD,,,
Village Tobacco,41 Clementon Rd,,Berlin,NJ,8009,US,,8567685181,jgiberson@villagetobacconj.com,2021-09-21,,,T,,,,
"Good Guy Vapes, CBD & Glass - Bloomfield",20 Broad St,,Bloomfield,NJ,7003,US,https://goodguyvapes.com/,9733375210,info@goodguyvapes.com,2019-11-13,2019-11-13,Yes,V,CBD,,,
Lava Smoke Shop,186 Darling Ave,,Bloomfield,NJ,7003,US,,8623334962,,2021-09-09,,Yes,S,CBD,,,
Moon Light Smoke Shop,578 Bloomfield Ave,,Bloomfield,NJ,7003,US,,9737480652,,2020-01-09,,,S,,Yes,,
Smoke Masters,"398 Broad St,",,Bloomfield,NJ,7003,US,https://hookah-plus.business.site/,2016758620,,2019-04-22,2021-09-10,Yes,S,CBD,Yes,,
Sparkway Smoke and Vapor,47 Main St Unit 2,,Bloomingdale,NJ,7403,US,http://www.sparkwaysmokeandvapor.com/,9736027734,gardenstatesparkway@gmail.com,2018-09-14,2020-06-20,Yes,S,CBD,Yes,,
Divan Dione,344 Palisade Ave,,Bogota,NJ,7603,US,https://divandione.com/,2015461403,,2021-09-08,,Yes,S,CBD,,,
Your CBD Store,131 Hawkins Pl,,Boonton,NJ,7005,US,https://cbdrx4u.com/find-us/new-jersey/boonton,9737946707,boonton579@cbdrx4u.com,2021-06-04,,Yes,C,CBD,,,
Vape Shop Corner,206 Talmage Ave,,Bound Brook,NJ,8805,US,,9084485111,jose@vapeshopcorner.com,2021-09-12,,Yes,V,CBD,,,
Smoke Best Vape & Smoke Shop,411 Main St,,Bradley Beach,NJ,7720,US,,7323539903,smokebestbradleybeach@gmail.com,2019-09-10,,,S,,,,
Brick Vapors,231 Chambers Bridge Rd,,Brick,NJ,8723,US,,7324774333,,2014-08-30,2019-05-10,Yes,V,CBD,,,
"Good Guy Vapes, CBD & Glass - Brick",1037 Cedar Bridge Ave,,Brick,NJ,8723,US,https://goodguyvapes.com/,7322625083,ggvhack@gmail.com,2019-11-13,2019-11-13,Yes,V,CBD,,,
Lightz Up Smoke Shop,660 Mantoloking Rd,,Brick,NJ,8723,US,http://lightzupsmokeshop.com/,7322627606,lightzupsmokeshop@gmail.com,2018-11-24,,,S,,,,
PipeNJ,602 Mantoloking Rd Ste 1,,Brick,NJ,8723,US,http://www.pipenj.com/,7329847262,service@pipenj.com,2019-09-15,,Yes,H,CBD,Yes,,
Vaporistic - Brick,180 Drum Point Rd,,Brick,NJ,8723,US,http://www.vaporistic.com/,7324510008,vaporisticmail@gmail.com,2018-09-03,2019-06-03,Yes,V,CBD,,,
Wonderland Smoke Shop,905 NJ-70,,Brick,NJ,8724,US,http://wonderlandnj.com/,7328406420,info@wonderlandnj.com,2019-01-14,,,H,,,,
"Good Guy Vapes, CBD & Glass - Bridgewater",570 Union Ave,,Bridgewater,NJ,8807,US,https://goodguyvapes.com/,7324698273,info@goodguyvapes.com,2019-11-13,2019-11-13,Yes,V,CBD,,,
Beach Tobacco Cigar & Convenience,3106 Atlantic Brigantine Blvd,,Brigantine,NJ,8203,US,https://beachtobacco.com/,6099485396,,2019-07-22,2020-01-25,Yes,S,CBD,Yes,,
Inhale Exhale LLC,305 Lakehurst Rd Ste A,,Browns Mills,NJ,8015,US,,6092485916,inhales_exhales@yahoo.com,2018-10-22,,Yes,S,CBD,,,
The Vapor Room,141 US-46,,Budd Lake,NJ,7828,US,http://www.njvaporroom.com/,9735277808,,2018-09-22,,,V,,,,
Wizard Smoke Shop Budd Lake,141 US-46 #12,,Budd Lake,NJ,7828,US,http://wizardsmokeshop.com/,8622542209,info@wizardsmokeshop.com,2018-09-03,2020-03-05,Yes,S,CBD,Yes,,
Renzi's Cigars,1702 Mt Holly Rd,,Burlington,NJ,8016,US,http://www.renziscigarshop.com/,6093860400,renziscigars@yahoo.com,2018-09-24,,,T,,,,
Township News Centre,2506 Mt Holly Rd,,Burlington,NJ,8016,US,,6093879500,,2018-10-25,,Yes,T,CBD,,,
Nurse CBD,2002 Mt Holly Rd Unit 1,,Burlington Township,NJ,8016,US,https://www.nursehemp.com/,8564004367,hello@nursehemp.com,2021-09-10,2022-05-10,Yes,C,CBD,,,
Smoker's Outlet,913 Sunset Rd,,Burlington Township,NJ,8016,US,https://www.smokersoutletnj.com/,6096142468,smokersoutletnj@gmail.com,2020-08-07,,Yes,S,CBD,Yes,,
Dirty Jerzy Supplies,1369  NJ-23 S,,Butler,NJ,7405,US,https://www.dirtyjerzysupplies.com/,9732914193,damianwesler42@gmail.com,2022-03-21,2022-03-21,Yes,S,CBD,,,
Serenity Smoke Shop,1360 NJ-23 N,,Butler,NJ,7405,US,https://www.serenitysmokeshop.com/,9733688912,info@serenitysmokeshop.com,2018-09-24,2019-12-23,Yes,S,CBD,Yes,,
Vapors T Smoke Shop,254 Bloomfield Ave,,Caldwell,NJ,7006,US,https://www.smokeshopcaldwell.com/,9732289111,,2018-09-03,2020-03-05,Yes,V,CBD,,,
Cape May Cigars & Wine,421 Washington St,,Cape May,NJ,8204,US,,6098840088,,2018-10-15,2019-03-31,,T,,,,
Tobacco And Vapor Outlet,233 N Main St,,Cape May Court House,NJ,8210,US,https://www.capemaycourthousecbd.com/,8566493349,,2021-09-12,,Yes,S,CBD,Yes,,
Your CBD Store - Carlstadt,301 Hoboken Rd,,Carlstadt,NJ,7072,US,https://cbdrx4u.com,8882230050,carlstadtnj@cbdrx4u.com,2020-09-18,,Yes,C,CBD,,,
Nurse CBD,900 Marlton Pike W,,Cherry Hill,NJ,8002,US,https://www.nursehemp.com/,8564004367,hello@nursehemp.com,2021-09-10,,Yes,C,CBD,,,
Puff & Pipe,835 Cooper Landing Rd,,Cherry Hill,NJ,8002,US,https://www.puffnpipe.com/,8564828888,puffnpipe@gmail.com,2021-09-20,2021-09-20,Yes,S,CBD,,,
Tobacco Mart,2111 Marlton Pike W,,Cherry Hill,NJ,8002,US,,8564888885,,2021-09-21,,Yes,S,CBD,,,
130 Food Marts & Smoke Shop,2900 US-130,,Cinnaminson,NJ,8077,US,,8568292929,,2019-07-12,,Yes,S,CBD,Yes,,
Juicy Puff,2001 College Dr #8A,,Clementon,NJ,8021,US,https://www.myjuicypuff.com/,8563741111,myjuicypuff@gmail.com,2021-09-17,,,V,,,,
Puff N Pipe,2001 College Dr Ste 8B,,Clementon,NJ,8021,US,http://puffnpipe.com/,8563733333,puffnpipe@gmail.com,2018-12-28,,Yes,S,CBD,,,
Vape Plus Smoke Shop,453 Gorge Rd,,Cliffside Park,NJ,7010,US,https://vapeplussmokeshop.com/,2018406000,,2021-09-12,,Yes,S,CBD,Yes,,
Clifton Hookah and More,673 Clifton Ave,,Clifton,NJ,7011,US,https://cliftonhookahmore.business.site/,9737773737,,2021-09-08,,Yes,S,CBD,Yes,,
"Good Guy Vapes, CBD & Glass - Clifton",309 Lakeview Ave,,Clifton,NJ,7011,US,http://info@goodguyvapes.com,9737508273,goodguyvapes@gmail.com,2018-08-06,2019-11-13,Yes,V,CBD,,,
Hookah Paradise,1219 Main Ave,,Clifton,NJ,7011,US,http://www.hookahparadise.com/,9735466000,hookahparadise@yahoo.com,2018-08-06,2019-06-05,Yes,S,CBD,,,
Omars Smoke Shop 2,754 Van Houten Ave,,Clifton,NJ,7013,US,,9732722417,omarssmokeshop2@gmail.com,2021-09-10,,,S,,,,
Mama Vapes,2004 NJ-31 #3,,Clinton,NJ,8809,US,https://mama-vapes.business.site/,9087524421,mamavapes@gmail.com,2018-10-07,,,V,,,,
"Your CBD Store - Clinton, NJ",69 Wal-Mart Plaza,,Clinton,NJ,8809,US,https://cbdrx4u.com/,9083106373,clintonnj@cbdrx4u.com,2019-09-13,2019-09-13,Yes,C,CBD,,,
Almaz Smoke Shop,1333 Saint Georges Ave,,Colonia,NJ,7067,US,http://www.almazsmokeshop.com,8486667270,almazsmokeshop@yahoo.com,2018-11-21,,,S,,,,
My CBD Organics,45 Broadway,,Denville,NJ,7834,US,https://mycbdorganics.com/,9736464800,denvillenj@mycbdorganics.com,2021-09-02,,Yes,C,CBD,,,
United Card & Smoke Shop,13 Broadway,,Denville,NJ,7834,US,http://unitedcardandsmoke.com/,9736276718,info@unitedcardandsmoke.com,2019-11-14,2019-11-14,Yes,T,CBD,,,
Holidaze Smokeshop,1135 Hurffville Rd Unit 1,,Deptford Township,NJ,8096,US,,8563025139,holidaze.nj@gmail.com,2020-08-05,,Yes,S,CBD,,,
Corner Smoke Shop,1 E Blackwell St,,Dover,NJ,7801,US,,9733662550,,2019-01-12,2019-01-12,,S,,,,
SAJ Smoke Shop,10 E Madison Ave,,Dumont,NJ,7628,US,,2013384095,sajsmoke@gmail.com,2019-09-27,2019-10-03,Yes,S,CBD,Yes,,
Good Guy Vapes & CBD - East Brunswick,582 NJ-18,,East Brunswick,NJ,8816,US,https://goodguyvapes.com/,7327863458,info@goodguyvapes.com,2018-08-06,2019-11-13,Yes,V,CBD,,,
Montreal Vape N Smoke Shop,706 NJ-18,,East Brunswick,NJ,8816,US,https://www.facebook.com/montrealsmokeshop/,7326136506,,2018-10-09,2019-06-17,Yes,S,CBD,Yes,,
Vape N Tobacco Shop,415 NJ-18,,East Brunswick,NJ,8816,US,,7322543444,,2021-09-12,,Yes,S,CBD,Yes,,
Wonderland Smoke Shop,272 NJ-18,,East Brunswick,NJ,8816,US,http://wonderlandnj.com/,7322387473,info@wonderlandnj.com,2019-01-14,2019-09-09,Yes,H,CBD,,,
Darth Vapor Smoke And Vape,50 NJ-10,,East Hanover,NJ,7936,US,http://darthvaporshops.com/,9735857954,darthvaporeh@gmail.com,2014-08-29,2021-09-15,Yes,S,CBD,,,
Primal Glass Smoke & Vape,319 NJ-10,,East Hanover,NJ,7936,US,https://myprimal.com/,9735857676,primalglass@gmail.com,2018-10-09,2018-11-12,Yes,S,CBD,,,
Wonderland Smoke Shop,320 NJ-10,,East Hanover,NJ,7936,US,http://wonderlandnj.com,8627016420,info@wonderlandnj.com,2019-01-14,,,H,,,,
CBD Headquarters,286 NJ-35,,Eatontown,NJ,7724,US,https://www.cbdheadquartersemporium.com/,7327200547,mmesolutionsllc@gmail.com,2019-08-15,2022-03-21,Yes,C,CBD,,,
Socialite Vape,28 Lewis St,,Eatontown,NJ,7724,US,,7324404824,,2021-09-11,,Yes,V,CBD,,,
Hemp and Honey,238 Old River Rd,,Edgewater,NJ,7020,US,https://www.hempandhoneynj.com/,2016990555,hello@hempandhoneynj.com,2021-09-09,,Yes,C,CBD,,,
1 South Vape Shop,485 US-1,,Edison,NJ,8817,US,,7326401500,,2018-08-06,2018-12-22,Yes,V,CBD,,,
RNR Smoke Shop And Convenience,2064 NJ-27,,Edison,NJ,8817,US,https://www.edisonsmokeshop.com/,8482715066,,2021-09-10,,Yes,S,CBD,Yes,,
Smoke & Tobacco,269 W White Horse Pike,,Egg Harbor City,NJ,8205,US,,6094455709,raza033@comcast.net,2021-04-01,2021-04-01,Yes,S,CBD,Yes,,
Gorilla Vapes of Egg Harbor,6698 Black Horse Pike,,Egg Harbor Township,NJ,8234,US,https://www.gorillavapes.com/,6094070200,gvofeggharbor@gorillavapes.com,2018-09-30,,,V,,,,
Jersey Vape Store,2164 Ocean Heights Ave,,Egg Harbor Township,NJ,8234,US,,6092336909,,2019-12-14,2019-12-14,Yes,V,CBD,,,
Roll N Smoke,6100 Black Horse Pike,,Egg Harbor Township,NJ,8234,US,,6098679173,furqanraza212@gmail.com,2022-04-18,2022-04-18,Yes,S,CBD,,,
1 & 9 Vape Smoke,701 Spring St,,Elizabeth,NJ,7201,US,http://1n9vapesmoke.com/,9084696461,1n9vapesmoke@gmail.com,2019-11-19,,Yes,V,CBD,Yes,,
Holy Smokes Express,845 Summer St,,Elizabeth,NJ,7202,US,https://www.holysmokes.store/,9084690600,holysmokesexpress845@gmail.com,2021-09-09,,Yes,S,CBD,Yes,,
Holy Smokes NJ,168 Elmora Ave,,Elizabeth,NJ,7202,US,https://www.holysmokesnj.com/,9089430569,holysmokesnj@aol.com,2018-08-06,2019-06-05,Yes,S,CBD,Yes,,
Mr. Nice Guy Smoke Shop,217 Broad St,,Elizabeth,NJ,7201,US,,9083511930,mrniceguyshop@gmail.com,2018-10-09,2019-06-17,Yes,S,CBD,,,
Urge Smoke Shop,943 Elizabeth Ave,,Elizabeth,NJ,7201,US,https://www.urgesmokeshop.com/,9088188743,support@urgesmokeshop.com,2018-09-24,2019-06-26,Yes,S,CBD,,,
201 Smoke Shop,90 W Palisade Ave Unit B,,Englewood,NJ,7631,US,http://201smokeshop.com/,2014085344,201smokeshop@gmail.com,2018-07-02,2018-10-12,Yes,S,CBD,,,
East Coast Vape & CBD,17 W Hudson Ave,,Englewood,NJ,7631,US,,2016085255,,2021-09-08,2021-09-29,Yes,V,CBD,,,
"Good Guy Vapes, CBD & Glass - Englewood",10 N Dean St,,Englewood,NJ,7631,US,https://goodguyvapes.com/,2014082775,info@goodguyvapes.com,2019-11-13,2019-11-13,Yes,V,CBD,,,
Serenity Smoke Shop,407 Grand Ave,,Englewood,NJ,7631,US,https://www.serenitysmokeshop.com/,2015670567,info@serenitysmokeshop.com,2018-09-24,,Yes,S,CBD,Yes,,
Good Karma Vapor,33-01 Broadway,,Fair Lawn,NJ,7410,US,https://www.goodkarmavapor.com/,2017738558,goodkarmavapor@gmail.com,2018-08-06,2019-12-22,,V,,,,
Puffcity Smoke Shop,24-18 Maple Ave,,Fair Lawn,NJ,7410,US,https://www.puffcity.com,7329529320,fairlawn@puffcity.com,2022-03-29,2022-03-29,Yes,S,CBD,,,
Care By Dank's,105 US-46,,Fairfield,NJ,7004,US,https://danks.co/,9735216980,,2020-06-23,,Yes,C,CBD,,,
Serenity Smoke Shop,461 US-46,,Fairfield,NJ,7004,US,https://www.facebook.com/serenitysmokeshop/,9734390100,info@serenitysmokeshop.com,2018-09-24,,Yes,S,CBD,Yes,,
Lit Smoke Shop,324 Anderson Ave,,Fairview,NJ,7022,US,https://litsmokeshop.business.site/,2019416444,info@litsmokeshop.net,2021-09-10,,Yes,S,CBD,,,
Bloody Good - Vape & Smoke,44 Nj-31,,Flemington,NJ,8822,US,https://bloodygoodvapeandsmoke.com/nj/flemington/,9088242632,bloodygoodvapeandsmoke@gmail.com,2019-07-02,2020-01-19,Yes,V,CBD,Yes,,
"Good Guy Vapes, CBD & Glass - Flemington",40 NJ-31 Unit B1,,Flemington,NJ,8822,US,http://goodguyvapes.com,9082373292,info@goodguyvapes.com,2019-11-13,2019-11-13,Yes,V,CBD,,,
Smoking Dragon,39 Mine St #2,,Flemington,NJ,8822,US,,9082373168,smokingdragonoutletonline@gmail.com,2018-09-24,2019-06-24,Yes,V,CBD,,,
Up In Smoke NJ,255 US-202 Ste 31,,Flemington,NJ,8822,US,http://upinsmoke-nj.com/,9089689200,sales@upinsmoke-vapes.com,2019-01-13,2019-01-13,Yes,S,CBD,Yes,,
Gorilla Vapes of Lacey,305 Lacey Road,,Forked River,NJ,8731,US,https://www.gorillavapes.com/,6094882459,mail@gorillavapes.com,2018-09-30,,,V,,,,
The Haunted Vapor Room,33 Munsonhurst Rd,,Franklin,NJ,7416,US,http://www.njvaporroom.com/,9738230260,thevaporroom2014@gmail.com,2018-09-22,,,V,,,,
Revolution Freehold,843 NJ-33 Bus,,Freehold,NJ,7728,US,,7324142848,revolutionfreehold@gmail.com,2020-01-12,,Yes,H,CBD,Yes,,
Socialite Vape,3494 US-9,,Freehold,NJ,7728,US,,7324146556,,2018-09-24,,,V,,,,
Wonderland,16 W Main St,,Freehold,NJ,7728,US,http://wonderlandnj.com/,7323330169,info@wonderlandnj.com,2019-01-14,2019-09-09,Yes,H,CBD,,,
9 South Vapes,323 E Jimmie Leeds Rd Ste 802,,Galloway,NJ,8205,US,https://www.9southvapes.com/,6092411461,9southnj@gmail.com,2014-09-03,2019-02-18,,V,,,,
Tobacco Outlet,254 E Jimmie Leeds Rd,,Galloway,NJ,8205,US,,6092416446,,2020-08-07,,Yes,S,CBD,Yes,,
EC Smokes Vapor Shop,138 Midland Ave,,Garfield,NJ,7026,US,http://www.ecsmokes.com/,9733402931,,2018-08-06,2020-01-13,Yes,V,CBD,,,
iPuff Smoke Shop,241 Harrison Ave,,Garfield,NJ,7026,US,,9733337858,ayouby1991@gmail.com,2018-11-19,2019-05-10,Yes,S,CBD,Yes,,
"Your CBD Store - Gibbstown, NJ",401 Harmony Rd Ste 20,,Gibbstown,NJ,8027,US,https://cbdrx4u.com/,8565990580,gibbstown@cbdrx4u.com,2019-09-13,2019-09-13,Yes,C,CBD,,,
Connoisseur by All in One Smoke Shop,846 Delsea Dr N,,Glassboro,NJ,8028,US,https://allin1smokeshop.com/,8565826653,smokingconnoisseur@gmail.com,2019-01-03,2019-07-27,,S,,,,
Wonderland Smoke Shop,20 US-22,,Green Brook,NJ,8812,US,http://wonderlandnj.com,7325296868,info@wonderlandnj.com,2018-12-27,,,H,,,,
V.Y.R.T. Glass and Vapes,6903 Bergenline Ave,,Guttenberg,NJ,7093,US,https://vyrtshop.com/,2012104282,info@vyrtshop.com,2021-11-23,2021-11-23,Yes,H,CBD,Yes,,
Fu King Smoke Shop,689 Main St,,Hackensack,NJ,7601,US,https://fu-king-smoke-shop.business.site/,2014209324,thefukingsmokeshop@gmail.com,2019-01-12,,,S,,,,
Magic Smoke 007/Docs Original,327 Hudson St Ste A,,Hackensack,NJ,7601,US,,9736302670,,2021-09-12,,Yes,S,CBD,,,
"Good Guy Vapes, CBD & Glass - Hackettstown",78 Main St Ste 40,,Hackettstown,NJ,7840,US,https://goodguyvapes.com/,9082698203,ggvhack@gmail.com,2019-11-13,2019-11-13,Yes,V,CBD,,,
Good Luck Vapes,198 Mountain Ave,,Hackettstown,NJ,7848,US,https://www.goodluckvapes.com/,9084525528,,2018-09-30,,,V,,,,
Mom N Pop CBD And Wellness Shop,110 Mill St,,Hackettstown,NJ,7840,US,https://drbrownscbd.com/,9083664320,momnpopcbdandwellnessshop@gmail.com,2021-03-12,,Yes,C,CBD,,,
Ends Of The Earth,6 Mechanic St,,Haddonfield,NJ,8033,US,,3219484745,,2021-09-16,,Yes,T,CBD,,,
Hookah Paradise,481 Haledon Ave,,Haledon,NJ,7508,US,http://www.hookahparadise.com/,9733412720,hookahparadise@yahoo.com,2018-08-06,2019-06-05,Yes,S,CBD,,,
Sweet Cloudz,81 NJ-23 North Unit C,,Hamburg,NJ,7419,US,http://www.sweetcloudz.com/,9739052130,,2019-10-23,,,V,,,,
Ecig Outpost,1905 NJ-33 Unit 11,,Hamilton,NJ,8742,US,http://www.ecigoutpost.com/,8482322418,ecohamiltonllc@gmail.com,2018-10-16,2018-10-16,,V,,,,
The Vape Shop,866 NJ-33 Ste 4,,Hamilton,NJ,8619,US,,6098381008,thevapeshop23@aol.com,2018-09-24,2019-11-01,Yes,V,CBD,,,
Gorilla Vapes,2 N White Horse Pike,,Hammonton,NJ,8037,US,https://www.gorillavapes.com/hammonton-nj/,8567533133,gorillavapeshammonton@gmail.com,2021-09-16,,Yes,V,CBD,,,
iVape - Harrison,402 Harrison Ave Ste A,,Harrison,NJ,7029,US,,2019898268,,2019-04-27,2019-04-27,Yes,V,CBD,,,
Wonderland Smoke Shop,155 NJ-17 S,,Hasbrouck Heights,NJ,7604,US,http://wonderlandnj.com/,2012887473,info@wonderlandnj.com,2019-01-14,,,H,,,,
Luv's Vapes,198 Diamond Bridge Ave,,Hawthorne,NJ,7506,US,,9733103660,,2018-10-07,,,V,,,,
732 Vape,1380 NJ-36,,Hazlet,NJ,7730,US,,7322173521,732vape@gmail.com,2018-08-06,2019-12-12,Yes,V,CBD,,,
Wonderland Smoke Shop,3044 NJ-35,,Hazlet,NJ,7730,US,http://wonderlandnj.com/,7322646420,info@wonderlandnj.com,2019-01-14,2019-09-09,Yes,H,CBD,,,
Elementz,100A Mercer St,,Hightstown,NJ,8520,US,https://elementz.business.site/,6093018906,,2018-10-21,2018-10-21,Yes,V,CBD,,,
404 Vape and Smoke Shop,404 Washington St,,Hoboken,NJ,7030,US,https://404-vape-and-smoke-shop.business.site/,2016830199,info@404smokes.com,2020-08-05,,Yes,S,CBD,,,
The Green Room,64 Newark St,,Hoboken,NJ,7030,US,https://www.thegreenroomnj.com/,2012382387,info@thegreenroomnj.com,2021-11-24,2022-03-25,Yes,C,CBD,,,
"Good Guy Vapes, CBD & Glass - Hopatcong",22 Lakeside Blvd Unit 3,,Hopatcong,NJ,7843,US,http://www.goodguyvapes.com/,9737708273,info@goodguyvapes.com,2019-11-13,2019-11-13,Yes,V,CBD,,,
Elite Smoke Shop,2458 US-9,,Howell,NJ,7731,US,https://www.elitesmokeshopnj.com/,7324146269,elitesmokeshopnj@gmail.com,2018-08-06,2019-09-16,Yes,S,CBD,Yes,,
Gorilla Vapes of Howell,2954 US-9,,Howell,NJ,7731,US,https://www.gorillavapes.com/,8483739798,gvofhowell@gorillavapes.com,2018-08-06,2019-12-23,Yes,V,CBD,,,
Sunny Vapes,1727 US-9,,Howell,NJ,7731,US,https://sunnyvapes.com/,8488636828,info@sunnyvapes.com,2021-09-20,2021-09-20,Yes,V,CBD,,,
Brothers Smoke Shop,1253 Springfield Ave #B,,Irvington,NJ,7111,US,https://brotherssmokeshop.business.site/,8622155922,,2020-08-09,,Yes,S,CBD,Yes,,
Oak Smoke Shop,746 Lyons Ave,,Irvington,NJ,7111,US,,,,2020-01-31,,,S,,,,
A&S Convenience and Smoke Shop,211 Washington St,,Jersey City,NJ,7302,US,,2014322500,,2021-11-23,2021-11-23,,S,,,,
Grove News Corner,119 Newark Ave,,Jersey City,NJ,7302,US,,2014320423,,2019-06-15,,,S,,,,
Jersey City Vape & Smoke Shop,355 2nd St,,Jersey City,NJ,7302,US,,2019840605,,2018-08-06,2019-06-08,,S,,,,
Smoke Shop,2822 John F. Kennedy Blvd,,Jersey City,NJ,7306,US,,2016530100,,2019-06-24,,,S,,,,
Smoker's Heaven Smoke & Vape Shop,58 Sip Ave,,Jersey City,NJ,7306,US,,2018395721,,2018-09-14,,,S,,,,
The Green Room,512 Jersey Ave,,Jersey City,NJ,7302,US,https://www.thegreenroomnj.com/,9736171805,info@thegreenroomnj.com,2021-11-24,2021-11-24,Yes,C,CBD,,,
The Hemp Social,521 Jersey Ave,,Jersey City,NJ,7302,US,https://www.thehempsocialco.com/,2013050052,info@thehempsocialco.com,2021-11-14,2021-11-14,Yes,C,CBD,,,
The Hemp Social - The Heights,391 Palisade Ave,,Jersey City,NJ,7307,US,https://www.thehempsocialco.com/,2013050052,info@thehempsocialco.com,2021-11-14,2021-11-14,Yes,C,CBD,,,
V.Y.R.T. Glass and Vapes,451 Central Ave,,Jersey City,NJ,7307,US,https://vyrtshop.com/,2012228105,info@vyrtshop.com,2021-11-23,2021-11-23,Yes,H,CBD,Yes,,
Village Pop,761 Bergen Ave,,Jersey City,NJ,7306,US,,2016857274,villagepoptattoo@yahoo.com,2019-06-26,,,H,,,,
City Smoke,258 Kearny Ave,,Kearny,NJ,7032,US,,2016282269,,2021-09-08,,,S,,,,
Lava Smoke Shop,502 Kearny Ave,,Kearny,NJ,7032,US,https://lavasmokeshop5.business.site/,2016282138,,2021-09-09,,Yes,S,CBD,,,
Grab N Go,321 S Michigan Ave,,Kenilworth,NJ,7033,US,,9082451941,khgandhi16@gmail.com,2021-09-09,,,O,,,,
Puff City Kenvil,489 US-46,,Kenvil,NJ,7847,US,https://www.puffcity.com/,8564733455,puffcity46@gmail.com,2020-08-09,,Yes,S,CBD,Yes,,
Down 2 Earth Wellness,30 W Front St,,Keyport,NJ,7735,US,http://www.down2earthwellness.com/,7324970955,info@down2earthwellness.com,2020-06-27,2022-04-10,Yes,C,CBD,Yes,,
Gorilla Vapes of Keyport,188 NJ-35,,Keyport,NJ,7735,US,https://www.gorillavapes.com/,7325668273,,2018-08-06,2019-12-23,Yes,V,CBD,,,
Outta Control,227 W Front St,,Keyport,NJ,7735,US,https://www.outtacontrolsmokeshop.net/,7328880081,,2019-01-13,2019-01-13,Yes,H,CBD,Yes,,
Vaping Connection,130 1st St,,Lakewood,NJ,8701,US,https://vaping-connection.business.site/,7328581757,info@vapingconnection.com,2019-06-01,2019-06-01,Yes,V,CBD,,,
North of Normal CBD,13 N Union St,,Lambertville,NJ,8530,US,https://www.13-north.com/,6097554220,sales@13-north.com,2020-09-24,,Yes,C,CBD,,,
Nobles Smoke Shop,629 US-9 #3,,Lanoka Harbor,NJ,8734,US,,6092428744,,2020-01-29,,Yes,S,CBD,Yes,,
Sunny Vapes,301 NJ-35 Unit 3,,Laurence Harbor,NJ,8879,US,https://sunnyvapes.com/,8879,info@sunnyvapes.com,2021-09-20,,Yes,V,CBD,,,
The Leaf,3349 US-1 #65,,Lawrenceville,NJ,8648,US,https://tobaccoleafintl.com/,6099361400,,2020-07-12,,,T,,,,
Wonderland Smoke Shop,2793 Brunswick Pike,,Lawrenceville,NJ,8648,US,http://wonderlandnj.com/,6093237473,info@wonderlandnj.com,2019-01-14,,,H,,,,
Kadets Glass & Vape,1271 US-22 Ste 7,,Lebanon,NJ,8833,US,https://kadetsglassandvape.com/,9082877075,,2019-06-30,,Yes,H,CBD,,,
Serenity Smoke Shop,538 NJ-10 W,,Ledgewood,NJ,7405,US,https://www.serenitysmokeshop.com/,9739709726,info@serenitysmokeshop.com,2018-09-24,,Yes,S,CBD,Yes,,
"Good Guy Vapes, CBD & Glass - Lincoln Park",7 Boonton Turnpike,,Lincoln Park,NJ,7035,US,http://www.goodguyvapes.com/,9736928273,info@goodguyvapes.com,2019-11-13,2019-11-13,Yes,V,CBD,,,
Wizard Smoke Shop Little Falls,39 Newark Pompton Turnpike,,Little Falls,NJ,7424,US,http://wizardsmokeshop.com/,9732000659,info@wizardsmokeshop.com,2018-09-03,2020-03-05,Yes,S,CBD,Yes,,
Aladdin Glass & Vape,195 US-46,,Lodi,NJ,7644,US,https://aladdingv.com/,9732726464,hello@aladdingv.com,2018-06-02,2018-10-12,Yes,H,CBD,,,
Cedar Smoke,2 Arnot St,,Lodi,NJ,7644,US,,9739284849,cedarsmoke2@gmail.com,2018-08-06,2019-08-23,Yes,S,CBD,Yes,,
The Smoke Shop,525 Beckett Rd Ste 3,,Logan Township,NJ,8085,US,,8568324616,beckettsmokeshop@gmail.com,2021-09-20,2021-09-20,Yes,S,CBD,,,
Monmouth Smoke Shop,651 2nd Ave,,Long Branch,NJ,7740,US,,7325715018,info@monmouthsmokeshop.com,2018-10-07,,Yes,S,CBD,,,
Puff Smoke Shop,492 Joline Ave,,Long Branch,NJ,7740,US,http://www.puffnstuffsmokeshop.com/,7322227179,puffsmokeshopinc@gmail.com,2018-10-09,2019-06-19,Yes,S,CBD,,,
Cloud Smoke Shop,200 Ridge Rd,,Lyndhurst,NJ,7071,US,,2015288154,laithhusein354@gmail.com,2020-08-05,,Yes,S,CBD,,,
Puff & Pipe,536 North White Horse Pike N Unit B,,Magnolia,NJ,8049,US,https://www.puffnpipe.com/,8562515555,puffnpipe@gmail.com,2021-09-20,,Yes,S,CBD,,,
Advantage Vapors,817 N Main St,,Manahawkin,NJ,8050,US,,6095973244,advantagevapor@gmail.com,2018-08-06,2019-12-13,Yes,V,CBD,,,
Corner Store Smoke Shop,1636 NJ-72,,Manahawkin,NJ,8050,US,https://www.smokeshopnj.com/,6092425825,cornerstoreshopnj@gmail.com,2020-08-04,,Yes,S,CBD,Yes,,
OG Smoke Shop Manalapan,300 Gordons Corner Rd,,Manalapan,NJ,7726,US,http://ogsmokeshopmanalapan.com/,7327446925,ogsmokeshopnj@gmail.com,2022-03-21,2022-03-21,Yes,S,CBD,Yes,,
Vape Ringz Smoke And Vape Shop,345 US-9 S,,Manalapan,NJ,7726,US,,7327926600,smokeringz99@gmail.com,2018-09-15,2021-09-21,Yes,S,CBD,Yes,,
CBDaily,305 US-9,,Manalapan Township,NJ,7726,US,https://cbdailyllc.com/,8003738108,,2020-12-11,,Yes,C,CBD,,,
Euro Smoke,246 S Main St,,Manville,NJ,8835,US,,9082108703,mytsakyaroslav@gmail.com,2020-02-22,,Yes,S,CBD,Yes,,
38 Tobacco Mart,461 NJ-38,,Maple Shade,NJ,8052,US,https://38-tobacco-mart.business.site/,8563562768,,2021-10-21,,Yes,S,CBD,,,
My CBD Organics,171 Maplewood Ave,,Maplewood,NJ,7040,US,https://mycbdorganics.com/,9739221622,denvillenj@mycbdorganics.com,2021-09-02,,Yes,C,CBD,,,
Gud2go Food Store,921 Rte 70 W,,Marlton,NJ,8053,US,,8569881088,,2021-09-16,2021-09-16,Yes,O,CBD,,,
Popie's Vapor Lounge,230 N Maple Ave,,Marlton,NJ,8053,US,http://popiesvapor.com/,8565964764,popiesvaporlounge@gmail.com,2014-09-01,2019-02-12,,V,,,,
Tobacco Mart,221 E Greentree Rd #D,,Marlton,NJ,8053,US,https://tobaccomartmarlton.wixsite.com/tobacco,8568727859,tobaccomartmarlton@gmail.com,2020-07-19,,Yes,S,CBD,Yes,,
"Good Guy Vapes, CBD & Glass - Matawan",343 NJ-34,,Matawan,NJ,7747,US,https://goodguyvapes.com/,7327059900,info@goodguyvapes.com,2019-11-13,2019-11-13,Yes,V,CBD,,,
Charming Vapors,800 NJ-50,,Mays Landing,NJ,8330,US,http://charmingvapors.com/,6098370101,cvmayslanding@charmingvapors.com,2019-08-02,,Yes,V,CBD,,,
Main Street Cigars,7 S Main St,,Medford,NJ,8055,US,https://www.mainstreetcigarsnj.com/,6096545700,mainstreetcigarsnj@gmail.com,2021-09-17,,Yes,T,CBD,,,
Metuchen Smoke Shop,387 Main St,,Metuchen,NJ,8840,US,,6097212026,metuchensmokeshop@gmail.com,2018-11-05,,Yes,S,CBD,,,
Vape Beast,143 US-1,,Metuchen,NJ,8840,US,https://www.vaporbeast.com/,7325152109,,2016-01-09,2019-01-31,Yes,V,CBD,,,
Smoke This Way,1313 Bound Brook Rd,,Middlesex,NJ,8846,US,,9084586853,smokethisway@gmail.com,2020-01-31,,Yes,S,CBD,Yes,,
Gorilla Vapes of Middletown,1296 NJ-35,,Middletown,NJ,7748,US,https://www.gorillavapes.com/,7326710127,,2018-08-06,2019-12-23,Yes,V,CBD,,,
JR Vapors,451 NJ-33,,Millstone,NJ,8535,US,https://www.jrvapors.com/,7324468273,jrvapors@mail.com,2015-08-12,2019-12-23,Yes,V,CBD,Yes,,
"Your CBD Store - Monmouth Beach, NJ",36 Beach Rd #6,,Monmouth Beach,NJ,7750,US,https://cbdrx4u.com/,7324033630,cbd3507@gmail.com,2019-09-13,2019-09-13,Yes,C,CBD,,,
VIP Smoke Shop,557 Englishtown Rd,,Monroe Township,NJ,8831,US,http://vip-smoke-shop.business.site/,7327920013,,2019-09-23,,,S,,,,
Inner Eye Boutique,343 Bloomfield Ave Ste B,,Montclair,NJ,7042,US,,9737449590,info@innereyeboutique.com,2018-08-06,2019-10-02,Yes,H,CBD,,,
Montclair Smoke and Mirrors,549 Bloomfield Ave,,Montclair,NJ,7042,US,,9737837585,montclairsmokeandmirrors@gmail.com,2019-01-03,2019-01-03,Yes,S,CBD,Yes,,
Montclair Smoke Shop,127 Valley Rd,,Montclair,NJ,7042,US,,9738629684,,2021-09-09,,Yes,S,CBD,,,
Montclair Video Boutique & Smoke Shop,385 Bloomfield Ave,,Montclair,NJ,7042,US,http://rt46video.com/,9732339393,,2019-01-13,2019-01-13,,H,,,,
Nurse CBD,400 NJ-38 #1383,,Moorestown,NJ,8057,US,https://www.nursehemp.com/,8564004367,hello@nursehemp.com,2021-09-10,2022-05-10,Yes,C,CBD,,,
Smoke N Vape Shop,4026 US-9 S,,Morganville,NJ,8857,US,,7327053300,,2018-08-06,2020-02-19,Yes,S,CBD,Yes,,
Golds,150 Morris St,,Morristown,NJ,7960,US,,9735380305,,2018-08-06,2019-07-16,Yes,S,CBD,Yes,,
Golds,150 Morris St,,Morristown,NJ,7960,US,,9735380305,,2019-07-10,,Yes,S,CBD,Yes,,
Super Gold Deli & Convenience,157 Morris St,,Morristown,NJ,7960,US,http://www.supergoldconvenience.com/,9739931194,,2019-06-24,,,S,,,,
Audio Depot / Vapor Depot,2439 US-206,,Mount Holly,NJ,8060,US,http://www.audiodepot.com/,6092658321,,2015-06-11,2019-05-10,Yes,V,CBD,,,
Moe's Tobacco Shop,434 Pine St,,Mount Holly,NJ,8060,US,,6097848798,,2021-09-17,,Yes,S,CBD,Yes,,
The ScyFli Smoke Shop And Glass Gallery,4201 Church Rd #8,,Mount Laurel,NJ,8054,US,http://scyfli.com/,8562347027,mark.sanders3@gmail.com,2018-12-09,2020-01-18,Yes,S,CBD,,,
Larchmont Tobacco & Cigar,3119 NJ-38 Unit 2,,Mount Laurel Township,NJ,8054,US,https://larchmont-tobacco-cigar.business.site/,8567939946,larchmonttobaccoandcigar@gmail.com,2021-09-17,2021-09-17,Yes,S,CBD,Yes,,
Top Line Vapor,1690 NJ-38 Ste 11,,Mt. Holly,NJ,8060,US,http://www.toplinevapor.com/,6092886466,jr@toplinevapor.comcastbiz.net,2018-09-30,2019-12-18,,V,,,,
"Good Guy Vapes, CBD & Glass - Nanuet",192 Main St,,Nanuet,NJ,10954,US,https://goodguyvapes.com/,8455017496,info@goodguyvapes.com,2019-11-13,2019-11-13,Yes,V,CBD,,,
Neptune Smoke Shop,706 NJ-35,,Neptune City,NJ,7753,US,,7327747373,,2020-01-27,,,S,,Yes,,
Supreme Cloud,1510 NJ-33,,Neptune City,NJ,7753,US,,9739061786,,2019-06-26,2019-07-04,Yes,S,CBD,,,
Amsterdam Smoke Shop,29 Easton Ave,,New Brunswick,NJ,8901,US,,7322462334,amsterdamsmokeshop@gmail.com,2018-11-02,,Yes,S,CBD,,,
Express Smoke & Vape Shop,30 Paterson St,,New Brunswick,NJ,8901,US,,7326401222,,2018-08-06,2019-09-16,Yes,S,CBD,,,
Rutgers Quick Shop,38 Easton Ave #A,,New Brunswick,NJ,8901,US,,7329378100,,2019-06-21,,,S,,,,
Broad Smoke Shop,690 River Rd Ste A,,New Milford,NJ,7646,US,http://www.broadsmokeshop.com/,2012659300,,2018-08-06,2019-08-25,,H,,,,
Joe's Wine and Spirits/Joe's Vapes,710 River Rd,,New Milford,NJ,7646,US,http://www.joesbeerwinespirits.com/,2015239770,joesbeerwinespirits@gmail.com,2018-08-06,2019-12-26,,V,,,,
Bob Smoke Shop,42 Ferry St,,Newark,NJ,7105,US,http://bobsmokeshop.blogspot.com/,9733688899,,2019-06-13,2019-06-13,Yes,S,CBD,,,
Brick City Vape & Smoke Shop,97 Ferry St,,Newark,NJ,7105,US,,8625768866,,2018-08-06,2019-05-22,Yes,S,CBD,,,
Cloud Depot Vape & Smoke Shop,273 Lafayette St,,Newark,NJ,7105,US,,9735891582,,2019-03-31,,,S,,,,
Ferry Smoke Shop,42 Ferry St,,Newark,NJ,7105,US,,9735585264,,2019-10-24,,Yes,S,CBD,,,
Its Lit Smoke Shop,1427 McCarter Hwy,,Newark,NJ,7104,US,,9739005670,,2020-08-09,,Yes,S,CBD,Yes,,
Let's Smoke Shop,95 Bloomfield Ave,,Newark,NJ,7104,US,https://www.letssmokeshop.com/,9737323282,,2019-05-02,2019-05-02,Yes,S,CBD,Yes,,
Smoking Monkey,46 Ferry St,,Newark,NJ,7105,US,https://www.smokingmonkeynj.com/,9737322207,smokingmonkeynj@gmail.com,2021-09-12,,Yes,S,CBD,,,
Good Guy Vapes & CBD - West Milford,2727 NJ-23 S Unit 2,,Newfoundland,NJ,7435,US,https://goodguyvapes.com/,9735452554,info@goodguyvapes.com,2019-11-13,2019-11-13,Yes,V,CBD,,,
CBD of Newton,209 Spring St,,Newton,NJ,7860,US,https://cbdofnewton.com,8623261111,patrickcbdays@gmail.com,2020-06-25,,Yes,C,CBD,,,
"Good Guy Vapes, Glass & CBD - Newton",231 Newton Sparta Rd,,Newton,NJ,7860,US,http://www.goodguyvapes.com/,9739401988,info@goodguyvapes.com,2019-12-09,2019-12-09,Yes,V,CBD,,,
Puff City Newton,521 US-206 North,,Newton,NJ,7860,US,https://www.puffcity.com/,9733004100,nj@puffcity.com,2020-08-09,2020-08-09,Yes,S,CBD,Yes,,
Dubai 1Smoke Shop,7111 Bergenline Ave,,North Bergen,NJ,7047,US,,9292575952,,2022-04-18,2022-04-18,Yes,S,CBD,Yes,,
Smoke Shop Mister,9100 Tonnelle Ave,,North Bergen,NJ,7047,US,http://www.smokeshopmister.com/,2017585577,smokeshopmister@gmail.com,2018-11-01,,Yes,S,CBD,,,
Jersey Smoke,2184 US-130 #7,,North Brunswick,NJ,8902,US,https://www.jersey-smokeshop.com/,7323056312,contactus.jerseysmokeshop@gmail.com,2021-09-09,,Yes,S,CBD,Yes,,
"Good Guy Vapes, CBD & Glass - North Plainfield",795 US-22,,North Plainfield,NJ,7060,US,https://goodguyvapes.com/,9087548273,info@goodguyvapes.com,2018-08-06,2019-11-13,Yes,V,CBD,,,
Flower Child,218 New Jersey Ave,,North Wildwood,NJ,8260,US,https://www.flowerchildnj.com/,6096755597,kaitlyn@flowerchildnj.com,2021-09-09,,Yes,C,CBD,,,
Hollywood Smokin,801 Tilton Rd,,Northfield,NJ,8225,US,,6093807916,info@hollywoodsmokin420.com,2018-09-08,2020-03-13,Yes,H,CBD,,,
Northfield News & Tobacco,1205 Tilton Rd #15,,Northfield,NJ,8225,US,,6096778100,,2020-01-29,2020-01-29,,S,,,,
The Shop,201 Tilton Rd Unit 1,,Northfield,NJ,8225,US,,6095685314,theshopnf@mail.com,2019-01-13,2019-01-13,Yes,H,CBD,Yes,,
Puff City Northvale,220 Livingston St #112,,Northvale,NJ,7647,US,https://www.puffcity.com/,2017507833,puffcitynorthvale@gmail.com,2020-08-09,2020-08-09,Yes,S,CBD,Yes,,
Wonderland Smoke Shop,2001 NJ-35,,Oakhurst,NJ,7755,US,http://wonderlandnj.com/,7325317473,info@wonderlandnj.com,2019-01-14,,,H,,,,
Frolic on the Pike,918 White Horse Pike,,Oaklyn,NJ,8107,US,http://www.frolicglass.com/,8568540100,info@frolicglass.com,2018-12-03,,Yes,H,CBD,,,
Puff & Pipe,814 White Horse Pike,,Oaklyn,NJ,8107,US,https://www.puffnpipe.com/,8562514444,puffnpipe@gmail.com,2021-09-20,2021-09-20,Yes,S,CBD,,,
VIP Smoke Shop & Vape,1102 White Horse Pike,,Oaklyn,NJ,8107,US,,8562407284,vip.tobaccoshop@gmail.com,2021-09-07,,Yes,S,CBD,Yes,,
Sunny Vapes,897 W Park Ave Unit 23,,Ocean,NJ,7712,US,https://sunnyvapes.com/,7329398030,info@sunnyvapes.com,2016-04-27,2019-01-09,Yes,V,CBD,,,
Marc's Cigars,624 E 8th St Fl 2,,Ocean City,NJ,8226,US,,6093994927,marcscigars@yahoo.com,2019-05-02,,,T,,,,
Ocean Cigars,3333 West Ave,,Ocean City,NJ,8226,US,http://oceancigarsnj.com/,6098141440,oceancigars@gmail.com,2018-10-09,,,T,,,,
Vaporistic - Ocean Township,1107 NJ-35,,Ocean Township,NJ,7712,US,http://www.vaporistic.com/,7326600022,vaporisticmail@gmail.com,2018-09-03,2019-06-03,Yes,V,CBD,,,
SR Tobacco Outlet,556 Sea Isle Blvd #A,,Ocean View,NJ,8230,US,https://bhavika-23-fuel.business.site/,6094786187,schopra739@gmail.com,2021-09-12,2021-09-12,Yes,S,CBD,Yes,,
Smokeland,2261 US-9,Fairway Plaza,Old Bridge,NJ,8857,US,,7323539903,ravi08@live.com,2022-01-26,2022-01-26,Yes,S,CBD,,,
Tobacco King,2557 County Rd 516,,Old Bridge,NJ,8857,US,,7329525465,,2019-12-10,,,S,,,,
Aladdin Glass & Vape,484 NJ-17,,Paramus,NJ,7652,US,https://aladdingv.com/,2015239230,hello@aladdingv.com,2018-06-02,2018-10-12,Yes,H,CBD,,,
"Good Guy Vapes, CBD & Glass - Parsippany",838 US-46,,Parsippany,NJ,7054,US,https://goodguyvapes.com/,9733968580,info@goodguyvapes.com,2018-08-06,2019-11-13,Yes,V,CBD,,,
Puff City Parsippany,1220 US-46 W,,Parsippany,NJ,7054,US,https://www.puffcity.com/,9732658496,puffcityparsippany@gmail.com,2020-08-09,2020-08-09,Yes,S,CBD,Yes,,
Route 46 Video Boutique & Smoke Shop,100 US-46,,Parsippany,NJ,7054,US,http://rt46video.com/,9732761981,,2019-01-13,,,H,,,,
Torch Smoke Shop,820 Main Ave,,Passaic,NJ,7055,US,https://torch-smoke-shop.business.site/,9737788989,torchsmokeshop@gmail.com,2020-08-09,,,S,,,,
5 Star Convenience Store & Smoke Shop,111 Market St,,Paterson,NJ,7505,US,,,,2019-07-13,,,S,,,,
Bloody Good Vape And Smoke,327 Main St,,Paterson,NJ,7505,US,https://bloodygoodvapeandsmoke.com/nj/paterson,9088242632,rhys.anders@gmail.com,2019-10-01,2021-12-13,Yes,S,CBD,Yes,,
Excelente Smoke Shop,249 Union Ave,,Paterson,NJ,7502,US,,9737825656,,2018-10-22,2018-10-22,Yes,S,CBD,,,
Habibi Smoke Shop,318 Haledon Ave,,Paterson,NJ,7508,US,,9736896761,,2021-09-09,2021-09-09,Yes,S,CBD,,,
Lava Smoke Shop,1019 Main St,,Paterson,NJ,7503,US,,9738456000,,2018-08-06,2019-10-08,Yes,S,CBD,,,
Nara Smoke Shop,1076 Main St #B,,Paterson,NJ,7503,US,,9739255991,info@narahookah.com,2020-08-13,,,T,,,,
Omar's Smoke Shop,684 Main St,,Paterson,NJ,7503,US,,9736845504,,2020-01-31,,,S,,,,
Xtra Smoke & Hookah Whole Sale,1090 Main St,,Paterson,NJ,7503,US,http://www.xtrasmokeshopnj.com/,8623361005,,2021-09-12,,,S,,,,
31 Smoke & Vape,2568 Pennington Rd Unit B,,Pennington,NJ,8534,US,,6097371550,31cbdshop@gmail.com,2020-01-29,2020-02-22,Yes,S,CBD,,,
Flavor Smoke Shop,5301 Marlton Pike,,Pennsauken,NJ,8108,US,,8566627760,flavorpipesnj@gmail.com,2019-01-12,,Yes,H,CBD,,,
Amboy Smoke Shop,345 Madison Ave,,Perth Amboy,NJ,8861,US,,7328263300,,2019-07-17,2019-07-17,,S,,,,
Hot Spot Hookah,169 Smith St,,Perth Amboy,NJ,8861,US,,7326385027,hotspothookah169@gmail.com,2021-09-10,2021-09-10,Yes,S,CBD,,,
"Good Guy Vapes, CBD & Glass - Phillipsburg",201 Stryker Rd Ste 10,,Phillipsburg,NJ,8865,US,http://www.goodguyvapes.com/,9084548518,info@goodguyvapes.com,2019-11-13,2019-11-13,Yes,V,CBD,,,
Vape 93,6 E Holly Ave,,Pitman,NJ,8071,US,http://curio93.com/,8563649512,,2014-11-13,2018-11-13,Yes,V,CBD,,,
Anytime Smoke And Vape Shop,3209 NJ-88,,Point Pleasant,NJ,8742,US,,8482322263,anytimesmokeshop@gmail.com,2019-07-04,2019-07-04,Yes,S,CBD,,,
Country Farms Vape and Smoke Shop,3122 NJ-88,,Point Pleasant,NJ,8742,US,https://countryfarmsvapeandsmokeshop.weebly.com/,8482323934,,2020-08-05,,,S,,,,
Open Minded Smoke & Specialty,2815 Bridge Ave,,Point Pleasant,NJ,8742,US,https://openmindednj.com,7327463663,openmindedsmokeandspecialty@gmail.com,2021-06-23,2021-06-23,Yes,H,CBD,,,
The E-Cig Outpost - Point Pleasant,3107 Bridge Ave,,Point Pleasant,NJ,8742,US,http://www.ecigoutpost.com/,8482322418,tonymont@optonline.net,2018-10-25,2019-03-31,,V,,,,
NJ Vapor Vault,406 Richmond Ave #B,,Point Pleasant Beach,NJ,8742,US,http://njvaporvault.com/,8482323177,njvaporvault@live.com,2018-09-12,,Yes,V,CBD,,,
Noble's Smoke Shop,504 Arnold Ave,,Point Pleasant Beach,NJ,8742,US,,7328927444,,2020-01-29,,Yes,S,CBD,Yes,,
"Good Guy Vapes, CBD & Glass - Pompton Lakes",271 Wanaque Ave,,Pompton Lakes,NJ,7442,US,https://goodguyvapes.com/,8623770362,info@goodguyvapes.com,2018-08-06,2019-11-13,Yes,V,CBD,,,
23 Vape Lounge,412 Rt 23 N,,Pompton Plains,NJ,7444,US,https://www.23vapelounge.com/,8626669033,23vape@optonline.net,2018-08-06,2019-12-12,Yes,V,CBD,,,
Urge Smoke Shop,1831 Paterson St Ste 1,,Rahway,NJ,7065,US,https://www.urgesmokeshop.com/,7328275158,support@urgesmokeshop.com,2019-06-26,2019-06-26,Yes,S,CBD,,,
Cigar World,735 NJ-17 S,,Ramsey,NJ,7446,US,,2019341142,,2018-11-14,,,T,,,,
Dirty Jerzy Supplies,256 NJ-10,,Randolph,NJ,7869,US,https://www.dirtyjerzysupplies.com/,,damianwesler42@gmail.com,2022-03-21,2022-03-21,Yes,S,CBD,,,
Legal Leaf New Jersey,477 NJ-10,,Randolph,NJ,7869,US,https://legalleafnj.com/,8624192222,randolph@legalleafnj.com,2022-03-17,2022-03-17,Yes,C,CBD,,,
Randolph News & Smoke Shop,146 Center Grove Rd,,Randolph,NJ,7869,US,,9733614660,,2020-01-18,,,T,,,,
Wizard Smoke Shop Randolph,81 NJ-10 #4,,Randolph,NJ,7869,US,http://wizardsmokeshop.com/,8622444341,info@wizardsmokeshop.com,2018-09-03,2019-09-15,Yes,S,CBD,Yes,,
Madvapes,11 US-206,,Raritan,NJ,8869,US,https://www.madvapes.com/,9084507632,support@madvapes.com,2018-10-07,2019-02-08,,V,,,,
Elite Smoke Shop,16 W Front St,,Red Bank,NJ,7701,US,https://www.elitesmokeshopnj.com/,7323835359,elitesmokeshopnj@gmail.com,2018-08-06,2019-09-16,Yes,S,CBD,Yes,,
Smoke Theory,65 Broad St,,Red Bank,NJ,7701,US,https://smoke-theory.business.site/,7325308888,,2020-08-07,,Yes,S,CBD,Yes,,
Rio Vape,1201 NJ-47,,Rio Grande,NJ,8242,US,https://www.capemaycourthousekratom.com/,6094355100,ashrafeekhan@gmail.com,2021-09-10,2021-09-10,Yes,V,CBD,Yes,,
Maja-Flava Vape Den,2 E Scott St,,Riverside,NJ,8075,US,http://www.majaflavavapeden.com/,8563938540,mimiegberts@live.com,2018-10-03,2021-06-15,Yes,V,CBD,,,
The Leaf of Robbinsville,2350 NJ-33 Ste 101,,Robbinsville,NJ,8691,US,https://tobaccoleafintl.com/,6092083700,tobaccoleafnj@gmail.com,2020-07-12,2020-07-12,,T,,,,
Cedar Smoke And Vape,223 NJ-17,,Rochelle Park,NJ,7662,US,https://www.cedarsmoke.com/,2018204422,cedarsmokeshop@yahoo.com,2018-08-06,2019-05-10,Yes,S,CBD,,,
Puff City Rochelle Park,114 Essex St,,Rochelle Park,NJ,7662,US,https://www.puffcity.com/,2012917833,puffcityrochellepark@gmail.com,2020-08-09,2020-08-09,Yes,S,CBD,Yes,,
"Good Guy Vapes, CBD & Glass - Rockaway",170 US-46,,Rockaway,NJ,7866,US,https://goodguyvapes.com/,8622094114,info@goodguyvapes.com,2018-08-06,2019-11-13,Yes,V,CBD,,,
Puff City Rockaway,337 US-46,,Rockaway,NJ,7866,US,https://www.puffcity.com/,9737844757,puffcityrockaway@gmail.com,2020-08-09,2020-08-09,Yes,S,CBD,Yes,,
Smoke City,471 West 1st Avenue,,Roselle,NJ,7203,US,,9084454553,,2021-09-08,,,S,,Yes,,
Cacique Cigars,17 W Westfield Ave,,Roselle Park,NJ,7204,US,https://caciquecigarsshop.com/,9082418764,caciquecigarsshop@gmail.com,2021-09-08,,,S,,,,
Smoker's Outlet,123 W Clements Bridge Rd,,Runnemede,NJ,8078,US,,8562193557,bharat99088@yahoo.com,2020-08-07,,Yes,S,CBD,,,
Tobacco Outlet,44 S Black Horse Pike Ste 2,,Runnemede,NJ,8078,US,,8562193773,,2020-07-14,,Yes,S,CBD,Yes,,
Good Karma Vapor,249 US-46,,Saddle Brook,NJ,7663,US,http://goodkarmavapor.com/,2018806998,,2019-11-14,,,V,,,,
Its Lit Smoke Shop,446 Market St,,Saddle Brook,NJ,7663,US,,2017425363,,2020-08-09,,Yes,S,CBD,Yes,,
Chillin' Out Smoke & Vape Shop,2006 US-22,,Scotch Plains,NJ,7076,US,https://www.chillinoutsmokeshop.com/,9084900039,chillinoutnj@gmail.com,2018-08-06,2019-08-05,Yes,H,CBD,,,
Dirty Jerzy Supplies,2360 South Ave,,Scotch Plains,NJ,7076,US,https://www.dirtyjerzysupplies.com/,,damianwesler42@gmail.com,2022-03-21,2022-03-21,Yes,S,CBD,,,
Vapor Fogg,1730 E 2nd St,,Scotch Plains,NJ,7076,US,https://www.vaporfogg.com,9082887485,mailquotega@gmail.com,2022-01-07,2022-01-07,Yes,S,CBD,,,
Nik Nak Smoke Shop,1555 Hurffville Rd Unit 1,,Sewell,NJ,8080,US,,8563735375,,2021-09-20,,Yes,S,CBD,Yes,,
Shatter Glass Gallery Vapor Lounge,653 Cross Keys Rd,,Sicklerville,NJ,8081,US,,8563187637,info@shatterglassvape.com,2018-10-17,2018-10-17,Yes,S,CBD,,,
Winslow Cigar Tobacco Vapors,542 Berlin - Cross Keys Rd,,Sicklerville,NJ,8081,US,,8566292004,,2021-09-21,,Yes,S,CBD,Yes,,
Somerdale News Tobacco Outlet & Smoke Shop,112 S White Horse Pike,,Somerdale,NJ,8083,US,,8562826506,,2021-09-20,2021-09-20,Yes,S,CBD,,,
Somers Point News & Tobacco,501 New Rd,,Somers Point,NJ,8244,US,,6093652194,,2020-03-27,2021-09-11,,T,,,,
Jersey Smoke,1075 Easton Ave,,Somerset,NJ,8873,US,http://jersey-smokeshop.com/,7322537977,info@jersey-smokeshop.com,2018-09-30,2020-02-25,Yes,S,CBD,Yes,,
Wee Shop CBD,657 Hamilton St,,Somerset,NJ,8873,US,https://www.weeshopcbd.com/,7327572866,weeshopcbd@gmail.com,2021-09-12,2022-01-10,Yes,C,CBD,,,
f0g.com,11 S Bridge St,,Somerville,NJ,8876,US,,9085752798,,2018-08-06,2019-05-27,,V,,Yes,,
Somerville Smoke Shop,120 W Main St Ste A,,Somerville,NJ,8876,US,http://www.somervillesmokeshop.com/,9084293144,info@somervillesmokeshop.com,2018-09-30,,Yes,S,CBD,Yes,,
Urban Chaos Smoke Shop,11 Division St,,Somerville,NJ,8876,US,http://www.urbanchaosnj.com/,9084507474,urbanchaosnj@yahoo.com,2018-09-30,2021-03-27,Yes,S,CBD,,,
Your CBD Store,140 W Main St,,Somerville,NJ,8876,US,https://cbdrx4u.com/find-us/new-jersey/somerville,9083106373,somervillenj@cbdrx4u.com,2021-06-04,,Yes,C,CBD,,,
Scarlet Reserve,1980 NJ-35,,South Amboy,NJ,8879,US,https://scarletreserve.com/,7329522245,eric@scarletreserve.com,2020-11-10,2020-11-10,Yes,C,CBD,,,
Garden State News & Smoke Shop,4 Village Plaza,,South Orange,NJ,7079,US,,9737624925,,2021-09-09,,,S,,Yes,,
Canna Campus,354 Lafayette Rd,,Sparta,NJ,7871,US,https://www.mycannacampus.com,9733832739,info@mycannacampus.com,2020-06-22,2021-05-22,Yes,C,CBD,,,
Prime Time Wellness Center,521 E Bay Ave,,Stafford,NJ,8050,US,http://www.primetimewellnesscenter.com,6092888170,primetimewellness@icloud.com,2018-11-25,2021-02-02,Yes,S,CBD,Yes,,
Cannahawkin Smoke & Vapor,31 N Main St,,Stafford Township,NJ,8050,US,,6093569247,,2021-09-08,2021-09-08,Yes,S,CBD,Yes,,
Jersey Jane's Smoke & Vape,2828 NJ-23,,Stockholm,NJ,7460,US,https://jerseyjanes.net/,9736977300,support@jerseyjanes.net,2019-10-08,2019-10-08,Yes,S,CBD,Yes,,
"Good Guy Vapes, Glass & CBD - Wantage",205 NJ-23,,Sussex,NJ,7461,US,http://www.goodguyvapes.com/,9735297040,info@goodguyvapes.com,2019-12-09,2019-12-09,Yes,V,CBD,,,
Puff City,7 Mill St,,Sussex,NJ,7461,US,https://www.puffcity.net/,9737022092,info@puffcity.net,2019-01-13,,,S,,,,
Vapor City Plus,35 Loomis Ave,,Sussex,NJ,7461,US,https://vaporcityplus.com/,9737023435,vaporcityplus@gmail.com,2018-08-06,2020-01-07,Yes,V,CBD,,,
EFUN,95 Woodstown Rd Ste D,,Swedesboro,NJ,8085,US,http://www.efun-vapor.com/,8562143531,efun@efun-vapor.com,2019-10-07,2019-10-07,Yes,V,CBD,,,
All The Smoke,167 Cedar Ln,,Teaneck,NJ,7666,US,https://allthesmokenj.com/,2018383475,,2021-11-28,2021-11-28,,H,,,,
Ipuff Smokeshop,1402 Teaneck Rd,,Teaneck,NJ,7666,US,,,,2021-11-23,2021-11-23,Yes,S,CBD,,,
9 South Vapes,300 Rte 37 E,,Toms River,NJ,8753,US,https://www.9southvapes.com/,7322441329,9southnj@gmail.com,2014-09-03,2019-02-18,,V,,,,
EarthE CBD Store,298 W Water St,,Toms River,NJ,8753,US,https://earthecbd.com/,7325034198,scarlino@earthecbd.com,2020-12-26,,Yes,C,CBD,Yes,,
Open Minded Smoke And Specialty,1776 Hooper Ave,,Toms River,NJ,8753,US,,7322556555,openmindedsmokeandspecialty@gmail.com,2019-01-12,2019-01-12,Yes,H,CBD,Yes,,
Rasta Smoke Shop Inc.,2811 Rte 37 E,,Toms River,NJ,8753,US,,7322701420,rastasmokeshopinc@gmail.com,2018-12-02,,,S,,,,
Vape Dr N Smoke Shop,886 Fischer Blvd Ste 2,,Toms River,NJ,8753,US,https://vapeshopdoc.com/,7326780114,,2021-09-12,,Yes,S,CBD,,,
"Good Guy Vapes, CBD & Glass - Trenton",1631 S Olden Ave,,Trenton,NJ,8610,US,http://www.goodguyvapes.com/,6095081071,info@goodguyvapes.com,2019-11-13,2019-11-13,Yes,V,CBD,,,
Trenton Tobacco 2,3 S Broad St,,Trenton,NJ,8608,US,,6093108976,trentontobacco2@gmail.com,2021-11-05,2021-11-05,Yes,S,CBD,,,
Win Place & Smoke,960 Spruce St,,Trenton,NJ,8648,US,,6096950206,winplaceandsmoke@gmail.com,2019-09-13,,,S,,,,
9 South Vapes,156 E Main St,,Tuckerton,NJ,8087,US,https://www.9southvapes.com/,6092946463,9southnj@gmail.com,2014-09-03,2018-11-11,,V,,,,
Juicy Puff,4870 NJ-42,,Turnersville,NJ,8012,US,http://www.myjuicypuff.com/,8563742222,myjuicypuff@gmail.com,2018-10-22,2018-10-22,,V,,,,
Puff N Pipe,4880 NJ-42,,Turnersville,NJ,8012,US,http://puffnpipe.com/,8563743000,puffnpipe@gmail.com,2018-12-28,2018-12-28,Yes,S,CBD,,,
Aladdin Glass & Vape,2317 US-22,,Union,NJ,7083,US,https://aladdingv.com/,9082068600,hello@aladdingv.com,2018-06-02,2018-10-12,Yes,H,CBD,,,
CannaBoy TreeHouse,1000 Stuyvesant Ave #A,,Union,NJ,7083,US,https://cannaboytreehouse.com/,9082587162,cannaboytreehouse@gmail.com,2020-08-05,,Yes,C,CBD,,,
"Good Guy Vapes, CBD & Glass - Union",2022 Morris Ave #B,,Union,NJ,7083,US,https://goodguyvapes.com/,9083498240,info@goodguyvapes.com,2018-08-06,2019-11-13,Yes,V,CBD,,,
iSmoke Shop,2460 US-22,,Union,NJ,7083,US,,9086867665,,2018-08-06,2019-10-02,Yes,S,CBD,,,
Kush Smoke Shop,1767 Route 22 West,,Union,NJ,7083,US,,9086241767,,2020-08-05,2021-10-04,Yes,S,CBD,,,
Rich And Famous Smoke Shop,550 North Ave Ste A2,,Union,NJ,7083,US,,9082488061,richnfamousnj@gmail.com,2018-10-28,2019-09-21,Yes,S,CBD,Yes,,
East West Novelties,330 48th St,,Union City,NJ,7087,US,http://www.eastwestnoveltyinc.com/,2018639486,eastwestnovelty@yahoo.com,2018-11-07,,Yes,H,CBD,,,
"Good Guy Vapes, CBD & Glass - Union City",4809 Park Ave,,Union City,NJ,7087,US,https://goodguyvapes.com/,8622831448,info@goodguyvapes.com,2019-11-13,2019-11-13,Yes,V,CBD,,,
Lit Up USA,405 Bloomfield Ave,,Verona,NJ,7044,US,https://litupusa.com,9734864808,,2019-06-26,,Yes,S,CBD,Yes,,
A&V Tobacco,1852 W Landis Ave,,Vineland,NJ,8361,US,,8565006881,,2020-08-05,,Yes,S,CBD,,,
Gorilla Vapes,3470 S Delsea Dr,,Vineland,NJ,8360,US,https://www.gorillavapes.com/gorilla-vapes-of-vineland/,8564405201,gvorders@gorillavapes.com,2021-09-09,2021-09-09,Yes,V,CBD,,,
Oro Cubano,744 N Delsea Dr,,Vineland,NJ,8360,US,http://www.orocubanocigars.com/,8566904422,info@orocubanocigarshop.com,2020-01-12,2020-01-12,Yes,T,CBD,,,
R&D Pawn & Smoke Shop,942 S Delsea Dr,,Vineland,NJ,8360,US,https://www.rdvineland.com/,8562136979,rdpawnoutlet@gmail.com,2019-05-08,,,S,,,,
Vortex Vapor,825 S Delsea Dr #5,,Vineland,NJ,8360,US,,8568394542,,2018-09-03,2021-07-16,,V,,,,
World News & Tobacco,139 N Delsea Dr,,Vineland,NJ,8360,US,,8565630099,,2021-09-20,,,S,,Yes,,
Ace Tobacco Outlet,213 S Burnt Mill Rd,,Voorhees Township,NJ,8043,US,,8567954448,theaceretail@gmail.com,2021-09-12,,Yes,S,CBD,Yes,,
Good Guy Vapes & CBD - Waldwick,4 W Prospect St,,Waldwick,NJ,7463,US,https://goodguyvapes.com/,2013450783,info@goodguyvapes.com,2019-11-13,2019-11-13,Yes,V,CBD,,,
Mom N Pop CBD Shop,226 NJ-31,,Washington,NJ,7882,US,https://drbrownscbd.com/,9082237536,momnpopwellnessshop@gmail.com,2021-03-12,,Yes,C,CBD,,,
Popie's Vapor Lounge,198 Fries Mill Rd Ste 110,,Washington Township,NJ,8012,US,http://www.popiesvapor.com/,8567400004,popiesvaporlounge@gmail.com,2017-02-03,2019-02-12,,V,,,,
T-Bowl Smoke Shop,1055 Hamburg Tpke #3,,Wayne,NJ,7470,US,http://hours: friday	7amâ€“7pm saturday	7amâ€“7pm sunday	7amâ€“7pm monday	7amâ€“7pm tuesday	7amâ€“7pm wednesday	7amâ€“7pm thursd,9736330404,,2020-03-27,2020-03-27,,S,,,,
PurePuff Vapor Supply,599 N Route 73,,West Berlin,NJ,8091,US,http://www.purepuffvaporsupply.com/,8568096988,info@purepuffvaporsupply.com,2014-09-01,2019-01-26,Yes,V,CBD,,,
Towne Centre Smoke Shop,1588 Union Valley Rd Ste B,,West Milford,NJ,7480,US,,9737285901,,2020-02-04,2020-02-04,,T,,Yes,,
Amigo Smoke Shop,5206 Bergenline Ave,,West New York,NJ,7093,US,https://amigo-smoke-shop.business.site/,2014304169,,2020-08-05,,Yes,S,CBD,Yes,,
Fabricated Lifestyles Concept Shop,448 60th St,,West New York,NJ,7093,US,http://flssmokeshop.com/,2015532755,,2021-12-10,2021-12-10,Yes,C,CBD,,,
Puffcity - Westfield,271 South Ave E,,Westfield,NJ,7090,US,https://puffcitywestfield.com/,5514820418,,2021-09-10,,Yes,S,CBD,,,
Westfield Tobacco & News,108 Elm St,,Westfield,NJ,7090,US,,9082322224,,2021-09-12,,Yes,T,CBD,,,
Smokeys,4324 US-130 #2,,Willingboro,NJ,8046,US,,6096996560,,2018-09-24,2019-07-07,Yes,S,CBD,Yes,,
Ace Smoke Shop,722 Mantua Pike Store Ste 7,,Woodbury Heights,NJ,8097,US,,8563025348,theaceretail@gmail.com,2021-09-12,,Yes,S,CBD,Yes,,
Ace Smoke Shop,65 E Rte 70 Unit 11A,,Woodbury Heights,NJ,8097,US,,8563506030,theaceretail@gmail.com,2021-09-12,,Yes,S,CBD,Yes,,
All City Vapes,500 McBride Ave,,Woodland Park,NJ,7424,US,https://www.woodlandparkvapeshop.com/,9733414042,,2018-06-02,2019-06-18,,V,,,,
Pipe Kingz Smoke Shop,250 Browertown Rd,,Woodland Park,NJ,7424,US,,9732564202,,2018-09-12,,,S,,,,
Inno Vapes LLC,405 E Main St,,Wrightstown,NJ,8562,US,https://www.innovapes.net/,6093531942,innovapes@gmail.com,2016-01-14,2019-01-06,,V,,,,