Shop Name,Address 1,Address 2,City,State/Province,Zip/Postcode,Country,Website,Phone,Email,Added,Updated,CBD,Biz Type,MJ,Kratom,Buyer name ,Title 
Gravois Vapor,10018 Gravois Rd,,Affton,MO,63123,US,,3146386300,gravoisvapor@gmail.com,2014-08-29,2020-10-08,Yes,V,CBD,,,
Cigarette Depot and Fireworks,36724 US-61,,Alexandria,MO,63430,US,http://cigarette-depotmo.business.site/,6607546801,cigarettedepot63430@gmail.com,2019-08-22,2019-08-22,Yes,S,CBD,Yes,,
Smokerz Outlet,2000 US-61,,Alexandria,MO,63430,US,,6607541001,,2019-12-09,,,S,,,,
Mr. Nice Guy Alton,2801 Homer M Adams Pkwy,,Alton,MO,62002,US,,6184338711,,2018-11-08,2019-06-08,Yes,H,CBD,Yes,,
Boyer's CBD Hemporium,1444 Jeffco Blvd,,Arnold,MO,63010,US,https://boyerscbd.com/,6363332331,boyerscbd@gmail.com,2020-10-25,,Yes,C,CBD,,,
E-cig Mania,3863 W Outer Rd,,Arnold,MO,63010,US,http://www.ecigmaniahillsboro.com/,6363333773,ecigmaniahillsboro@yahoo.com,2018-09-25,,,V,,,,
Smoke Shop,1389 Jeffco Blvd,,Arnold,MO,63010,US,,6362965523,,2020-02-23,,,T,,,,
Ultimate Vapor,1448 Jeffco Blvd,,Arnold,MO,63010,US,http://ultimate-vapor.com/,6363332447,admin@ultimate-vapor.com,2018-08-31,2020-03-03,,V,,,,
Smokers' Outlet,1510 S Elliott Ave #B,,Aurora,MO,65605,US,http://www.smokers4u.com/,4176782455,info@smokers4u.com,2020-03-15,,Yes,T,CBD,,,
Aqueous Vapor,15001 Manchester Rd,,Ballwin,MO,63011,US,http://aqueousvapor.com/,6366867219,info@aqueousvapor.com,2018-06-05,2019-06-20,Yes,V,CBD,,,
Blue Vapor,14796 Clayton Rd,,Ballwin,MO,63011,US,https://www.bluevaporstl.com/,6362209311,bluevaporstl@gmail.com,2022-01-20,2022-01-20,Yes,V,CBD,,,
CBD Kratom,15320 Manchester Rd,,Ballwin,MO,63011,US,http://cbdkratomshops.com/,6362203099,shopcbdkratom@gmail.com,2018-11-08,,Yes,H,CBD,Yes,,
Discount Smoke Shop,14666 Manchester Rd,,Ballwin,MO,63011,US,http://www.discountsmokeshop.com/,6362070459,,2019-10-20,,Yes,T,CBD,,,
Big E's Vapor Shop,8314 E 171st St,,Belton,MO,64012,US,http://www.bigesvaporshop.com/,8163883367,,2019-07-24,,Yes,V,CBD,,,
Organic Hemp Botanicals,144 Cedar Tree Square,,Belton,MO,64012,US,https://www.organichempbotanicals.com/,8163816073,healinglifenaturally@gmail.com,2021-02-15,,Yes,C,CBD,,,
Pete's Liquor,616 N Scott Ave Ste C,,Belton,MO,64012,US,https://mypetesliquor.com/,8164255238,peternzueni@mypetesliquor.com,2020-12-17,,Yes,O,CBD,,,
The Green Leaf,616 N Scott Ave #A,,Belton,MO,64012,US,,8164255656,peternzueni@cbdplustobacco.com,2020-12-17,,Yes,S,CBD,Yes,,
Smoker's Palace,410 N 39th St Unit C,,Bethany,MO,64424,US,http://smokers-palace-llc.business.site/,6604257800,,2020-03-10,,,S,,,,
Cherokee Hemp,264 NE Elm St,,Billings,MO,65610,US,,4172345602,info@thecherokeehemp.com,2020-12-03,,Yes,C,CBD,,,
7th Heaven,600 MO-7,,Blue Springs,MO,64014,US,,8162298006,,2021-12-14,2021-12-14,Yes,H,CBD,Yes,,
Blue Springs CBD,1300 MO-7,,Blue Springs,MO,64014,US,https://bluespringscbd.com/,8162284080,bluespringsfit@yahoo.com,2020-11-21,,Yes,C,CBD,,,
CBD American Shaman - Blue Springs,1412 S MO-7 Ste G,,Blue Springs,MO,64014,US,https://cbdamericanshaman.com/,8162951921,bluespringsbotanicals@gmail.com,2019-11-11,,Yes,C,CBD,,,
CigaWatt,1208 NW MO-7,,Blue Springs,MO,64014,US,http://www.cigawatt.com/,8169773356,janelle@cigawatt.com,2018-10-16,2018-10-16,,V,,,,
Good Life Advanced CBD & Kratom,204 SW 11th St,,Blue Springs,MO,64015,US,https://glakratom.com/,8162951876,mike@gla99.com,2020-11-21,,Yes,C,CBD,Yes,,
Natural Remedies CBD,2001 NW Jefferson St,,Blue Springs,MO,64015,US,https://naturalremedies-cbd.com/,8162299520,info@naturalremedies-cbd.com,2021-03-05,,Yes,C,CBD,,,
Vapor Up,307 SW MO-7,,Blue Springs,MO,64014,US,https://www.vapor-up.com/,8165856800,,2018-08-31,2020-03-03,,V,,,,
Vapor World Blue Springs,713 NW Hwy 7,,Blue Springs,MO,64015,US,https://www.vaporworldstore.com/,8164275772,info@vaporworldstore.com,2018-08-31,2020-03-02,Yes,V,CBD,Yes,,
Discount Smokeland,434 S Springfield Ave,,Bolivar,MO,65613,US,https://discount-smoke-land.business.site/,4179422556,,2020-12-16,,Yes,S,CBD,Yes,,
Smokers' Outlet,610 E Buffalo St,,Bolivar,MO,65613,US,http://www.smokers4u.com/,4177777281,info@smokers4u.com,2020-03-15,2020-03-15,Yes,S,CBD,,,
"Cheap Smokes Beer, Liquor & Loans",914 Benham St,,Bonne Terre,MO,63628,US,http://cheapsmokesandloans.com/,5733584040,,2019-08-02,,Yes,T,CBD,,,
Ultimate Vapor,10 W School St,,Bonne Terre,MO,63628,US,http://www.ultimate-vapor.com/,5733589424,admin@ultimate-vapor.com,2018-08-31,2020-03-03,Yes,V,CBD,,,
B-Town Vapory,1318 E State Hwy 76,,Branson,MO,65616,US,,4173368500,,2021-10-20,,Yes,V,CBD,,,
Branson Vapor,607 MO-165 Ste 4,,Branson,MO,65616,US,http://www.bransonvapor.com/,4173358273,bransonvapor@yahoo.com,2014-09-23,2019-02-05,,V,,,,
That Hippies House,2855 MO-76,,Branson,MO,65616,US,,4172500663,,2020-04-16,2020-04-16,,H,,,,
Vapor World,2212 W 76 Country Blvd Ste 105,,Branson,MO,65616,US,https://www.vaporworldstore.com/,4173347557,info@vaporworldstore.com,2018-08-31,2020-03-02,Yes,V,CBD,Yes,,
YSC CBD Dispensaries and Vapor Store,204 N Commercial St #250,,Branson,MO,65616,US,,4173353777,yoursunshinecompany@yahoo.com,2018-09-25,2020-01-26,Yes,C,CBD,,,
"YSC CBD Dispensaries, Vapor and Billiards",18942 MO-13 BUS Ste D,,Branson West,MO,65737,US,http://puffsmartbranson.com/,4172720141,,2018-09-25,2020-01-26,Yes,C,CBD,,,
Kratom Plus CBD,2554 S Brentwood Blvd,,Brentwood,MO,63144,US,,3145288337,lemay@kratompluscbd.com,2020-07-09,2020-07-09,Yes,C,CBD,Yes,,
STL Vapor,2516 S Brentwood Blvd,,Brentwood,MO,63144,US,http://stlvapor.com/,6362942755,stlvaporof@gmail.com,2018-09-11,,,V,,,,
Vaporized,12158 St Charles Rock Rd,,Bridgeton,MO,63044,US,https://www.vaporizedstl.com/,3147394655,vaporizedstl@gmail.com,2018-08-31,2020-03-02,,V,,,,
Rudy's Discount Smoke Shop,511 S Main St,,Brookfield,MO,64628,US,,6602589891,,2020-02-12,,,T,,,,
Smokers' Outlet,720 S Ash St,,Buffalo,MO,65622,US,http://www.smokers4u.com/,4173451014,info@smokers4u.com,2020-03-15,,Yes,T,CBD,Yes,,
Smokers' Outlet,1009 W Fort Scott St,,Butler,MO,64730,US,http://www.smokers4u.com/,6606794442,info@smokers4u.com,2020-03-15,2020-03-15,,T,,,,
Red Bud Emporium,513 Main St,,Cabool,MO,65689,US,,4179620714,redbudemporium@gmail.com,2022-05-04,2022-05-04,,H,,,,
CBD American Shaman Lake of the Ozarks,10 Camden Ct NE Ste 1C,,Camdenton,MO,65020,US,https://cbdamericanshaman.com/,5733179131,owner@cbdloz.com,2019-11-11,,Yes,C,CBD,,,
Vapor World Camdenton,108 Cecil St,,Camdenton,MO,65020,US,https://www.vaporworldstore.com/,5738732855,info@vaporworldstore.com,2018-08-31,2019-10-02,Yes,V,CBD,,,
Rudy's Discount Smoke Shop,1315 N Walnut St,,Cameron,MO,64429,US,http://www.discountsmokeshop.com/,8166324664,,2020-02-12,,,T,,,,
Smoker's Pit Stop,406 Lewis St Ste 10,,Canton,MO,63435,US,,5734062154,,2020-07-19,,Yes,T,CBD,,,
Chuckin' Clouds - Cape Girardeau,1131 N Kingshighway St Ste D,,Cape Girardeau,MO,63701,US,http://www.chuckinclouds.com,5732709975,chuckincloudscape@gmail.com,2018-10-17,2019-03-12,,V,,,,
Dirt Cheap,420 S Kingshighway,,Cape Girardeau,MO,63701,US,http://www.dirtcheapfunfun.com/,5733343775,dirtcheapchicken@gmail.com,2019-10-06,,Yes,T,CBD,,,
GlassRoots,907 Broadway St,,Cape Girardeau,MO,63701,US,https://www.moglassroots.com/,5738033373,info@moglassroots.com,2018-10-22,2018-10-22,Yes,S,CBD,,,
Hempies,111 N Main St,,Cape Girardeau,MO,63701,US,http://www.hempies.com,5733350006,hempies@hempies.com,2019-01-03,2022-03-11,Yes,H,CBD,Yes,,
Hypnotic Smoke Shop,629 Broadway St,,Cape Girardeau,MO,63701,US,http://hypnotic-smoke-shop-gift-shop.business.site/,5738033337,,2019-12-12,2019-12-12,Yes,S,CBD,Yes,,
SEMO CBD,1131 N Kingshighway St Ste F,,Cape Girardeau,MO,63701,US,https://www.semo-cbd.com/,5738033627,semocbd@gmail.com,2020-12-27,,Yes,C,CBD,,,
Semo Smokes,733 Broadway St,,Cape Girardeau,MO,63701,US,,5733320795,,2019-11-09,,,T,,Yes,,
Smokers' Outlet - Cape Girardeau,2116 William St,,Cape Girardeau,MO,63703,US,,5733352341,,2020-03-15,2022-02-01,,T,,Yes,,
Soo Vape,3049 William St Ste 109,,Cape Girardeau,MO,63703,US,,5735798791,soovape@yahoo.com,2014-10-09,2019-02-06,Yes,V,CBD,,,
Ultimate Vapor,703 Broadway St,,Cape Girardeau,MO,63701,US,http://ultimate-vapor.com/,5738030280,admin@ultimate-vapor.com,2021-06-18,2021-06-18,,V,,,,
Vape Cape Vape Shop,1031 Broadway St,,Cape Girardeau,MO,63701,US,,5732900138,vapecapevapeshop@gmail.com,2018-06-09,2019-06-21,,V,,,,
Vapor Maven,2136 William St Ste 145,,Cape Girardeau,MO,63703,US,,5733887302,vapormaven@gmail.com,2018-08-31,2020-03-03,Yes,V,CBD,,,
Mr T's Liquor Store & Smoke Shop,462 US-412,,Cardwell,MO,63829,US,http://www.mrtsriverside.com/,5736542313,riversideliquor@hotmail.com,2020-01-22,2021-10-21,,T,,,,
Pinnacle Vapor,424 W Fir Rd,,Carthage,MO,64836,US,https://pinnaclehemp.com/,4179554054,contact@pinnaclehemp.com,2018-09-25,2021-06-14,Yes,V,CBD,Yes,,
Vapor Maven,2426 Grand Ave,,Carthage,MO,64836,US,https://www.vapormaven.com/,4176806933,vapormaven@gmail.com,2018-08-06,2020-01-08,Yes,V,CBD,,,
Pop's Pipes,490 Hwy 76 Ste C,,Cassville,MO,65625,US,,4173426887,,2021-02-09,,Yes,H,CBD,Yes,,
Vapor World Cassville,105 Main St Ste 1,,Cassville,MO,65625,US,,4178470177,,2019-10-02,,,V,,,,
Smokerz Outlet,10 Charleston Ave,,Charleston,MO,63834,US,http://smokerz-outlet.business.site/,5736834646,,2020-03-16,,,S,,,,
Blue Key CBD,703 Long Rd Crossing Dr Ste 7,,Chesterfield,MO,63005,US,https://bluekeycbd.com/,6363434343,info@bluekeycbd.com,2020-11-21,,Yes,C,CBD,,,
STL Vapor,110 Chesterfield Valley Dr,,Chesterfield,MO,63005,US,http://stlvapor.com/,3148276765,stlvaporof@gmail.com,2018-09-11,,,V,,,,
The Green Dragon CBD,14856 Clayton Rd,,Chesterfield,MO,63017,US,https://www.thegreendragoncbd.com/,6362207278,david@thegreendragoncbd.com,2020-12-17,,Yes,C,CBD,,,
Coconut Grove,705 Locust St,,Chillicothe,MO,64601,US,,6609731121,groovycoconuts@gmail.com,2020-12-15,2021-08-14,Yes,C,CBD,,,
Vapor Maven Chillicothe,500 S Washington St,,Chillicothe,MO,64601,US,https://www.vapormaven.com/,6602405020,vapormaven@gmail.com,2018-01-11,2018-11-13,Yes,V,CBD,,,
Smoke Shop,10038 US-71,,Clearmont,MO,64431,US,,6605813030,,2020-02-21,,Yes,S,CBD,,,
Smokes 4 Less,102 E Main St,,Cleveland,MO,64734,US,,8166583134,,2020-03-16,,,T,,,,
Aardvarx,17 N 10th St,,Columbia,MO,65201,US,http://www.aardvarxstore.com,5738748600,aardvarxstore@gmail.com,2018-06-06,2018-10-12,,H,,,,
Aqueous Vapor,1406 Forum Blvd Ste 202,,Columbia,MO,65203,US,http://aqueousvapor.com/,5737778273,info@aqueousvapor.com,2019-10-03,2019-10-03,,V,,,,
Aqueous Vapor,601 Business Loop 70 E Ste B,,Columbia,MO,65201,US,,5738251955,info@aqueousvapor.com,2022-01-10,2022-01-10,,V,,,,
Aqueous Vapor - Columbia,21 Conley Rd Ste Q,,Columbia,MO,65201,US,https://aqueousvapor.com/,5734418273,info@aqueousvapor.com,2014-08-26,2019-03-05,Yes,V,CBD,,,
CBD American Shaman - Columbia,1400 Forum Blvd Ste 40,,Columbia,MO,65203,US,https://cbdamericanshaman.com/,5733555572,cbdcolumbia@gmail.com,2019-11-11,,Yes,C,CBD,,,
Como Vapor,601 Business Loop 70 W Ste 202,,Columbia,MO,65203,US,https://comovapor.com/,5732289936,info@comovapor.com,2018-08-06,2018-11-23,Yes,V,CBD,,,
Como Vapor,805 E Nifong Blvd Ste C,,Columbia,MO,65201,US,https://comovapor.com/,5733976534,info@comovapor.com,2015-08-19,2019-03-20,Yes,V,CBD,,,
Eye Candy,814 E Walnut St,,Columbia,MO,65203,US,,5738752244,,2018-10-27,,Yes,H,CBD,,,
Grass Roots Smoke Shop,203 N 10th St,,Columbia,MO,65202,US,http://grassrootssmokeshop.com/,5734437668,,2018-11-25,,,H,,,,
Hemp Hemp Hooray,917 E Broadway ST,,Columbia,MO,65201,US,https://weluvhemp.com/,5733551285,weluvhemp@gmail.com,2021-01-25,,Yes,C,CBD,,,
Lucid Vizions LLC,214 S 8th St,,Columbia,MO,65201,US,,5737775551,lucidvizions@gmail.com,2018-11-04,,Yes,S,CBD,,,
Retro Active,600 Cooper Dr N #105,,Columbia,MO,65201,US,http://www.retroactivesmokeshop.com/,5734423559,contact@retroactivesmokeshop.com,2019-01-05,2022-03-14,,H,,,,
Vapor Maven Columbia,3103 W Broadway #11,,Columbia,MO,65203,US,https://www.vapormaven.com/,5736072763,vapormaven@gmail.com,2018-01-11,2018-11-13,Yes,V,CBD,,,
We B Smokin,2507 Bernadette Dr,,Columbia,MO,65203,US,http://www.websmokinanddrinkin.com/,5734743468,,2018-11-05,,,S,,,,
Xpress Liquor & Smokes,5400 E St Charles Rd Ste B,,Columbia,MO,65201,US,http://xpressliquorandsmokes.com/,5734766784,contact@xpressliquorandsmokes.com,2019-06-27,2019-06-27,,T,,,,
Xpress Liquor & Smokes,2101 Corona Rd #101,,Columbia,MO,65203,US,http://www.xpressliquorandsmokes.com/,5732286029,jana.xpress@gmail.com,2019-09-03,,,T,,,,
"Your CBD Store - Columbia, MO",1408 Interstate 70 Dr SW #106,,Columbia,MO,65203,US,https://cbdrx4u.com/,5734426706,cbd3507@gmail.com,2019-09-13,2019-09-13,Yes,C,CBD,,,
Freedom Smoke,508 N Truman Blvd #D,,Crystal City,MO,63019,US,,6365241693,,2018-10-18,2019-03-21,Yes,V,CBD,,,
Ultimate Vapor,1001 N Truman Blvd Ste B,,Crystal City,MO,63019,US,http://www.ultimate-vapor.com/,6366381190,admin@ultimate-vapor.com,2018-08-31,2020-03-03,Yes,V,CBD,,,
Peace Of Mind,510 W Washington St,,Cuba,MO,65453,US,https://www.mypeaceofmindonline.com/,5736770425,,2021-09-01,2021-09-01,Yes,H,CBD,,,
Greenhouse Vapes - De Soto,418 S Main St,,De Soto,MO,63020,US,https://www.greenhousevapes.com/,6362435073,support@greenhousevapes.com,2015-02-27,2019-03-21,Yes,V,CBD,,,
Smokey's Place,2031 Rock Rd,,De Soto,MO,63020,US,,6365862855,smokeysplace@sbcglobal.net,2020-03-19,,,T,,,,
Dirt Cheap - Desloge,413 N State St,,Desloge,MO,63601,US,http://www.dirtcheapfunfun.com/,5735181910,dirtcheapchicken@gmail.com,2019-10-04,,,T,,,,
Inno-Vape,617 N Cowling St Ste D,,Desloge,MO,63601,US,http://innvaping.com/,5733278273,innovativevapingsolutions@gmail.com,2018-08-12,2020-02-08,,V,,,,
Ultimate Vapor,208 N Desloge Dr Ste A,,Desloge,MO,63601,US,http://www.ultimate-vapor.com/,5733278687,admin@ultimate-vapor.com,2018-08-31,2020-03-03,,V,,,,
Chuckin Clouds,903 W US-60 Bus,,Dexter,MO,63841,US,http://chuckinclouds.com/,5738204555,,2019-08-05,,,V,,,,
Discount Cigarettes & Beer,911 W Business US-60,,Dexter,MO,63841,US,,5736144001,,2019-09-19,,,T,,,,
America's Heartland Transmission + Vape Shop,"RR 2 Box 3351, MO-21",,Doniphan,MO,63935,US,,5735934815,americasheartlandtransmission@yahoo.com,2016-03-15,2019-01-28,,V,,,,
Smokers' Outlet,105 US-54,,El Dorado Springs,MO,64744,US,http://www.smokers4u.com/,4178765995,info@smokers4u.com,2020-03-15,2020-03-15,,T,,,,
Puff N Snuff,1900 US-54 BUS,,Eldon,MO,65026,US,,5733927172,,2020-02-05,2020-02-05,Yes,T,CBD,,,
STL Vapor,1739 W 5th St Ste A,,Eureka,MO,63025,US,http://stlvapor.com/,3148276765,stlvaporof@gmail.com,2018-09-11,2018-11-13,,V,,,,
CB Dispensary,102 S Washington St,,Farmington,MO,63640,US,,5732189527,,2020-11-21,2022-03-09,Yes,C,CBD,,,
Cheap Smokes & Loans,736 Weber Rd,,Farmington,MO,63640,US,http://cheapsmokesandloans.com/,5737470330,,2019-08-02,2019-08-02,,T,,,,
Sweet Leaf Emporium,100 Holly Tree Ln,,Farmington,MO,63640,US,http://www.sweetleafemporium.com/,5732189552,glass@sweetleafemporium.com,2019-01-12,,Yes,H,CBD,Yes,,
Ultimate Vapor,507 Potosi St,,Farmington,MO,63640,US,http://www.ultimate-vapor.com/,5736641919,admin@ultimate-vapor.com,2018-08-31,2020-03-03,Yes,V,CBD,,,
USA Vapor Trails,302 Potosi St,,Farmington,MO,63640,US,,5736640010,usavaportrails@gmail.com,2015-03-07,2018-12-27,Yes,V,CBD,,,
Vapor Maven,558 Walmart Dr,,Farmington,MO,63640,US,https://vapormaven.com,5732189637,,2020-12-13,,Yes,V,CBD,Yes,,
Behind The Bluffs,513 Saline Rd,,Fenton,MO,63026,US,,6364967180,,2018-07-24,2019-07-30,,H,,,,
E-Cig Mania,1063 Gravois Rd Ste A,,Fenton,MO,63026,US,http://www.stlouisecigmania.com/,6363262600,ecigmania@yahoo.com,2018-09-30,,,V,,,,
Outlaw Tom's,1058 Gravois Rd,,Fenton,MO,63026,US,https://outlawtoms.com/,6366001166,outlawtoms@yahoo.com,2022-03-21,2022-03-21,Yes,H,CBD,,,
Stella Blues Vapors Inc,340 Skinker Ln,,Fenton,MO,63026,US,https://stella-blues-vapors-inc.myshopify.com,6366787275,shop@stellabluesvapors.com,2015-01-08,2019-01-28,Yes,V,CBD,Yes,,
The Shanty,1663 S Old Hwy 141,,Fenton,MO,63026,US,,6363265501,theshanty@att.net,2018-09-08,2020-03-18,Yes,S,CBD,Yes,,
Tytan Health Care,404 Gravois Rd,,Fenton,MO,63026,US,https://thcdoc.shop/,3144098279,tim@thcdoc.shop,2019-09-14,2019-09-14,Yes,C,CBD,,,
Vapor Connection,2089 Bentley Plaza,,Fenton,MO,63026,US,,6365291310,vaporconnectionstl@live.com,2018-08-31,2020-03-03,Yes,V,CBD,,,
Vapor World Fenton,672 Gravois Bluffs Blvd E Ste A,,Fenton,MO,63026,US,http://www.vaporworldstore.com/,6366787151,info@vaporworldstore.com,2019-10-02,,Yes,V,CBD,,,
Greenhouse Vapes - Festus,38 E Main St,,Festus,MO,63028,US,https://www.greenhousevapes.com/,6366382111,support@greenhousevapes.com,2015-02-27,2019-03-21,Yes,V,CBD,,,
Peace Of Mind Collective,204 E Main St,,Festus,MO,63028,US,,6366381888,pomcollectivez@gmail.com,2018-11-17,2020-01-30,,H,,,,
Ultimate Vapor,2093 US-67,,Festus,MO,63028,US,http://www.ultimate-vapor.com/,5734305022,admin@ultimate-vapor.com,2021-07-13,,Yes,V,CBD,,,
Fogarty's House of Vapor,2318 N US-67 Ste A,,Florissant,MO,63033,US,http://fogartysvaporshopmo.com/,3147365268,fogartyshov@outlook.com,2015-02-27,2019-11-02,Yes,V,CBD,,,
Hypnotized Smoke Shop,2967 Patterson Rd,,Florissant,MO,63031,US,http://hypnotizedsmokeshop.com/,3149721437,hypnotized1@att.net,2018-08-06,2019-10-02,,S,,,,
Mr. Nice Guy Florissant,3325 N US-67,,Florissant,MO,63033,US,http://www.mrniceguyheadshops.com/,3147364122,mrniceguystl@gmail.com,2018-08-06,2019-06-08,Yes,H,CBD,Yes,,
Retro Active,1762 New Florissant Rd,,Florissant,MO,63303,US,http://retroactivesmokeshop.com,3144559078,contact@retroactivesmokeshop.com,2019-01-05,2019-08-16,,H,,,,
Smoke Safe Vapor Lounge,514 N Hwy 67,,Florissant,MO,63031,US,,3147364136,,2018-09-14,2022-03-07,Yes,V,CBD,,,
Studio 420,"1604 Flower Valley Shopping Center,  111 N Hwy 67",,Florissant,MO,63033,US,,3147389408,,2020-12-28,,Yes,S,CBD,,,
Double Delight Vapors,135 W Main St,,Fordland,MO,65652,US,,4177382013,,2019-10-08,,,V,,,,
Grozarks,13983 US-160,,Forsyth,MO,65653,US,http://grozarksgs.com,4179879584,grozarksgs@gmail.com,2020-07-07,2020-07-07,,O,,,,
MPV By Vapesmart,17447 US-160,,Forsyth,MO,65653,US,,4175468273,meugenem87@gmail.com,2018-09-25,,,V,,,,
Smokers' Outlet - Forsyth,15459 US-160,,Forsyth,MO,65653,US,http://www.smokers4u.com/,4175462420,forsyth@smokers4u.com,2019-09-25,,Yes,S,CBD,,,
A & D Discount Tobacco,932 US-54 Business,,Fulton,MO,65251,US,http://aanddtobacco.com/,5736427622,,2019-07-14,,,T,,,,
Don't Be Shy,1322 S US-54 Bus,,Fulton,MO,65251,US,,5732204498,,2019-09-09,2019-09-09,Yes,H,CBD,,,
Koko Vapors & More,307 Manor Dr,,Fulton,MO,65251,US,http://www.kokovapors.com/,5738263116,kokovapors@yahoo.com,2019-12-26,2019-12-26,Yes,V,CBD,Yes,,
Xpress Liquor & Smokes,11 W 2nd St,,Fulton,MO,65251,US,http://www.xpressliquorandsmokes.com/,5736427577,shepard.xpress@gmail.com,2019-09-03,,,T,,,,
Tobacco Warehouse,279 MO-5,,Gainesville,MO,65655,US,http://tobaccowarehouse.us,4176790222,minute1026@gmail.com,2018-11-08,2018-11-08,Yes,S,CBD,Yes,,
Y-76 Handi Mart,2400 MO-76,,Galena,MO,65656,US,,4172723722,,2018-11-21,,,S,,,,
Natural Wellness CBD,7672 N Oak Trafficway,,Gladstone,MO,64118,US,https://www.naturalwellnesscbd.com/,8164478927,naturalwellnesskc@gmail.com,2020-07-13,,Yes,C,CBD,,,
The Hub Smoke Shop,6410 N Oak Trafficway,,Gladstone,MO,64118,US,http://smokeshopkc.com/,8164200404,thehubkc@yahoo.com,2019-01-12,2019-06-15,Yes,S,CBD,Yes,,
"VaporWyse, LLC",5733 NE Antioch Rd,,Gladstone,MO,64119,US,,8165992808,vaporwyse@gmail.com,2018-09-30,,,V,,,,
CBD American Shaman - Grain Valley,1402 SW Eagles Pkwy,,Grain Valley,MO,64029,US,https://cbdamericanshaman.com/,8167264615,austinfansher@gmail.com,2019-11-12,,Yes,C,CBD,,,
Main St. Discount Smokes & Liquor,1301 Main St,,Grandview,MO,64030,US,,8167651068,,2020-01-06,2020-01-06,Yes,S,CBD,Yes,,
Smoke Hut Smoke Shop,11902 Blue Ridge Blvd Ste G,,Grandview,MO,64030,US,http://www.smoke-hut.com/,8166565686,smoker.sheaven@yahoo.com,2018-09-25,,Yes,S,CBD,Yes,,
Vapor World,11925 Blue Ridge Blvd,,Grandview,MO,64030,US,https://vaporworldgrandview.business.site,8168328845,grandviewvaporworld@gmail.com,2019-10-02,2019-10-12,Yes,V,CBD,Yes,,
Lake Liquor & Tobacco Inc,212 S Main St,,Gravois Mills,MO,65037,US,,5733744850,,2019-12-28,,Yes,T,CBD,,,
Arch City Vapors,3555 Stardust Dr,,Hannibal,MO,63401,US,,5736031054,archcityvapors@gmail.com,2014-11-24,2021-04-23,Yes,V,CBD,,,
Crazy J's,2800 Saint Marys Ave Ste A,,Hannibal,MO,63401,US,,5736034993,crazyjs.hannibal@gmail.com,2019-09-03,,,H,,Yes,,
JB Hawks Discount Tobacco & Vape,1304 Mark Twain Ave #C,,Hannibal,MO,63401,US,http://jbhawks.com/index.php,5732215888,jbhawkshannibal@gmail.com,2018-08-06,2019-06-08,Yes,T,CBD,,,
Ron's Tobacco,1400 Market St #A,,Hannibal,MO,63401,US,,5732483838,,2020-02-11,,Yes,T,CBD,,,
Smoke House Discount Tobacco,1304 Mark Twain Ave,,Hannibal,MO,63401,US,,5732215888,,2020-02-18,,Yes,S,CBD,Yes,,
The Vape Lounge,217 Broadway,,Hannibal,MO,63401,US,https://www.mainstreetvapelounge.com/,5736031009,rorywire@gmail.com,2020-12-08,,Yes,V,CBD,,,
U.S. Smoke Shop,1106 N Commercial St Ste 102,,Harrisonville,MO,64701,US,,8168842525,,2019-11-18,,Yes,S,CBD,,,
Vapor Maven,317 S Commercial St,,Harrisonville,MO,64701,US,,8163802040,,2018-08-06,2020-01-08,Yes,V,CBD,Yes,,
STL Vapor,7209 N Lindbergh Blvd,,Hazelwood,MO,63042,US,http://stlvapor.com/,3148276765,stlvaporof@gmail.com,2018-09-11,,,V,,,,
Herbal Medz CBD Emporium,2745 High Ridge Blvd Ste 2,,High Ridge,MO,63049,US,https://www.herbalmedz.com/,6366719008,,2021-01-30,,Yes,C,CBD,,,
VaporWize Hillsboro,10283 MO-21 Bus,,Hillsboro,MO,63050,US,http://www.vaporwize.com/,6367978508,vaporwize@gmail.com,2019-09-29,,Yes,V,CBD,,,
M.P.V. By Vapesmart,1717 US-65 BUS,,Hollister,MO,65672,US,,4175937137,mpvbyvapesmart@gmail.com,2015-04-14,2018-12-28,,V,,,,
Puff The Magic Dragon,1889 US-65 Bus,,Hollister,MO,65672,US,http://www.springfield-kratom.com,4175981370,puffmagic2349@yahoo.com,2018-11-13,2020-02-22,Yes,H,CBD,Yes,,
Rudy's Discount Smoke Shop,2460 S Business Highway 65,,Hollister,MO,65672,US,,4173352149,,2018-12-03,,Yes,S,CBD,,,
Swin Dispensaries - Hollister,180 Mall Rd Ste E,,Hollister,MO,65672,US,https://www.swindispensaries.com/,4173205222,swindispensaries@gmail.com,2020-12-25,,Yes,C,CBD,,,
Up In Smoke,168 W Simon Blvd,,Holts Summit,MO,65043,US,,5738968653,upinsmoke@centurylink.net,2019-01-12,,,S,,,,
Smoke Shop,202 N 2nd St,,Hopkins,MO,64461,US,,6607783754,,2020-02-24,,,T,,,,
Cosmic Dragon,4642 Gravois Rd,,House Springs,MO,63051,US,,6366719455,cosmicdragongifts@gmail.com,2016-12-08,2019-03-20,Yes,V,CBD,,,
Dragon Lair Inc,4591 Main St,,House Springs,MO,63051,US,,6363750003,,2019-08-24,,,H,,,,
Freedom Vapes,1215 S Sam Houston Blvd Ste 3,,Houston,MO,65483,US,,4179678180,freedomvapes@gotrain.org,2017-03-22,2019-01-16,,V,,,,
Pit Stop's Ozark Treasures,1721 US-63,,Houston,MO,65483,US,,4179670000,pitstopsozarktreasures@gmail.com,2021-02-10,,Yes,O,CBD,Yes,,
Smokers Express,725 S Sam Houston Blvd,,Houston,MO,65483,US,,4179670374,,2020-03-12,,,S,,,,
510 Vapers,1260 Main St,,Imperial,MO,63052,US,,6362230877,,2018-02-07,2022-01-06,,V,,,,
Bright Green CBD & More,1001 Imperial Main Imperial,,Imperial,MO,63052,US,https://www.brightgreen2.com/,6362230619,brightgreencbd@gmail.com,2022-01-19,2022-01-19,Yes,C,CBD,,,
Dragon Lair Inc.,5239 US-61,,Imperial,MO,63052,US,,6364678079,,2018-12-28,,,H,,,,
KB Glass Gallery,1239 Imperial Main St,,Imperial,MO,63052,US,,6363454617,,2016-10-28,2022-03-07,Yes,H,CBD,,,
Aqueous Vapor,3709 S Noland Rd Ste E,,Independence,MO,64055,US,https://aqueousvapor.com/,8162528273,info@aqueousvapor.com,2014-08-26,2018-11-11,,V,,,,
CBD American Shaman Independence,19321 E US-40,,Independence,MO,64055,US,https://cbdamericanshaman.com/,8164912452,todd@cbdamericanshaman.com,2020-06-20,,Yes,C,CBD,,,
CBD American Shaman Noland Road,4201 S Noland Rd Ste S,,Independence,MO,64055,US,,8166010241,nolandshaman@gmail.com,2020-09-24,,Yes,C,CBD,,,
Complete Care CBD,18813 East 39th St S Ste 2305,,Independence,MO,64057,US,https://completecarecbd.com/,8165203304,cbdcameron@gmail.com,2020-12-15,,Yes,C,CBD,,,
"Discount Smokes, Vapes And Gas",16390 E 23rd St,,Independence,MO,64052,US,https://discount-smokes-vapes-gas.business.site/,8162541786,,2020-06-29,,Yes,S,CBD,,,
Ed's Oils CBD,9025 US-40,,Independence,MO,64055,US,https://edscbdoils.com/,8162104053,edscbdoils@gmail.com,2020-12-27,2022-03-30,Yes,C,CBD,,,
New Bubbles Liquor & Smoke Shop,3717 S Noland Rd,,Independence,MO,64055,US,,8164611606,bubblesliquorstore@yahoo.com,2020-01-27,,,T,,,,
Vapor Maven,3617 S Noland Rd,,Independence,MO,64055,US,https://www.vapormaven.com/,8162520443,vapormaven@gmail.com,2016-03-08,2019-02-01,Yes,V,CBD,Yes,,
Vapor Up,1507 S Noland Rd,,Independence,MO,64055,US,https://www.vapor-up.com/,8165856800,,2018-08-31,2020-03-03,,V,,,,
Premier Vapor,510 S Hope St,,Jackson,MO,63755,US,http://premiervaporshops.com/,5737555067,premiervapor19@gmail.com,2019-09-15,,,V,,,,
Soo Vape,509 E Jackson Blvd,,Jackson,MO,63755,US,,3144887310,,2019-02-06,2019-02-06,Yes,V,CBD,,,
Vapor World Jane,91 Macadoodle Ln #2,,Jane,MO,64856,US,https://www.vaporworldstore.com/,4172260895,info@vaporworldstore.com,2018-08-31,2019-10-02,Yes,V,CBD,Yes,,
Alcobacco,120 E Dunklin St,,Jefferson City,MO,65101,US,https://www.alcobacco.com/,8554824722,info@alcobacco.com,2019-07-16,2019-12-03,,S,,,,
Aqueous Vapor,2111 Missouri Blvd,,Jefferson City,MO,65109,US,https://aqueousvapor.com/,5735568273,info@aqueousvapor.com,2018-08-12,2020-02-08,,V,,,,
CBD American Shaman of Mid Missouri,3702 W Truman Blvd Ste 200,,Jefferson City,MO,65109,US,,5736162524,americanshaman@naturalhealingjc.com,2019-11-08,,Yes,C,CBD,,,
Sixties Spirit,2405 Missouri Blvd,,Jefferson City,MO,65109,US,,5736366060,,2020-02-16,2020-02-16,Yes,H,CBD,Yes,,
Smoke Shop,711 Madison St,,Jefferson City,MO,65101,US,,5736328653,,2018-11-02,,,S,,,,
Smoke Shop,4931 Bus 50 W #1,,Jefferson City,MO,65109,US,,5737617405,,2020-02-25,2020-02-25,,T,,,,
Vapor Maven,2219 Missouri Blvd Ste G,,Jefferson City,MO,65109,US,,5738961063,vapormaven@gmail.com,2018-08-31,2020-03-03,Yes,V,CBD,,,
We B Smokin,915 Eastland Dr #B,,Jefferson City,MO,65101,US,http://www.websmokinanddrinkin.com/,5736345154,,2019-09-13,,,S,,,,
We B Smokin & Drinkin,2215 Missouri Blvd Ste H,,Jefferson City,MO,65109,US,http://www.websmokinanddrinkin.com/,5736353468,,2019-09-13,,,S,,,,
Alp's Discount Liquor & Smoke,2602 S Main St,,Joplin,MO,64804,US,,4176598884,,2019-07-17,,,S,,,,
CBD Kratom Superstore,2703 S Rangeland Rd Ste B,,Joplin,MO,64804,US,https://wholesalecbdkratom.com/,4176220354,,2020-06-28,,Yes,C,CBD,Yes,,
Discount Smokes & Liquor,1804 E 7th St,,Joplin,MO,64801,US,,4176240086,,2019-10-25,,,S,,,,
Green Gold Natural Organics,2501 N Rangeline Rd,,Joplin,MO,64801,US,https://greengoldnaturalorganics.com,4176918035,contact@greengoldnaturalorganics.com,2021-01-16,,Yes,C,CBD,,,
Joplin CBD and Wellness by 5 Star Nutrition,1702 S N Rangeline Rd #4,,Joplin,MO,64804,US,https://5starnutritionusa.com/,4176224047,joplin@5starnutritionusa.com,2021-02-17,,Yes,O,CBD,,,
Mr. Nice Guy,1651 W 7th St Ste 2,,Joplin,MO,64801,US,,4175535355,,2019-05-03,,,S,,,,
Natural Hemp Joplin,930 Ohio Ave,,Joplin,MO,64801,US,https://naturalhempjoplin.business.site/,4174384223,naturalhempjoplin@yahoo.com,2021-03-05,,Yes,C,CBD,,,
Peace Of Mind,2702 Richard Joseph Blvd Ste 116,,Joplin,MO,64804,US,https://www.mypeaceofmindonline.com/,4172085934,,2021-09-03,,Yes,H,CBD,,,
SWMO Vape Shop,1205 S Main St,,Joplin,MO,64801,US,https://swmovapeshop.com/,4174346944,swmovapeshop@gmail.com,2014-09-02,2019-01-27,,V,,,,
Twizted Vape Shop and Lounge,921 S Pennsylvania Ave,,Joplin,MO,64801,US,,4178258273,twiztedvapesllc@gmail.com,2018-08-31,2020-03-03,Yes,V,CBD,,,
Vapor Maven,1806 E 32nd St,,Joplin,MO,64804,US,https://www.vapormaven.com/,4176268535,vapormaven@gmail.com,2018-01-11,2019-01-21,Yes,V,CBD,,,
Vapor Maven,407 S Range Line Rd #2,,Joplin,MO,64801,US,https://www.vapormaven.com/,4176210440,vapormaven@gmail.com,2018-09-08,2020-03-15,Yes,V,CBD,,,
Vapor Maven,1710 W 7th St,,Joplin,MO,64801,US,https://www.vapormaven.com/,4176279220,vapormaven@gmail.com,2018-08-31,2019-01-21,Yes,V,CBD,,,
660 Vape And Smoke,660 E Blue Ridge Blvd,,Kansas City,MO,64145,US,https://660vapeandsmokekc.com/,8169420151,660vapeandsmoke@gmail.com,2019-07-13,2021-12-14,Yes,S,CBD,Yes,,
7th Heaven,7621 Troost Ave,,Kansas City,MO,64131,US,https://7thheavenkc.com/,8163619555,socialmedia@7thheavenonline.com,2018-12-21,2019-07-14,Yes,H,CBD,Yes,,
Bluex Discount Smoke Shop,8300 Wornall Rd,,Kansas City,MO,64114,US,,8164441853,,2021-12-19,2021-12-19,,T,,,,
Candy Smoke Shop,904 W 39th St,,Kansas City,MO,64111,US,https://candy-smoke-shop.business.site/,8163268122,,2021-12-22,2021-12-22,Yes,S,CBD,Yes,,
Cannasseur,8439 Wornall Rd,,Kansas City,MO,64114,US,https://freestatecbd.com/,8168884027,annie@freestatecbd.com,2021-02-20,,Yes,C,CBD,,,
CBD American Shaman - 103rd St,1036 W 103rd St,,Kansas City,MO,64114,US,https://cbdamericanshaman.com/,8555266223,brandon.carnes1@gmail.com,2019-11-11,,Yes,C,CBD,,,
CBD American Shaman - State Line,13125 State Line Rd,,Kansas City,MO,64145,US,https://cbdamericanshaman.com/,8164378261,smvtswellness@gmail.com,2019-11-08,2019-11-11,Yes,C,CBD,,,
CBD American Shaman Chatham Ave,6302 N Chatham Ave,,Kansas City,MO,64151,US,https://cbdamericanshaman.com/,8167021042,brandon.carnes1@gmail.com,2019-11-11,,Yes,C,CBD,,,
CBD American Shaman Englewood KC,307 NE Englewood Rd Ste A,,Kansas City,MO,64118,US,https://cbdamericanshaman.com/,8163816333,brandon.carnes1@gmail.com,2019-11-11,,Yes,C,CBD,,,
CBD American Shaman NE Barry Rd,500 NE Barry Rd,,Kansas City,MO,64155,US,https://cbdamericanshaman.com/,8166051097,nebarryshaman@cbdamericanshaman.com,2020-09-24,,Yes,C,CBD,,,
CBD American Shaman Onalaska,1415 W 39th St Ste D,,Kansas City,MO,64111,US,,8165413144,asonalaska@gmail.com,2019-11-08,,Yes,C,CBD,,,
CBD American Shaman Raytown,9438 E MO-350,,Kansas City,MO,64133,US,https://cbdamericanshaman.com/,8555266223,brandon.carnes1@gmail.com,2019-11-11,,Yes,C,CBD,,,
CBD Oil Kansas City,7441 Broadway,,Kansas City,MO,64114,US,http://www.cbdoilkansascity.com/,8162074388,info@cbdoilkansascity.com,2020-06-23,,Yes,C,CBD,,,
Cheap Smokes,8023 State Line Rd,,Kansas City,MO,64114,US,,8163333320,,2019-08-02,2019-08-02,,S,,,,
Cooper's Broadway Tobacco,3617 Broadway Blvd,,Kansas City,MO,64111,US,,8169317222,,2018-10-20,,,S,,,,
Discount Smokes,7401 N Oak Trafficway,,Kansas City,MO,64118,US,,8164681455,,2022-01-21,2022-01-21,Yes,S,CBD,Yes,,
Discount Smokes,4718 NE Vivion Rd,,Kansas City,MO,64119,US,http://www.discountsmokeshop.com/,8164522900,,2019-09-13,,,S,,,,
Discount Smokes,5730 NE Antioch Rd,,Kansas City,MO,64119,US,,8164594840,,2019-09-13,,,S,,,,
Discount Smokes & Liquor,4540 N Brighton Ave,,Kansas City,MO,64117,US,,8164138993,,2019-10-27,,Yes,T,CBD,,,
Exotic KC Vape N Smoke,4609 St John Ave,,Kansas City,MO,64123,US,https://exotickc.com/,8165036442,exotickcvape@gmail.com,2018-08-06,2020-01-15,Yes,V,CBD,Yes,,
Exotic KC Vape N Smoke,3919 Broadway Blvd,,Kansas City,MO,64111,US,https://exotickc.com/,8165036442,exotickcvape@gmail.com,2018-10-22,2018-10-22,Yes,V,CBD,Yes,,
Fidel's,4112 Pennsylvania Ave,,Kansas City,MO,64111,US,http://www.fidelscigarshop.com,8165616505,tom@fidelscigarshop.com,2018-10-22,,,T,,,,
Gladstone Discount Smoke,6034 NE Antioch Rd,,Kansas City,MO,64119,US,,8164427079,,2019-11-14,,,T,,Yes,,
Happy Rock Smoke Shop,334 NE 72nd St,,Kansas City,MO,64118,US,,8164360226,h.rock49@yahoo.com,2018-08-06,2019-09-22,Yes,H,CBD,Yes,,
Hemp Haven - Kansas City,2002 Main St,,Kansas City,MO,64108,US,https://hemphaven.store/,8163841153,danielle@hemphaven.store,2020-06-24,2020-06-24,Yes,C,CBD,,,
It's A Dream Smoke Shop,3942 Broadway Blvd,,Kansas City,MO,64111,US,https://www.kcsmokeshop.com/,8167535733,,2018-08-06,2019-10-06,Yes,S,CBD,,,
KC Fumes CBD Kratom Head Shop,13608 Washington St,,Kansas City,MO,64145,US,https://kcfumes.com/,8162552301,,2018-12-14,2019-01-24,Yes,V,CBD,Yes,,
KC Smoke & Vape,1605 Westport Rd,,Kansas City,MO,64111,US,http://www.kcsmokeandvape.com/,8169314434,sales@kcsmokeandvape.com,2018-08-12,2020-02-08,Yes,S,CBD,Yes,,
KC SmokZ,3957 Broadway Blvd,,Kansas City,MO,64111,US,https://www.kcsmokz.com/,8166565090,vrgroupofllc@gmail.com,2018-08-06,2019-10-06,Yes,S,CBD,Yes,,
Lets Vape & Smoke Shop KC,3745 Broadway Blvd,,Kansas City,MO,64111,US,http://www.kcheadshop.com/,8167538100,letsvapesmoke@gmail.com,2018-09-18,,Yes,V,CBD,Yes,,
Main Smoke Shop KC,3429 Main St,,Kansas City,MO,64111,US,http://www.mainsmokeshop.com/,8167562646,mainsmoke@yahoo.com,2018-08-06,2019-10-19,Yes,S,CBD,Yes,,
OG Smoke Shop,2600 Independence Ave Ste 5,,Kansas City,MO,64124,US,https://og-smoke-shop.business.site/,8162145110,ogsmokeshop39@gmail.com,2022-04-26,2022-04-26,Yes,S,CBD,,,
OG Smoke Shop,3527 Main St,,Kansas City,MO,64111,US,https://og-smoke-shop.business.site/,8162987390,ogsmokeshop39@gmail.com,2022-03-21,2022-04-26,Yes,S,CBD,,,
Organic Hemp Botanicals,1215 W 103rd St,,Kansas City,MO,64114,US,https://organichempbotanicals.com,8163816073,healinglifenaturally@gmail.com,2021-02-15,2021-08-14,Yes,C,CBD,,,
Relax Smoke Shop,6 W 39th St,,Kansas City,MO,64111,US,,8169829889,relaxsmokeshop@hotmail.com,2018-11-23,,,S,,,,
Smoke Tokz,1263 W 103rd St,,Kansas City,MO,64114,US,https://www.headshopkc.com/,8169423005,,2018-09-25,,Yes,S,CBD,Yes,,
Smoker's Heaven,10145 Wornall Rd,,Kansas City,MO,64114,US,http://www.smokersheavenkc.com/,8162492618,smokersheaven10145@gmail.com,2019-01-03,,Yes,S,CBD,Yes,,
The Hemp Haus,1708 W 39th St,,Kansas City,MO,64111,US,https://thehemphaus.com/,8162002902,support@thehemphaus.com,2020-12-17,,Yes,C,CBD,,,
The Hub 3 Smoke Shop,2631 NE Vivion Rd Ste A,,Kansas City,MO,64119,US,http://smokeshopkc.com/,8164925466,thehubkc@yahoo.com,2019-01-12,2019-06-30,Yes,H,CBD,Yes,,
The Hub Smoke Shop & Gifts 4,500 Delaware St,,Kansas City,MO,64105,US,http://smokeshopkc.com/,8167016267,thehubkc@yahoo.com,2019-06-30,2019-06-30,Yes,H,CBD,Yes,,
The Hub Smoke Shop 2,4027 N Oak Trafficway,,Kansas City,MO,64116,US,,8163212398,thehubkc@yahoo.com,2018-11-04,2019-06-30,Yes,S,CBD,Yes,,
The Vapor House,110 E Missouri Ave,,Kansas City,MO,64106,US,http://www.kcvaporhouse.com/,8169778848,kcvaporhouse@gmail.com,2018-08-31,2020-03-03,Yes,V,CBD,,,
The Vapor Lab,7801 N Oak Trafficway,,Kansas City,MO,64118,US,https://thevaporlabkc.com/,8164377363,info@thevaporlabkc.com,2018-08-31,2020-03-03,,V,,,,
Vape Tokz,1259 W 103rd St,,Kansas City,MO,64114,US,https://www.headshopkc.com/vape-tokz/,8166315151,,2022-01-25,2022-01-25,,V,,,,
Vapor Maven,6238 NW Barry Rd,,Kansas City,MO,64154,US,,8162145070,vapormaven@gmail.com,2018-08-31,2020-03-03,Yes,V,CBD,,,
Vapor World Liberty,8300 N Oxford St,,Kansas City,MO,64158,US,,8167922046,,2019-10-02,2019-10-12,Yes,V,CBD,Yes,,
Waldo Vapes,7234 Wornall Rd,,Kansas City,MO,64114,US,,8162987705,,2015-02-27,2018-12-26,,V,,,,
Westport Vape & Smoke Shop,4037 Broadway Blvd,,Kansas City,MO,64111,US,,8167565151,westportvapesmoke@gmail.com,2019-07-12,2020-12-11,Yes,S,CBD,Yes,,
VaporWyse Kearney,100 E 6th St #12,,Kearney,MO,64060,US,http://www.vaporwysellc.com/,8166352109,vaporwyse@gmail.com,2019-09-29,,Yes,V,CBD,,,
Chuckin Clouds Vape Shop,1023 1st St,,Kennett,MO,63857,US,https://www.chuckinclouds.com/,5735592222,chuckincloudskennett@gmail.com,2019-08-05,2019-08-05,,V,,,,
Tobacco Shoppe,410 St Francis St,,Kennett,MO,63857,US,,5738880226,,2019-12-23,,,T,,,,
MPV By Vapesmart,13099 MO-13 Ste d,,Kimberling City,MO,65686,US,,4177396091,,2021-10-20,,,V,,,,
Origins Hemp And CBD,204 N Franklin St,,Kirksville,MO,63501,US,https://www.originshempandcbd.com/,6609560097,originshcbd@gmail.com,2021-02-16,,Yes,C,CBD,,,
Smokers Outlet Inc,511 S Baltimore St #2,,Kirksville,MO,63501,US,,6606653999,,2018-09-25,,,S,,,,
Sunshine Daydream,1395 Bagnell Dam Blvd,,Lake Ozark,MO,65049,US,https://sunshinedaydream.com,5733654550,lake.sunshinedaydream@gmail.com,2018-12-06,,Yes,H,CBD,Yes,,
The Shanty On The Lake,2545 Bagnell Dam Blvd Ste 304 B,,Lake Ozark,MO,65049,US,,5736931115,theshanty@att.net,2021-09-26,2022-04-29,Yes,H,CBD,,,
Vapor Maven Lamar,605 12th St W,,Lamar,MO,64759,US,https://www.vapormaven.com/,4172951001,vapormaven@gmail.com,2018-01-11,2019-01-21,Yes,V,CBD,,,
Discount Tobacco and Fireworks,20956 E Ia-Mo St,,Lancaster,MO,63548,US,,8473791150,disctounttobaccandfireworks@gmail.com,2020-12-21,,Yes,S,CBD,Yes,,
Smokerz Outlet,10115 US-63,,Lancaster,MO,63548,US,,6604573088,,2020-03-16,,Yes,S,CBD,Yes,,
The Bud Room,617 Oak St,,Lathrop,MO,64465,US,https://thebudroomkc.com/,8165283420,thebudroomkc@gmail.com,2021-06-08,,,H,,,,
Smokers' Outlet - Lebanon,349 W Elm St,,Lebanon,MO,65536,US,http://www.smokers4u.com/,4175320058,lebanon@smokers4u.com,2019-09-25,,,S,,,,
The Ozz,535 E Elm St Ste A,,Lebanon,MO,65536,US,,4175328044,,2019-10-31,,Yes,H,CBD,Yes,,
Vapor World Lebanon,1828 S Jefferson Ave,,Lebanon,MO,65536,US,https://www.vaporworldstore.com/,4175322075,info@vaporworldstore.com,2018-08-31,2020-03-02,Yes,V,CBD,Yes,,
CBD American Shaman Lee's Summit,1638 SE Blue Parkway,,Lee's Summit,MO,64063,US,https://cbdamericanshaman.com/,8164345059,cbdamericanshaman1@gmail.com,2019-11-11,2019-11-11,Yes,C,CBD,,,
CBD American Shaman SW Market St,3520 SW Market St,,Lee's Summit,MO,64082,US,https://cbdamericanshaman.com/,8165373233,petrichor3250@gmail.com,2019-11-11,,Yes,C,CBD,,,
Native Hemp Company,19 SE 3rd St,,Lee's Summit,MO,64063,US,https://nativehempcompany.com/,8169296055,nativehempco@gmail.com,2021-03-07,,Yes,C,CBD,,,
OG Smoke Shop,602 Rte 291,,Lee's Summit,MO,64086,US,,8166002166,ogsmokeshop39@gmail.com,2022-04-26,2022-04-26,,S,,,,
Rustic Oils CBD Of Lee's Summit,618 SW 3rd St Ste J,,Lee's Summit,MO,64063,US,https://www.rusticoils.com/,8164345284,rusticoilsllc@yahoo.com,2021-01-14,,Yes,C,CBD,,,
Smoke Tokz,1129 NE Rice Rd,,Lee's Summit,MO,64086,US,https://leessummitsmokeshop.com/,8162725417,jevadbasmoketokz@gmail.com,2020-07-06,2020-07-06,Yes,S,CBD,Yes,,
Vapor Maven,312 NE MO-291,,Lee's Summit,MO,64036,US,https://www.vapormaven.com/,8169444211,vapormaven@gmail.com,2018-08-31,2019-10-09,Yes,V,CBD,,,
Aqueous Vapor - Lees Summit,506 MO-291 Ste F,,Lees Summit,MO,64063,US,https://aqueousvapor.com/,8163478273,info@aqueousvapor.com,2016-05-10,2019-03-05,Yes,V,CBD,,,
Vapor Up,622 SW 3rd St Ste F,,Lees Summit,MO,64063,US,https://www.vapor-up.com/,8165856800,,2018-10-11,,,V,,,,
Lemay Vapor,766 Lemay Ferry Rd,,Lemay,MO,63125,US,http://lemayvapor.com/,3146387170,lemayvapor@gmail.com,2014-10-09,2019-02-05,Yes,V,CBD,,,
CBD American Shaman - Liberty,1005 Middlebrook Dr Ste C,,Liberty,MO,64068,US,https://cbdamericanshaman.com/,9132497794,brandon.carnes1@gmail.com,2019-11-12,,Yes,C,CBD,,,
Happy Rock Smoke Shop,603 MO-291 #B,,Liberty,MO,64068,US,https://www.happyrocksmokeshop.com/,8164153814,h.rock49@yahoo.com,2018-08-06,2019-09-22,Yes,H,CBD,Yes,,
Hemp Haven - Liberty,214 N Rte 291,,Liberty,MO,64068,US,https://liberty.hemphaven.store/,8166219401,tresa@hemphaven.store,2020-07-05,,Yes,C,CBD,,,
Vapor Maven,342 Rte 291,,Liberty,MO,64068,US,https://vapormaven.com,8164298004,,2020-12-13,2020-12-13,Yes,T,CBD,,,
Rudy's Discount Smoke Shop,303 N Missouri St #B,,Macon,MO,63552,US,,6603851510,,2020-02-12,2020-02-12,,T,,,,
CBD Canvas Boutique & Dispensary,7312 Manchester Rd,,Maplewood,MO,63143,US,https://cbdcanvas.com/,3143089122,info@cbdcanvas.com,2020-11-24,,Yes,C,CBD,,,
Mape Vape,7213 Manchester Rd,,Maplewood,MO,63143,US,http://mapevape.com/,3148335564,info@mapevape.com,2014-09-12,2019-02-06,Yes,V,CBD,,,
Vaporized,2664 S Big Bend Blvd,,Maplewood,MO,63143,US,https://vaporizedstl.com/,3146468273,vaporizedstl@gmail.com,2018-08-31,2020-03-02,,V,,,,
Pipes-n-More,5052 Bcr 840,,Marquand,MO,63655,US,,5739443826,spirit_animal@yahoo.com,2022-01-31,2022-01-31,,H,,,,
Smokers' Outlet - Marshfield,1235 Spur Dr,,Marshfield,MO,65706,US,http://www.smokers4u.com/,4174682025,marshfield@smokers4u.com,2019-09-25,,,S,,,,
The Laughing Dragon,211 E Washington St,,Marshfield,MO,65706,US,,4176300192,laughingdragonsmokeshop@gmail.com,2021-07-17,,Yes,H,CBD,,,
Vapor World Marshfield,1200 Spur Dr Ste 500,,Marshfield,MO,65706,US,https://www.vaporworldstore.com/,4178590265,info@vaporworldstore.com,2018-08-31,2020-03-02,Yes,V,CBD,Yes,,
Dorsett CBD,11396 Dorsett Rd,,Maryland Heights,MO,63043,US,,3147235000,dorsettcbd@gmail.com,2020-12-23,,Yes,C,CBD,,,
Dorsett Vapor,11646 Dorsett Rd,,Maryland Heights,MO,63043,US,http://www.orderejuice.com/,3142917200,dorsettvapor@gmail.com,2014-08-28,2019-03-21,,V,,,,
Vapor Maven,1012 S Main St,,Maryville,MO,64468,US,https://www.vapormaven.com/,6602415030,vapormaven@gmail.com,2018-01-11,2019-01-21,Yes,V,CBD,,,
JB Hawks Discount Tobacco & Vape,2120 E Liberty St,,Mexico,MO,65265,US,http://jbhawks.com/index.php,5735818124,jbhawksmexico@gmail.com,2018-08-06,2019-06-08,Yes,T,CBD,,,
Vapor Maven,1625 N Morley St,,Moberly,MO,65270,US,https://vapormaven.com,6603721090,,2020-12-13,,Yes,V,CBD,,,
Wise Women Botanicals,1011B Hwy 24 West,,Moberly,MO,65270,US,https://wisewomenbotanicals.net,6602631033,wisewomenbotanicals@yahoo.com,2020-12-06,,Yes,C,CBD,,,
Vapor Maven Monett,845 Hess Dr,,Monett,MO,65708,US,http://vapormaven.com/,4176352112,,2019-10-09,,Yes,V,CBD,,,
Agora Vapor,142 Himmel Rd,,Moscow Mills,MO,63362,US,,3144150306,info@agoravapor.com,2020-12-17,,Yes,V,CBD,,,
SWMO Vape Shop,701 E Mt Vernon Blvd,,Mount Vernon,MO,65712,US,http://swmovapeshop.com/,4173621031,swmovapeshopmv@gmail.com,2014-10-09,2019-03-08,Yes,V,CBD,,,
Smokers' Outlet - Mountain View,102 E 5th St Ste 3,,Mountain View,MO,65548,US,http://www.smokers4u.com/,4179340390,mountainview@smokers4u.com,2019-09-25,,,S,,,,
4 State Vapors,425 Fairground Rd Ste C,,Neosho,MO,64850,US,,4174512020,shellymorrow@live.com,2018-06-06,2019-03-21,,V,,,,
Lugs Smoking Accessories,918 W South St Ste A,,Neosho,MO,64850,US,,4175923524,lugsbiz@gmail.com,2021-08-11,2021-08-11,Yes,V,CBD,,,
Smoke 4 Less,1104 W Harmony St,,Neosho,MO,64850,US,,4174519400,,2020-02-17,,,T,,,,
Vapor World Neosho,115 S Neosho Blvd Ste C,,Neosho,MO,64850,US,http://vapor-world-neosho-vaporizer-store.business.site/,4174512647,info@vaporworldstore.com,2018-08-31,2020-03-02,Yes,V,CBD,,,
Mr D's SmokeShop & Liquors,14180 US-54 Ste 1,,Nevada,MO,64772,US,,4176678636,mr.ds_smokeshop@hotmail.com,2020-01-21,,,T,,,,
Vapor Maven,400 S Johnson Dr Ste C,,Nevada,MO,64772,US,https://www.vapormaven.com/,4174486463,vapormaven@gmail.com,2018-08-31,2019-10-09,Yes,V,CBD,,,
Nixa Vapor,918 W Mt Vernon St,,Nixa,MO,65714,US,,4173747510,nixavapor@gmail.com,2015-05-02,2018-12-29,Yes,V,CBD,,,
Your CBD Store,238 South Village Center St,,Nixa,MO,65714,US,https://cbdrx4u.com,4173747273,nixa643@cbdrx4u.com,2020-12-07,,Yes,C,CBD,,,
Vapor Loft KC,310 Armour Rd,,North Kansas City,MO,64116,US,https://vaporloftkc.com/,8164377727,vaporloftkc@gmail.com,2018-08-31,2021-06-13,Yes,V,CBD,,,
CBD City,808 Midpoint Dr,,O'Fallon,MO,63366,US,,6362943338,,2020-11-24,,Yes,C,CBD,,,
Dirt Cheap,102 McDonald Ln,,O'Fallon,MO,63366,US,http://www.dirtcheapfunfun.com/,6369787431,dirtcheapchicken@gmail.com,2019-09-05,,,T,,,,
Hempothecary CBD,2762 Hwy K,,O'Fallon,MO,63368,US,,6362945547,,2022-03-11,2022-03-11,Yes,C,CBD,,,
I-Quit Vapor Lounge,852 Bryan Rd,,O'Fallon,MO,63366,US,,6362811755,cblevins@iquitvaporlounge.com,2014-09-07,2019-03-21,,V,,,,
STL Vapor,130 W Terra Ln,,O'Fallon,MO,63366,US,http://stlvapor.com/,6362942755,stlvaporof@gmail.com,2018-09-11,,,V,,,,
Sunshine Daydream,1215 Highway K,,O'Fallon,MO,63366,US,https://www.sunshinedaydream.com,6369366637,ofallon@sunshinedaydream.com,2020-12-24,2021-08-25,Yes,H,CBD,Yes,,
VaporWize,156 O'Fallon Plaza,,O'Fallon,MO,63366,US,,6366988447,,2014-09-30,2019-01-26,,V,,,,
CBD American Shaman - Oak Grove,701 S Broadway St,,Oak Grove,MO,64075,US,https://cbdamericanshaman.com/,8166251127,cbdoakgrove@gmail.com,2019-11-12,,Yes,C,CBD,,,
Discount Smokes & Liquor,200 S Broadway Ste A,,Oak Grove,MO,64075,US,,8166251381,,2019-09-30,,,S,,,,
Vapor Maven,204 S Broadway,,Oak Grove,MO,64075,US,https://www.vapormaven.com/,8166258283,vapormaven@gmail.com,2016-03-08,2019-02-01,Yes,V,CBD,,,
CBD Kratom,9201 Olive Blvd,,Olivette,MO,63132,US,https://cbdkratomshops.com/,3147335012,cbdkratom@gmail.com,2020-11-25,,Yes,C,CBD,Yes,,
Aqueous Vapor - Osage Beach,4344 Osage Beach Pkwy Ste 3C,,Osage Beach,MO,65065,US,http://aqueousvapor.com/,5733483244,info@aqueousvapor.com,2014-09-21,2019-03-05,Yes,V,CBD,,,
Hemp Hemp Hooray,3797 Osage Beach Pkwy N Ste F-1,,Osage Beach,MO,65065,US,https://weluvhemp.com/,5733558138,weluvhemp@gmail.com,2021-01-25,,Yes,C,CBD,,,
Smokers' Outlet - Lake Liquor,3715 Osage Beach Pkwy,,Osage Beach,MO,65065,US,http://www.smokers4u.com/,5733483838,osagebeach@smokers4u.com,2019-12-28,2019-12-28,Yes,S,CBD,Yes,,
Vaporized,9539 Lackland Rd Ste A,,Overland,MO,63114,US,https://www.vaporizedstl.com/,3144233244,,2018-08-31,2020-03-02,,V,,,,
Phoenix Natural Wellness Overland Park,9627 W 87th St,,Overland Park,MO,66212,US,https://www.phoenixnaturalwellness.com/,9137308520,phoenixnaturalhealing@gmail.com,2020-06-29,2020-06-29,Yes,C,CBD,,,
Phoenix South CBD Super Store South Overland Park,7932 W 151st St,,Overland Park,MO,66223,US,https://www.phoenixnaturalwellness.com/,9132575717,phoenixnaturalhealing@gmail.com,2020-06-29,2020-06-29,Yes,C,CBD,,,
Good Vibes Vapor,500 Hometown Plaza Ste 5,,Owensville,MO,65066,US,http://goodvibesvapor.com,5734372130,,2018-06-11,2019-03-21,,V,,,,
Twisted E Liquid,1423 W Hwy J,,Ozark,MO,65721,US,,4175820061,twistedeliquids@gmail.com,2018-08-31,2020-03-03,Yes,V,CBD,,,
Vapor World,1721 S 20th St #103,,Ozark,MO,65721,US,https://www.vaporworldstore.com/,4175810973,info@vaporworldstore.com,2018-08-31,2020-03-02,Yes,V,CBD,Yes,,
Kaleidosmok,2730 W Osage St,,Pacific,MO,63069,US,,6364516650,kaleidosmok@yahoo.com,2018-08-06,2018-10-16,Yes,V,CBD,,,
Ultimate Vapor,2314 W Osage St,,Pacific,MO,63069,US,http://www.ultimate-vapor.com/,6363930267,admin@ultimate-vapor.com,2021-07-13,,Yes,V,CBD,,,
Peace Of Mind,104 W Main St,,Park Hills,MO,63601,US,https://www.peaceofmind.buzz/,5733274101,mrtrainer76@gmail.com,2018-11-02,2018-11-02,Yes,H,CBD,Yes,,
Ultimate Vapor,913 E Main St,,Park Hills,MO,63601,US,https://www.ultimate-vapor.com/,5733278494,admin@ultimate-vapor.com,2018-08-31,2019-10-24,,V,,,,
Premier Vapor,25 W St Joseph St,,Perryville,MO,63775,US,http://www.premiervaporshops.com/,5738465049,premiervapor19@gmail.com,2014-10-09,2018-12-24,Yes,V,CBD,,,
Smokers' Discounts Plus Vapor,817 N Kingshighway St,,Perryville,MO,63775,US,http://smokersdiscountsplusvapor.com/,5736051455,,2020-03-15,2020-07-17,Yes,T,CBD,,,
Vapor Maven,2021 Jefferson St #A15,,Perryville,MO,63775,US,https://vapormaven.com,5736051344,,2020-12-13,,Yes,V,CBD,Yes,,
The Psychedelic Gift Shop,329 Business HH,,Piedmont,MO,63957,US,,5736250170,tommygee30@yahoo.com,2022-01-06,2022-01-06,,H,,,,
Roots Cannaporium CBD Store,124 Main St,,Platte City,MO,64079,US,,8168586005,b.root@rootscanna.com,2021-01-15,,Yes,C,CBD,,,
Vapor Maven,1820 Prairie View Rd,,Platte City,MO,64079,US,https://www.vapormaven.com/,8164310181,vapormaven@gmail.com,2018-01-11,2019-01-21,Yes,V,CBD,,,
B & K Trading Company,902 MO-53,,Poplar Bluff,MO,63901,US,,5737852600,bandktradingco@hotmail.com,2018-11-02,2018-11-11,Yes,S,CBD,Yes,,
Chuckin' Clouds,2006 N Westwood Blvd,,Poplar Bluff,MO,63901,US,https://www.chuckinclouds.com/,5737188394,,2018-08-12,2020-02-08,Yes,V,CBD,,,
Cigarette Express,1885 N Westwood Blvd,,Poplar Bluff,MO,63901,US,,5737270020,,2019-08-23,,Yes,T,CBD,,,
Grateful Headz,809 W Pine St,,Poplar Bluff,MO,63901,US,https://gratefulheadz.com/,5737725806,pbheadies@gmail.com,2021-01-14,,Yes,H,CBD,,,
Happy Mart,1800 S Broadway St,,Poplar Bluff,MO,63901,US,,5736092828,happymartpoplarbluff@gmail.com,2021-10-20,,Yes,S,CBD,Yes,,
Jays Corner Inc,1040 S Broadway St,,Poplar Bluff,MO,63901,US,,5733004571,jayscornerinc@gmail.com,2021-01-20,,Yes,S,CBD,Yes,,
PB Vapors,38 MO-142,,Poplar Bluff,MO,63901,US,,5736092900,,2020-02-03,,Yes,V,CBD,,,
The Hemp Joint,1057 MO-142,,Poplar Bluff,MO,63901,US,https://www.thehempjoint.net/,5737127562,tim@thehempjoint.net,2020-12-16,,Yes,C,CBD,,,
Vapor Maven,1904 N Westwood Blvd,,Poplar Bluff,MO,63901,US,https://www.vapormaven.com/,5736092677,vapormaven@gmail.com,2016-03-08,2019-02-01,Yes,V,CBD,,,
Dragon Vapor,108 E High St,,Potosi,MO,63664,US,,5734368273,dragonvapor573@gmail.com,2014-09-27,2019-02-12,Yes,V,CBD,,,
Smokers' Outlet,828 E High St #16,,Potosi,MO,63664,US,http://www.smokers4u.com/,5734385856,info@smokers4u.com,2020-03-10,2020-03-10,Yes,T,CBD,,,
Vapor Maven,305 N Dean Ave,,Raymore,MO,64083,US,https://www.vapormaven.com/,8165355050,vapormaven@gmail.com,2016-03-08,2019-10-10,Yes,V,CBD,,,
Blue Ridge Smoke Shop,5220 Blue Ridge Cutoff,,Raytown,MO,64133,US,http://blue-ridge-smoke-shop.business.site/,8163562860,,2019-07-27,,,T,,,,
New Discount Smoke Shop,6255 Blue Ridge Blvd,,Raytown,MO,64133,US,,8163536156,,2020-01-27,,,T,,,,
The Vapor House,9500 E 55th St,,Raytown,MO,64133,US,http://www.kcvaporhouse.com/,8165064284,kcvaporhouse@gmail.com,2018-08-31,2020-03-03,Yes,V,CBD,,,
Vapor Room 816,9598 E MO-350 Ste A,,Raytown,MO,64133,US,http://www.vaporroom816.com/vape-shop-raytown/,8168861254,,2018-08-31,2019-10-07,Yes,V,CBD,,,
Rudy's Discount Smoke Shop,18192 MO-13 BUS Ste D,,Reeds Spring,MO,65737,US,http://www.discountsmokeshop.com/,4172723250,,2020-02-12,,,S,,,,
CBD of Republic,882 US-60 E,,Republic,MO,65738,US,https://www.cbd-republic.com/,4178181812,cbdofrepublic@gmail.com,2020-11-27,,Yes,C,CBD,,,
Vapor World Republic City,1214 E Independence St A,,Republic,MO,65738,US,https://www.vaporworldstore.com/,4177322432,info@vaporworldstore.com,2018-08-31,2020-03-02,Yes,V,CBD,Yes,,
Discount Smoke & Liquor,4335 NW Gateway Ave,,Riverside,MO,64150,US,,8169829330,,2019-10-19,,,T,,,,
Smokes 4 Less,2705 NW Platte Rd,,Riverside,MO,64150,US,,8165840206,,2020-03-16,,Yes,T,CBD,,,
Tobacco Mart 3,17142 State Hwy E,,Rock Port,MO,64482,US,,6607445478,,2019-11-09,,,T,,,,
Colorful Vibes,1421 Forum Dr Ste C-1,,Rolla,MO,65401,US,http://www.mycolorfulvibes.com/,5732029103,rollascolorfulvibes@gmail.com,2020-02-23,2020-04-20,Yes,H,CBD,Yes,,
Discount Smoke Shop,704 N Bishop Ave Ste 1,,Rolla,MO,65401,US,http://www.discountsmokeshop.com/,5733684200,,2019-10-22,,Yes,T,CBD,,,
Kaleidosmok,1019 Kingshighway #6,,Rolla,MO,65401,US,http://www.kaleidosmok.com/,5734264445,kaleidosmok@yahoo.com,2018-10-16,2018-10-16,Yes,V,CBD,,,
Peace Of Mind - Forum Drive,1413 Forum Dr,,Rolla,MO,65401,US,https://www.mypeaceofmindonline.com/,5733085909,,2021-09-03,2021-09-03,Yes,H,CBD,,,
Peace Of Mind - Pine Street,703 N Pine St,,Rolla,MO,65401,US,https://www.mypeaceofmindonline.com/,5734266770,social@peaceofmind.buzz,2018-11-17,2021-09-03,Yes,H,CBD,,,
Pleasure Zone Adult Store,11550 Dillon Outer Rd,,Rolla,MO,65401,US,,5733081333,,2019-09-29,2019-09-29,,H,,,,
Smokers' Outlet,1056 Kingshighway St,,Rolla,MO,65401,US,,5734264575,,2022-02-01,2022-02-01,,S,,,,
Vapor World,615 S Bishop Ave Ste G,,Rolla,MO,65401,US,https://www.vaporworldstore.com/,5733080994,info@vaporworldstore.com,2018-08-31,2020-03-02,Yes,V,CBD,Yes,,
Smokers Heaven,13565 US-59,,Rushville,MO,64484,US,,8167545002,cryptonellc@gmail.com,2020-06-28,2020-06-28,Yes,H,CBD,Yes,,
Discount Smoke Shop,10507 St Charles Rock Rd,,Saint Ann,MO,63074,US,http://www.discountsmokeshop.com/,3144283183,,2019-10-19,2019-10-19,Yes,S,CBD,Yes,,
20 After 4,1303 S 22nd St,,Saint Joseph,MO,64507,US,https://20after4.life,8162595180,info@20after4.life,2020-11-14,2020-11-14,Yes,H,CBD,,,
Delta816,6968 King Hill Ave,,Saint Joseph,MO,64504,US,,8163649687,delta816llc@gmail.com,2021-10-27,2021-10-27,Yes,C,CBD,,,
710 Glass,8122 S Broadway St,,Saint Louis,MO,63111,US,,3142610010,,2022-01-06,2022-01-06,Yes,H,CBD,,,
Area 51 Gifts,6925 Gravois Ave,,Saint Louis,MO,63116,US,,3143535192,info@area51stl.com,2018-12-22,,Yes,H,CBD,Yes,,
Ciggfreeds Liquid and Lace,6839 Gravois Ave,,Saint Louis,MO,63116,US,http://www.ciggfreeds.com/,3143008750,ciggfreeds@gmail.com,2018-10-18,2018-10-18,Yes,V,CBD,Yes,,
Coughing Cardinal,2131 Barrett Station Rd,,Saint Louis,MO,63131,US,https://www.coughingcardinal.com/,3149662473,sales@coughingcardinal.com,2019-01-12,,Yes,H,CBD,,,
Eclipse,6917 Gravois Ave,,Saint Louis,MO,63116,US,http://eclipsegiftsstl.tk/,3144579503,eclipsegifts@hotmail.com,2018-12-05,,,H,,,,
Emporium Smoke Shop,6254 Delmar Blvd,,Saint Louis,MO,63130,US,http://www.emporiumsmokeshopstl.com/,3147216277,,2018-12-08,,Yes,S,CBD,Yes,,
Hemp CBD Superstore,12149 Bellefontaine Rd,,Saint Louis,MO,63138,US,http://hempcbdsuperstore.com,8669436722,,2019-10-22,,Yes,C,CBD,Yes,,
STL Vapor,4028 Butler Hill Rd,,Saint Louis,MO,63129,US,http://stlvapor.com/,6362942755,stlvaporof@gmail.com,2018-09-11,,,V,,,,
Sunshine Daydream South County,5501 S Lindbergh Blvd,,Saint Louis,MO,63123,US,http://www.sunshinedaydream.com,3148494454,sales@sunshinedaydream.com,2018-12-06,,Yes,H,CBD,Yes,,
Retro Active,366 Mid Rivers Mall Dr,,Saint Peters,MO,63376,US,http://www.retroactivesmokeshop.com,6362784301,contact@retroactivesmokeshop.com,2019-01-05,2019-08-16,,H,,,,
Discount Smoke Shop,215 Saint Robert Blvd Ste 5,,Saint Robert,MO,65584,US,,5733367491,,2019-09-24,2019-09-24,,T,,,,
Vapor World St. Robert #1,272 Marshall Dr Ste C,,Saint Robert,MO,65584,US,https://www.vaporworldstore.com/,5733361444,info@vaporworldstore.com,2018-08-31,2019-09-24,Yes,V,CBD,,,
Vapor World St. Robert #2,151 St. Robert Blvd,,Saint Robert,MO,65584,US,https://www.vaporworldstore.com/,5733364117,info@vaporworldstore.com,2018-08-31,2019-09-24,,V,,,,
Smokers' Outlet - Salem,803 MO-32,,Salem,MO,65560,US,http://www.smokers4u.com/,5737298800,salem@smokers4u.com,2019-09-25,,Yes,S,CBD,,,
Aqueous Vapor - Sedalia,3040 W Broadway #370,,Sedalia,MO,65301,US,http://aqueousvapor.com/,6608293244,info@aqueousvapor.com,2014-09-21,2019-03-05,Yes,V,CBD,,,
Blue Moon Smoke Shop,1401 S Limit Ave,,Sedalia,MO,65301,US,,6608512905,,2019-07-26,,,S,,,,
Natural Wellness CBD,518 W 16th St,,Sedalia,MO,65301,US,https://naturalwellnesssedalia.com/,6608295950,,2021-03-03,,Yes,C,CBD,,,
Puzzle Pieces Smoke Emporium,1420 Hwy M,,Sedalia,MO,65301,US,,6608290585,,2020-02-07,2020-02-07,Yes,H,CBD,,,
Smokers' Outlet - Sedalia,1700 E Broadway Blvd,,Sedalia,MO,65301,US,http://www.smokers4u.com/,6608272959,,2019-09-25,2019-09-25,Yes,S,CBD,,,
Vapor Maven,2927 W Broadway Blvd,,Sedalia,MO,65301,US,,6605535226,vapormaven@gmail.com,2018-08-31,2020-03-03,Yes,V,CBD,,,
Discount Cigarettes & Beer,2021 E Malone Ave,,Sikeston,MO,63801,US,,5734711278,,2019-10-12,,Yes,T,CBD,,,
JB Hawks Discount Tobacco & Vape,1001 E Malone Ave,,Sikeston,MO,63801,US,http://jbhawks.com/index.php,5734712721,jbhawkssikeston@gmail.com,2018-08-06,2019-06-08,Yes,T,CBD,,,
Soo Vape,801 S Main St Ste C,,Sikeston,MO,63801,US,,5734757555,,2018-09-25,2019-02-06,Yes,V,CBD,,,
The Greener Days,331 N Main St,,Sikeston,MO,63801,US,https://www.thegreenerdays.com/,5736215099,staff@thegreenerdays.com,2020-12-17,,Yes,C,CBD,,,
Vapor Maven,1213 S Main St,,Sikeston,MO,63801,US,https://vapormaven.com/,5734758734,web@vmavendistribution.com,2020-12-13,,Yes,V,CBD,,,
Bohemian Smoke Shop,430 W Kearney St,,Springfield,MO,65803,US,,4173513136,,2019-11-19,2022-01-20,Yes,H,CBD,Yes,,
Canna Bliss,1937 S Glenstone Ave,,Springfield,MO,65804,US,https://www.417canna.com/,4178862999,417canna@gmail.com,2020-11-22,2020-11-22,Yes,C,CBD,,,
CBD of Springfield,3203 S Campbell Ave,,Springfield,MO,65807,US,https://cbdhempdropz.com/,4173195522,hempdropz2020@gmail.com,2020-11-27,,Yes,C,CBD,,,
Cosmic Fish,1445 S Glenstone Ave,,Springfield,MO,65804,US,,4178834221,cosmicfish@mchsi.com,2019-01-11,,,H,,Yes,,
Discount Smoke Shop,2845 W Chestnut Expy #B,,Springfield,MO,65802,US,http://www.discountsmokeshop.com/,4178695456,,2019-09-05,,,S,,,,
Discount Smokes & Beer,635 S Kimbrough Ave,,Springfield,MO,65806,US,http://417discountsmokes.business.site/,4178312305,,2019-10-24,,,T,,,,
Eddies Headies,310 S Campbell Ave,,Springfield,MO,65806,US,https://eddies-headies.business.site/,4178329915,,2018-12-17,2021-06-20,,H,,Yes,,
Electric Puff Vapor Shop #1,3643 E Sunshine St,,Springfield,MO,65809,US,http://www.electricpuff.net/,4177201386,epicglide@att.net,2016-02-05,2019-03-21,,V,,,,
Electric Puff Vapor Shop #2,4127 S Kansas Expy Ste 116,,Springfield,MO,65807,US,http://www.electricpuff.net/,4177194279,,2018-06-11,2019-03-21,,V,,,,
Hemporium,4139 S National Ave,,Springfield,MO,65807,US,https://417hemp.com/,4173247724,info@417hemp.com,2021-01-28,,Yes,C,CBD,,,
Kaleidoscope,1430 E Sunshine St,,Springfield,MO,65804,US,http://www.kscope4fun.com,4178839636,info@kscope4fun.com,2019-01-11,2019-01-11,Yes,H,CBD,,,
Puff The Magic Dragon,2005 E Kearney St Ste E,,Springfield,MO,65803,US,https://springfield-kratom.com/,,,2018-12-18,,Yes,H,CBD,Yes,,
Puff The Magic Dragon #2,1553 N National Ave,,Springfield,MO,65803,US,,4177719428,,2018-12-18,,Yes,H,CBD,Yes,,
Queen City Vapors,2717 W Kearney St,,Springfield,MO,65803,US,,4178691622,,2018-09-25,,Yes,V,CBD,,,
Smokers' Outlet - Springfield - Kearney,1446 E Kearney St,,Springfield,MO,65803,US,http://www.smokers4u.com/,4178636461,springfield@smokers4u.com,2019-09-25,,Yes,S,CBD,,,
Soundsmart,303 E Battlefield St Ste D,,Springfield,MO,65807,US,,4178830102,,2019-01-11,,Yes,H,CBD,,,
Springfield Vapors,829 W Kearney St,,Springfield,MO,65803,US,,4178621075,springfieldvaporsllc@gmail.com,2019-05-19,,,V,,,,
Springfield Vapors - Grand,1803 W Grand St Ste A,,Springfield,MO,65807,US,,4173513885,preston@foundingfathersliquid.com,2019-05-19,2019-05-19,,V,,,,
Swin Dispensaries - Springfield,108 E Park Central East St,,Springfield,MO,65806,US,https://swindispensaries.com,4173501037,swindispensaries@gmail.com,2020-12-25,,Yes,C,CBD,,,
The Cloud Vapor Company,210 W Sunshine St Ste B,,Springfield,MO,65807,US,,4178691367,thecloudvapecompany92@gmail.com,2019-10-31,2019-10-31,Yes,V,CBD,,,
The Fuzzy Bubble,2767 W Republic Rd Ste 136,,Springfield,MO,65807,US,,4178771254,thefuzzybubblellc@gmail.com,2018-12-28,,,H,,Yes,,
The Vape Escape,1125 E Battlefield Rd Ste 300,,Springfield,MO,65807,US,,4178835594,,2019-05-20,,,V,,,,
Tobacco World,1420 S Glenstone Ave,,Springfield,MO,65804,US,,4178901978,,2019-12-18,2019-12-18,Yes,T,CBD,,,
Vapor 100 - Sunshine,1321 W Sunshine St,,Springfield,MO,65807,US,http://www.vapor100.com/,4178649858,,2019-09-23,,,V,,,,
Vapor World,3305 S Campbell Ave Ste D,,Springfield,MO,65802,US,https://www.vaporworldstore.com,4178818864,info@vaporworldstore.com,2018-08-31,2020-03-02,Yes,V,CBD,Yes,,
Vapor World,1378 E Republic Rd,,Springfield,MO,65804,US,,4178871655,info@vaporworldstore.com,2018-08-31,2020-03-02,Yes,V,CBD,Yes,,
Vapor World,619 S Glenstone Ave Ste C,,Springfield,MO,65802,US,https://www.vaporworldstore.com/,4178661453,,2018-08-31,2020-03-02,Yes,V,CBD,Yes,,
Vapor World Kansas Expressway,2725 N Kansas Expy Ste 132,,Springfield,MO,65803,US,https://www.vaporworldstore.com/,4178661338,,2018-08-31,2020-03-02,Yes,V,CBD,Yes,,
Vapor World Kearney,2005 E Kearney St Ste C,,Springfield,MO,65803,US,https://www.vaporworldstore.com/,4178320551,krishavapor100@gmail.com,2018-08-31,2019-10-02,Yes,V,CBD,,,
Viper Vapor,900 N Glenstone Ave,,Springfield,MO,65803,US,,4178732242,,2014-09-20,2019-01-26,,V,,,,
Nimbus Cloud Lounge,10118 St Charles Rock Rd,,St Ann,MO,63074,US,,3144553074,nimbuscloudlounge@gmail.com,2018-09-25,,,V,,,,
Aiello's Cigar Bar,5286 Hwy N,,St Charles,MO,63304,US,http://www.aiellocigarbar.com/,6364410994,mcaiel@aiellocigarbar.com,2019-07-16,,,T,,,,
Dirt Cheap,1495 Kisker Rd,,St Charles,MO,63304,US,http://www.dirtcheapfunfun.com/,6364777774,dirtcheapchicken@gmail.com,2019-10-06,,Yes,T,CBD,,,
Discount Smoke Shop,1476 South Dr,,St Charles,MO,63303,US,http://www.discountsmokeshop.com/,6369476300,,2019-10-20,,Yes,T,CBD,Yes,,
Glad Rags,6 Hawks Nest Plaza,,St Charles,MO,63303,US,http://www.themusicreunion.com/,6369401221,,2019-08-25,,Yes,H,CBD,,,
SY2 Vapors St. Charles,423 Droste Rd,,St Charles,MO,63301,US,,3149144469,,2019-12-01,,Yes,V,CBD,,,
VaporWize Weldon Spring,5134 Westwood Dr,,St Charles,MO,63304,US,,6362442691,vaporwizeweldon@gmail.com,2022-01-24,2022-01-24,,V,,,,
K 2 Smoke & Gifts,1602 St Joseph Ave,,St Joseph,MO,64505,US,,8162322777,,2019-12-23,,,S,,,,
MSA Smoke Shop,5924 N Belt Hwy,,St Joseph,MO,64506,US,,8162329400,,2019-09-17,,Yes,S,CBD,Yes,,
Muse Vape,803 S Belt Hwy Ste C,,St Joseph,MO,64501,US,https://muse-vape.business.site/,8162730616,musevape2@gmail.com,2019-05-03,2019-05-03,Yes,V,CBD,,,
Sacred Leaf Zero,5906 N Belt Hwy,,St Joseph,MO,64506,US,,8163968666,st.joeslz1@gmail.com,2020-11-30,,Yes,C,CBD,,,
Smokers Hub,4506 SE US-169,,St Joseph,MO,64507,US,,8162333999,,2020-03-13,,,S,,Yes,,
Smokerz Outlet,1601 Frederick Ave,,St Joseph,MO,64501,US,,8166710001,,2020-03-16,2020-03-16,Yes,S,CBD,Yes,,
Smooth Endings,3606 Beck Rd #B,,St Joseph,MO,64506,US,http://smooth-endings.business.site/,8167494946,smoothendings2010@gmail.com,2019-09-29,,Yes,T,CBD,,,
The Torch and Nail,6114 King Hill Ave,,St Joseph,MO,64504,US,https://the-torch-and-nail.square.site,8163413733,thetorchandnail@gmail.com,2018-11-18,2021-06-19,Yes,H,CBD,,,
Galaxy Vapors,2860 Telegraph Rd,,St Louis,MO,63125,US,,3149391616,,2018-08-06,2020-01-13,Yes,V,CBD,,,
"Mirage Spa & Recreation, Inc.",469 N Kirkwood Rd,,St Louis,MO,63122,US,,3149650660,kport@miragespa.com,2018-11-08,,Yes,C,CBD,,,
Mr. Nice Guy University City,8506 Olive Blvd,,St Louis,MO,63132,US,http://www.mrniceguyheadshops.com/,3147364121,mrniceguystl@gmail.com,2018-08-06,2019-06-08,Yes,H,CBD,Yes,,
Smoke Smart,9923 Watson Rd,,St Louis,MO,63126,US,https://smokesmartllc.com/,3143942727,admin@smokesmartllc.com,2018-09-25,,,V,,,,
TABA Smoke Shop + Novelty,1208 Washington Ave Ste B,,St Louis,MO,63103,US,https://www.tabastore.com/,3144368588,taba.co.bliz@gmail.com,2018-09-25,2021-12-11,Yes,S,CBD,Yes,,
Discount Liquor & Smoke,533 Salt Lick Rd,,St Peters,MO,63376,US,http://dlsmoke.vpweb.com/,6362783178,,2019-10-17,,,T,,,,
Greatest Shop Ever,1125 Cave Springs Blvd,,St Peters,MO,63376,US,https://greatestshopever.com/,6369220558,sales@greatestshopever.com,2018-08-06,2019-09-21,Yes,H,CBD,Yes,,
Green Dreamz CBD & More,3030 Mid Rivers Mall Dr,,St Peters,MO,63376,US,https://www.greendreamzcbd.com/,6369702999,greendreamzpro@gmail.com,2021-01-16,,Yes,C,CBD,,,
Smoke Safe Vapor Lounge,2975 N St Peters Pkwy,,St Peters,MO,63376,US,https://smokesafe-premium-vapor-lounge.business.site/,6362445214,,2018-09-25,,Yes,V,CBD,,,
STL ReLeaf,4131 Old Hwy 94 S,,St Peters,MO,63304,US,,6363171364,stlreleaf@gmail.com,2021-01-01,,Yes,H,CBD,Yes,,
The Vape Mall,356 Mid Rivers Mall Dr,,St Peters,MO,63375,US,https://thevapemall.com/,6368872326,cs@thevapemall.com,2018-09-25,,,V,,,,
The Vise Smoke Shop,101 Harvester Ct,,St Peters,MO,63304,US,,6369224808,thevise@sbcglobal.net,2019-11-02,,Yes,H,CBD,Yes,,
Mad Hatters Emporium,644 Old Rte 66 Ste B,,St Robert,MO,65584,US,,5734512311,,2021-03-17,2021-03-17,Yes,H,CBD,Yes,,
Peace Of Mind - St. Robert,357 MO-Z,,St Robert,MO,65584,US,https://www.mypeaceofmindonline.com/,5734512696,onlinepeaceofmind@gmail.com,2021-02-12,2021-02-12,Yes,H,CBD,,,
710 Glass,3104 W Clay St,,St. Charles,MO,63111,US,,6368964038,710glassco2@gmail.com,2022-01-06,2022-01-06,Yes,H,CBD,,,
CBD Kratom,640 Randall Rd,,St. Charles,MO,60174,US,http://cbdkratomshops.com/,6305496468,shopcbdkratom@gmail.com,2019-09-29,2019-09-29,Yes,H,CBD,Yes,,
Mr. Nice Guy,1550 Veterans Memorial Pkwy,,St. Charles,MO,63303,US,http://www.mrniceguyheadshops.com/,6367575551,mrniceguystl@gmail.com,2018-08-06,2021-03-10,Yes,H,CBD,Yes,,
STL Vapor,2230 1st Capitol Dr,,St. Charles,MO,63301,US,http://stlvapor.com/,3148276765,stlvaporof@gmail.com,2018-09-11,2019-11-28,Yes,V,CBD,,,
VaporWize St. Charles,1009 S 5th St,,St. Charles,MO,63301,US,,6367573420,vaporwizemw@gmail.com,2016-06-26,2019-11-27,Yes,V,CBD,,,
Aqueous Vapor - St. Joseph,2304 N Belt Hwy,,St. Joseph,MO,64506,US,https://aqueousvapor.com/,8162328273,info@aqueousvapor.com,2016-05-10,2019-03-05,Yes,V,CBD,,,
Vapor Maven,3123 N Belt Hwy,,St. Joseph,MO,64056,US,,8162735440,vapormaven@gmail.com,2018-08-31,2020-03-03,Yes,V,CBD,,,
Vapor Maven,2915 S Belt Hwy,,St. Joseph,MO,64503,US,,8162595284,vapormaven@gmail.com,2018-08-31,2020-03-03,Yes,V,CBD,,,
510 Vapers,4530 Lemay Ferry Rd Unit N,,St. Louis,MO,63129,US,http://www.510vapers.com/,3143296725,michael@510vapers.com,2018-02-07,2019-02-06,,V,,,,
Aqueous Vapor,409 Watson Plaza,,St. Louis,MO,63126,US,http://aqueousvapor.com/,3148211174,info@aqueousvapor.com,2018-06-05,2018-11-11,,V,,,,
CBD American Shaman - County Center,141 W County Center,,St. Louis,MO,63131,US,https://cbdamericanshaman.com/,3149446669,info@americancbdwestcounty.com,2019-11-11,2019-11-11,Yes,C,CBD,,,
CBD American Shaman of Oakville,5650 Telegraph Rd Ste 5,,St. Louis,MO,63129,US,https://cbdamericanshaman.com/,3142939817,matt@cbdoakvillemo.com,2019-11-11,2019-11-11,Yes,C,CBD,,,
CBD Kratom,115 N Euclid Ave Ste B,,St. Louis,MO,63108,US,http://cbdkratomshops.com/,3143126220,shopcbdkratom@gmail.com,2019-09-29,2019-09-29,Yes,H,CBD,Yes,,
CBD Kratom,3729 S Lindbergh Blvd Unit 101,,St. Louis,MO,63127,US,http://cbdkratomshops.com/,3142876916,shopcbdkratom@gmail.com,2019-09-29,2019-09-29,Yes,H,CBD,Yes,,
CBD Kratom,13035 Olive Blvd,,St. Louis,MO,63141,US,http://cbdkratomshops.com/,3145486754,shopcbdkratom@gmail.com,2018-11-08,,Yes,H,CBD,Yes,,
CBD Kratom,3161 Morganford Rd,,St. Louis,MO,63116,US,http://cbdkratomshops.com/,3142028330,shopcbdkratom@gmail.com,2018-11-08,,Yes,H,CBD,Yes,,
Cheapy Smokes,5243 Southwest Ave,,St. Louis,MO,63139,US,,3147727222,,2019-08-03,,,T,,,,
Cool Smoke,10544 Page Ave,,St. Louis,MO,63114,US,,3144559411,izoo2009@gmail.com,2019-06-13,2019-06-13,Yes,S,CBD,Yes,,
Discount Smoke Shop,8519 Manchester Rd,,St. Louis,MO,63144,US,http://www.discountsmokeshop.com/,3149684493,,2019-09-06,,Yes,T,CBD,,,
Discount Smoke Shop,4340 Loughborough Ave,,St. Louis,MO,63116,US,http://www.discountsmokeshop.com/,3148324241,,2019-10-21,,,T,,,,
Good Times Smoke Shop,5415 Chippewa St,,St. Louis,MO,63109,US,,3143532222,goodtimesmokeshopstl@gmail.com,2018-10-22,,,S,,,,
Kratom Plus CBD,3323 Lemay Ferry Rd,,St. Louis,MO,63125,US,,3142009868,contact@kratompluscbd.com,2020-07-09,,Yes,C,CBD,Yes,,
Leaf & Co. by CBD Kratom,2077 St Louis Galleria St,,St. Louis,MO,63117,US,http://leafandco.com/,3143382638,info@leafandco.com,2019-09-29,2021-03-07,Yes,H,CBD,Yes,,
Mr. Nice Guy Cherokee,2644 Cherokee St,,St. Louis,MO,63118,US,http://www.mrniceguyheadshops.com/,3145539256,mrniceguystl@gmail.com,2018-08-06,2019-06-08,Yes,H,CBD,Yes,,
Nics CBD and Vape,13084 Tesson Ferry Rd,,St. Louis,MO,63128,US,,3142708575,,2022-01-27,2022-01-27,Yes,C,CBD,,,
Night Owl Tobacco,4235 Bayless Ave,,St. Louis,MO,63123,US,,3148027836,stlnightowl@gmail.com,2020-01-09,,Yes,S,CBD,,,
Pit Stop Smoke Shop & Convenience Store,6920 Chippewa St,,St. Louis,MO,63109,US,,3148333336,pitstopcsllc@gmail.com,2021-02-01,,,S,,,,
Simple Pleasures Boutique,4117 Chippewa St,,St. Louis,MO,63116,US,https://simplepleasuresboutique.business.site/,3147720057,stlsimplepleasure@outlook.com,2019-06-21,,Yes,S,CBD,,,
Simple Pleasures Boutique 2,137 Lemay Ferry Rd,,St. Louis,MO,63125,US,,3148750508,stlsimplepleasure@outlook.com,2019-06-21,,Yes,S,CBD,,,
Skywalker Smoke Shop,2636 Cherokee St #1F,,St. Louis,MO,63118,US,https://stlouissmokeshop.com/,3143105338,skywalkerstl@icloud.com,2021-01-09,,Yes,H,CBD,Yes,,
T-Shirt Headquarters Boutique,2816 Cherokee St,,St. Louis,MO,63118,US,https://t-shirt-headquarters-boutique.business.site/,3147720200,,2019-06-26,,,H,,,,
The No Smoke Shop,4521 S Kingshighway Blvd,,St. Louis,MO,63109,US,http://www.no-smokeshop.com/,3146962855,marc@no-smokeshop.com,2018-09-15,,,V,,,,
Titanium Vapor,8450 Watson Rd,,St. Louis,MO,63119,US,http://www.titaniumvaporstl.com/,3145855718,titaniumvape@gmail.com,2014-09-30,2019-02-06,Yes,V,CBD,,,
Aqueous Vapor,4087 Veterans Memorial Pkwy,,St. Peters,MO,63376,US,https://aqueousvapor.com/,6364777701,info@aqueousvapor.com,2018-06-05,2019-06-20,Yes,V,CBD,,,
CBD American Shaman of St. Peters,211 Salt Lick Rd,,St. Peters,MO,63376,US,https://cbdamericanshaman.com/,6363871711,cbdamericanshamanstpeters@gmail.com,2019-11-11,,Yes,C,CBD,,,
CBD Kratom,318 Mid Rivers Mall Dr Ste B,,St. Peters,MO,63376,US,http://cbdkratomshops.com/,6363870263,shopcbdkratom@gmail.com,2019-09-29,2019-09-29,Yes,H,CBD,Yes,,
Smoke Smart,4875 Mexico Rd,,St. Peters,MO,63376,US,https://smokesmartllc.com/,6364776031,admin@smokesmartllc.com,2018-09-30,,,V,,,,
Peace Of Mind,104 W Main St,,Sullivan,MO,63080,US,https://www.mypeaceofmindonline.com/,5734683604,,2018-11-18,2021-02-11,Yes,H,CBD,Yes,,
A & D Discount Tobacco Shops,8575 US-24,,Taylor,MO,63471,US,https://a-d-discount-tobacco-shops.business.site/,5733931019,,2019-07-14,,Yes,S,CBD,Yes,,
JB Hawks Discount Tobacco & Vape,8750 Hwy 24,,Taylor,MO,63471,US,http://jbhawks.com/index.php,2176190292,jbhawkswestquincy@gmail.com,2018-08-06,2019-06-08,Yes,T,CBD,,,
Smokers' Outlet,8434 US-24,,Taylor,MO,63471,US,http://www.smokers4u.com/,5733931065,info@smokers4u.com,2020-03-15,,Yes,T,CBD,,,
Smokers' Outlet,1832 E 9th St,,Trenton,MO,64683,US,http://www.smokers4u.com/,6603397393,info@smokers4u.com,2020-03-15,2020-03-15,,T,,,,
Happy Cloud,501 E Cherry St Ste B,,Troy,MO,63379,US,,6363239961,,2018-10-29,,Yes,H,CBD,,,
Retro Active - Troy,189 N Lincoln Dr,,Troy,MO,63379,US,http://retroactivesmokeshop.com,6365281868,contact@retroactivesmokeshop.com,2019-01-05,2019-08-16,,H,,,,
V-Twin Vapors,10 Centerline Dr,,Troy,MO,63379,US,,6367752449,vtwinvapor@gmail.com,2022-02-21,2022-03-25,Yes,V,CBD,,,
Vapor Locker USA,10 Ellis Ave Ste C,,Troy,MO,63379,US,http://www.vaporlockerusa.com/,6367751525,,2014-09-13,2019-01-31,,V,,,,
Victory Lane Vapor,1450 S Main St,,Troy,MO,63379,US,,6364628533,victorylanevapor@gmail.com,2014-09-20,2018-11-13,Yes,V,CBD,,,
Good Vibes Vapor,1553 Denmark Rd,,Union,MO,63084,US,http://goodvibesvapor.com/,6365830665,info@goodvibesvapor.com,2014-08-29,2019-03-21,,V,,,,
More Than Vapors,317 US-50 W,,Union,MO,63084,US,,6367441504,morethanvapors@yahoo.com,2018-09-25,,,V,,,,
Stout's,1238 Clearview Rd,,Union,MO,63084,US,https://stoutsstore.com/,5732593229,stouts_store@live.com,2018-12-20,2019-03-30,,O,,,,
CBD Kratom,6331 Delmar Blvd,,University City,MO,63130,US,http://cbdkratomshops.com/,3146598547,shopcbdkratom@gmail.com,2019-09-29,2019-09-29,Yes,H,CBD,Yes,,
Sunshine Daydream Loop,6303 Delmar Blvd,,University City,MO,63130,US,http://www.sunshinedaydream.com,3147279043,sunshinedaydreamloop@gmail.com,2018-12-06,2018-12-06,Yes,H,CBD,Yes,,
Smokers' Outlet,813 W Newton St,,Versailles,MO,65084,US,http://www.smokers4u.com/,5733781960,versailles@smokers4u.com,2020-03-15,,Yes,T,CBD,,,
Smokie Pipes LLC,404 S State Hwy 5,,Versailles,MO,65084,US,,5735698488,smokiepipesllc@gmail.com,2018-11-18,,Yes,H,CBD,Yes,,
Blue Moon Smoke Shop,714 S Maguire St,,Warrensburg,MO,64093,US,,6603620224,,2019-07-26,,Yes,S,CBD,,,
Cigawatt,125 W Pine St,,Warrensburg,MO,64093,US,http://www.cigawatt.com/warrensburg,8164293244,cigawatttheburg@yahoo.com,2018-10-17,2019-02-17,,V,,,,
Vapor Maven Warrensburg,503 N Maguire St Ste A,,Warrensburg,MO,64093,US,https://www.vapormaven.com/,6603620933,vapormaven@gmail.com,2018-08-06,2020-01-08,Yes,V,CBD,,,
Vapor Up,418 N Maguire St,,Warrensburg,MO,64093,US,http://www.vapor-up.com/,8165856800,,2019-10-03,,,V,,,,
Discount Smoke Shop,523 Warren County Ctr,,Warrenton,MO,63383,US,http://www.discountsmokeshop.com/,6364561017,,2019-09-28,,,S,,,,
Koko Vapors & More,7 Town & Country Marketplace,,Warrenton,MO,63383,US,http://www.kokovapors.com/,6364565656,kokovapors@yahoo.com,2019-12-26,,Yes,V,CBD,Yes,,
Lil Shop of Vapors,1000 Warrenton Shoppes Ste 30B,,Warrenton,MO,63383,US,,6367344335,,2019-08-19,,Yes,V,CBD,,,
Vapor World Warrenton,519 Warren County Shopping Center,,Warrenton,MO,63383,US,https://www.vaporworldstore.com/,6363771169,info@vaporworldstore.com,2018-08-31,2019-10-02,Yes,V,CBD,,,
Sights & Sounds,836 Main St,,Warsaw,MO,65355,US,,6602368352,d_crocie@aol.com,2021-01-10,,Yes,H,CBD,,,
Vapor Maven,1850 Commercial St,,Warsaw,MO,65355,US,https://vapormaven.com,6604281107,,2020-12-13,,Yes,V,CBD,Yes,,
"Majestic Vapor, LLC",411 W 5th St,,Washington,MO,63090,US,,6369009401,majesticvapor@hotmail.com,2019-03-21,,,V,,,,
Ole Town Smoke Shop,542 E 5th St,,Washington,MO,63090,US,,6369009199,otss542@yahoo.com,2018-11-08,,Yes,S,CBD,Yes,,
Peace Of Mind,11 W Main St,,Washington,MO,63090,US,https://www.mypeaceofmindonline.com/,6364321084,jacqueiharris22@gmail.com,2021-09-03,2021-09-03,Yes,H,CBD,,,
STL Vapor,1623 Aroy Dr,,Washington,MO,63090,US,http://stlvapor.com/,6362942755,stlvaporof@gmail.com,2018-09-11,,,V,,,,
Xpress Liquor & Smokes,201 E Fifth St,,Washington,MO,63090,US,http://www.xpressliquorandsmokes.com/,6364321866,xpress.jana@gmail.com,2019-09-03,,,S,,,,
AliceCBD,530 N East Rd Ste A,,Webb City,MO,64870,US,https://www.alicecbd.com/,4178251180,alicecbdboutique@gmail.com,2019-11-12,,Yes,C,CBD,,,
Discount Smokes & Liquor Inc,306 N Main St,,Webb City,MO,64870,US,,4176737600,,2019-10-28,,,S,,,,
"Kratom Joplin Mo, LLC",1806 N East St,,Webb City,MO,64870,US,https://kratomjoplin.com,4173174249,kratomjoplin@yahoo.com,2021-02-26,,Yes,C,CBD,Yes,,
Discount Smoke Shop,8051 Watson Rd,,Webster Groves,MO,63119,US,http://www.discountsmokeshop.com/,3149189624,,2019-09-29,,,T,,,,
1 Stop Smoke Shop,111 E Pearce Blvd,,Wentzville,MO,63385,US,https://1stopsmokeshop.business.site/,6368561587,one1stopsmokeshop@yahoo.com,2022-01-06,2022-01-06,Yes,S,CBD,Yes,,
1 Stop Smoke Shop,714 MO-47,,Wentzville,MO,63383,US,https://1stopsmokeshop.business.site/,6363771206,warrenton1stop@yahoo.com,2022-01-06,2022-01-06,Yes,S,CBD,Yes,,
CBD Kratom,12682 Veterans Memorial Pkwy,,Wentzville,MO,63385,US,http://cbdkratomshops.com/,6368872270,shopcbdkratom@gmail.com,2019-09-29,2019-09-29,Yes,H,CBD,Yes,,
The Vape Mall,704 W Pearce Blvd,,Wentzville,MO,63385,US,https://thevapemall.com/,6368872326,cs@thevapemall.com,2018-09-25,2018-11-13,,V,,,,
V-Twin Vapors,1126 W Pearce Blvd Ste 108,,Wentzville,MO,63385,US,https://stingrayvaporsstl.business.site/,6368870348,vtwinvapor@gmail.com,2022-02-21,2022-02-21,Yes,V,CBD,,,
Vapor 100 - Wentzville,1201 Wentzville Pkwy #105,,Wentzville,MO,63385,US,http://www.vapor100.com/,6368561588,,2019-09-23,,Yes,V,CBD,,,
Vapor Locker USA,13 E Pearce Blvd,,Wentzville,MO,63385,US,https://www.vaporlockerusa.com/,6368872101,contactus@vaporlockerusa.com,2014-09-13,2019-01-31,Yes,V,CBD,,,
Chuckin' Clouds,1661 Gibson St,,West Plains,MO,65775,US,http://www.chuckinclouds.com/default.asp,4172553468,,2018-10-16,2018-10-27,Yes,V,CBD,,,
Practical Deceptions,10614 US-63,,West Plains,MO,65775,US,,4172571632,,2020-02-04,2020-02-04,Yes,H,CBD,Yes,,
Vapor Maven,1641 Bruce Smith Pkwy,,West Plains,MO,65775,US,https://vapormaven.com,4173728103,,2020-12-13,,Yes,V,CBD,,,
Stateline Tobacco,10000 US-59,,Westboro,MO,64498,US,,6609845250,,2020-04-06,2020-04-06,,T,,,,
Firehouse Vapes LLC,908 E Main St,,Willow Springs,MO,65793,US,https://www.facebook.com/firehouse-vapes-llc-780920992015394/,4172527185,firehousevapes@outlook.com,2018-08-06,2020-01-13,,V,,,,
STL Vapor,14628 Manchester Rd,,Winchester,MO,63011,US,http://stlvapor.com/,6362942755,stlvaporof@gmail.com,2018-09-11,,,V,,,,