Shop Name,Address 1,Address 2,City,State/Province,Zip/Postcode,Country,Website,Phone,Email,Added,Updated,CBD,Biz Type,MJ,Kratom,Buyer name ,Title 
Jan's Smoke Shop II & Gas Mart,383 Bloomingdale Rd,,Akron,NY,14001,US,http://www.janssmokeshopii.com/,7165424006,,2019-12-21,,Yes,T,CBD,,,
Keegans Tobacco Shop,103 Roosevelt Hwy,,Akwesasne,NY,13655,US,,5183584463,noonie@westelcom.com,2019-12-24,,,S,,,,
51 Vape and CBD Colonie,1321 Central Ave,,Albany,NY,12205,US,,5182750334,ny51vape@yahoo.com,2018-06-04,2021-10-25,Yes,V,CBD,,,
Barry Smokes & Things,1234 Central Ave,,Albany,NY,12205,US,http://barry-smokesthings.business.site,5186217957,barrysmokes274@gmail.com,2018-11-04,2018-11-04,Yes,S,CBD,Yes,,
Exscape Smoke Shop,302 Lark St,,Albany,NY,12210,US,http://exscapesmoke.com/,5184631902,,2018-08-06,2019-09-16,Yes,H,CBD,,,
Exscape Smoke Shop & Vapor Lounge,1204 Western Ave,,Albany,NY,12203,US,http://exscapesmoke.com/,5187293595,,2018-08-06,2019-09-16,,H,,,,
Green Papas Premium CBD,1 Crossgates Mall Rd,,Albany,NY,12203,US,https://greenpapas.com/,5187283241,greenpapas@greenpapas.com,2021-01-16,,Yes,C,CBD,,,
House of Glass Albany,845 Madison Ave,,Albany,NY,12208,US,https://houseofglassny.com/,5184340777,houseofglassatmadison@gmail.com,2019-12-09,,Yes,S,CBD,Yes,,
House of Glass Albany,1078 Madison Ave,,Albany,NY,12208,US,,5185990216,houseofglassatmadison@gmail.com,2019-12-09,2019-12-09,Yes,S,CBD,Yes,,
Northern Lights Smoke Shop,30 Fuller Rd,,Albany,NY,12205,US,http://northernlightspipes.com,5184533402,,2019-01-01,,,S,,,,
Smokers Choice,448 Sand Creek Rd,,Albany,NY,12208,US,http://www.smokerschoiceusa.com/,5188989069,,2018-10-28,,Yes,S,CBD,,,
Smokers Choice,485 Delaware Ave,,Albany,NY,12209,US,http://www.smokerschoiceusa.com/,5187292898,,2018-10-28,,Yes,S,CBD,,,
Smokers Choice,38 Fuller Rd,,Albany,NY,12205,US,http://www.smokerschoiceusa.com/,5182750313,info@smokerschoiceusa.com,2018-09-28,2018-10-28,Yes,S,CBD,,,
That Store,247 Lark St,,Albany,NY,12210,US,http://thatstore.us/,5189458428,,2018-09-20,,Yes,S,CBD,,,
"Your CBD Store - Albany, NY",2080 Western Ave,,Albany,NY,12203,US,https://cbdrx4u.com/find-us/new-york/guilderland,5183137019,guilderland361@cbdrx4u.com,2019-09-14,2021-01-03,Yes,C,CBD,,,
"Your CBD Store - Loudonville, NY",475 Albany Shaker Rd,,Albany,NY,12211,US,https://cbdrx4u.com/,5185123033,loudonville446@cbdrx4u.com,2019-09-14,2019-09-14,Yes,C,CBD,,,
Your CBD Store - New Scotland,279 New Scotland Ave,,Albany,NY,12208,US,https://cbdrx4u.com/find-us/new-york/new-scotland,5185990050,newscotland511@cbdrx4u.com,2020-12-07,2021-06-10,Yes,C,CBD,,,
Ron's Smoke Shop,5001 NY-417,,Allegany,NY,14706,US,http://ronssmokeshop.com/,7163722284,ronssmokeshop@gmail.com,2020-02-11,2020-02-11,Yes,T,CBD,,,
Art Of Glass Smoke Shop,3154 Niagara Falls Blvd,,Amherst,NY,14228,US,,7163740541,aogwholesale@outlook.com,2018-11-08,,Yes,H,CBD,Yes,,
Wet Vapes,3341 Sheridan Dr,,Amherst,NY,14226,US,https://www.wetvapes.com/,7162599004,info@wetvapes.com,2018-08-27,2019-05-02,Yes,V,CBD,,,
Green Essentials,3734 NY-30 Unit 3,,Amsterdam,NY,12010,US,https://greenessentialsnaturally.com,5182392020,greenessentialsnaturally@gmail.com,2021-01-16,2021-01-16,Yes,C,CBD,,,
Pro Vapors,4456 NY-30,,Amsterdam,NY,12010,US,,5188837255,,2018-08-06,2019-12-31,,V,,,,
Royal Flush Vapers,266 NY-67,,Amsterdam,NY,12010,US,http://royalflushvapers.com/,5188441646,ddevito@royalflushvapers.com,2021-01-20,,Yes,V,CBD,,,
Smokers Choice,4803 NY-30,,Amsterdam,NY,12010,US,http://www.smokerschoiceusa.com,5188428678,,2018-08-06,2020-03-03,Yes,S,CBD,,,
Village One Stop Smoke Shop,11 Commercial St,,Angola,NY,14006,US,,7165490393,village1stopsmokeshop@aol.com,2018-11-05,,Yes,S,CBD,,,
Astoria Cigar Corner,28-65 Steinway St,,Astoria,NY,11103,US,http://cigar-warehouse-inc-dba-astoria-cigar-corner.business.site/,7189320236,,2018-10-18,2020-06-19,Yes,S,CBD,Yes,,
Best Buzz Hookah,3812 Astoria Blvd S,,Astoria,NY,11103,US,,7187770724,,2021-04-30,,,S,,,,
City Vape,29-20 23rd Ave,,Astoria,NY,11105,US,,7182042959,info@cityvapenyc.com,2014-08-28,2019-03-29,,V,,,,
Cloud Beast Smoke & Vape Shop,2205 35th St,,Astoria,NY,11105,US,,9174594628,,2018-09-14,,Yes,S,CBD,Yes,,
High Rollers Smoke Vape & Convenience,33-22 21st St,,Astoria,NY,11106,US,,3478080885,,2021-11-16,2021-11-16,Yes,S,CBD,,,
Tobacco N Vape,3318 31st Ave,,Astoria,NY,11106,US,,7187771524,tobacconvape31@gmail.com,2019-05-23,2021-10-29,Yes,S,CBD,Yes,,
Vape Kingz,3620 30th Ave,,Astoria,NY,11103,US,,3475070434,,2018-09-09,2021-06-15,Yes,V,CBD,,,
Attica Vapor & CBD,8 Main St,,Attica,NY,14011,US,,5855910232,atticavapor@gmail.com,2014-09-21,2019-03-24,Yes,V,CBD,,,
Evolve CBD,30 E Genesee St,,Auburn,NY,13021,US,https://evolvecbd.com/,3152240907,info@evolvecbd.com,2020-12-06,,Yes,C,CBD,,,
Smokers Choice,360 Grant Ave,,Auburn,NY,13021,US,http://www.smokerschoiceusa.com/,3152376228,info@smokerschoice.com,2020-03-03,,,T,,,,
Vape Kult,10 South St,,Auburn,NY,13021,US,http://www.vapekult.com/,3152509977,,2018-09-30,,,V,,,,
Heirloom Hemp & CBD,25 W Main St,,Bainbridge,NY,13733,US,https://hhcbd.org,6073204026,billy@heirloomhempcbd.com,2021-01-23,,Yes,C,CBD,,,
Baldwin Smoke Shop,1757 Grand Ave,,Baldwin,NY,11510,US,,5162239739,,2019-07-21,,,S,,,,
Daze,574 Sunrise Hwy,,Baldwin,NY,11510,US,https://www.dazeinc.com/,5168683390,dazeinc@gmail.com,2021-11-05,2021-11-05,,H,,,,
Super Kind Imports,8395 Oswego Rd,,Baldwinsville,NY,13027,US,http://www.superkindimports.com/,3156521949,jan@superkindimports.com,2019-01-18,2019-10-22,Yes,S,CBD,,,
Green Witch Vape Ballston Spa,83 Milton Ave,,Ballston Spa,NY,12020,US,,5183094011,greenwitchvape@gmail.com,2020-05-24,,Yes,V,CBD,Yes,,
Pale Horse Vapors,2124 Doubleday Ave Unit 2,,Ballston Spa,NY,12020,US,https://palehorsevapors.com/,5183093380,contact@palehorsevapors.com,2018-10-06,,Yes,V,CBD,,,
BigBoss Vapors,894 Bloomingdale Rd,,Basom,NY,14013,US,,7165426888,,2019-07-25,,,V,,,,
Higher Ground Smoke Shop,7765 Sandhill Rd,,Basom,NY,14013,US,,7165424639,,2021-11-01,2021-11-01,Yes,S,CBD,Yes,,
One Feather Express,672 Bloomingdale Rd,,Basom,NY,14013,US,,7165427122,,2019-08-07,,,T,,,,
Rez Smoke Shop,986 Bloomingdale Rd,,Basom,NY,14013,US,http://www.therezsmokeshop.com/,7165422887,,2020-02-09,2020-02-09,Yes,T,CBD,,,
Sacajawea Smoke Shop,888 Bloomingdale Rd,,Basom,NY,14013,US,,7165426888,,2015-07-05,2019-05-10,,S,,,,
Smoke Rings,449 Shanks Rd,,Basom,NY,14013,US,http://www.smokeringssmokeshop.com/,7165424169,ringssmoke@yahoo.com,2020-02-20,,Yes,S,CBD,,,
Totem Pole Smoke & Gas,1031 Ledge Rd,,Basom,NY,14013,US,,7165421183,,2020-02-16,2020-02-16,Yes,T,CBD,,,
Two Eagles Smoke Shop and Gas Mart,852 Bloomingdale Rd,,Basom,NY,14013,US,http://www.twoeaglessmokeshop.com/,7165426212,,2019-11-18,2019-11-18,,T,,,,
Glass Roots,12 Center St Ste 104,,Batavia,NY,14020,US,,5853457420,glassrootsfamily@gmail.com,2019-01-01,,,H,,,,
Green Astroid's Canna-Bonanza,56 Harvester Ave Ste 1-114,,Batavia,NY,14020,US,https://greenastroid.com,5855369403,greenastroidinfo@gmail.com,2021-12-25,2021-12-25,,H,,,,
The Joshua Tree Gift Shop,8825 Alexander Rd,,Batavia,NY,14020,US,,5859932725,joshtaggart2@gmail.com,2020-07-05,2020-07-05,,H,,,,
Bayside Smoke Shop,41-05 Bell Blvd,,Bayside,NY,11361,US,,7182257356,,2019-07-22,,,S,,Yes,,
Best Kept Secret,216-15 Northern Blvd,,Bayside,NY,11361,US,http://www.bestkeptsecretny.com,7182256009,bks265@aol.com,2018-10-14,,Yes,S,CBD,,,
Discover CBD,45-74 Bell Blvd,,Bayside,NY,11361,US,,3472354100,,2020-12-22,,Yes,C,CBD,,,
Jam Juice Vape Shop,209-15 Northern Blvd,,Bayside,NY,11361,US,,7187496819,jamjuicevape@gmail.com,2018-08-06,2019-12-26,Yes,V,CBD,Yes,,
Smokers Mecca,285 Main St,,Beacon,NY,12508,US,http://smokersmecca.com/,8457651690,info@smokersmecca.com,2018-09-30,,Yes,S,CBD,,,
CBD Live Natural,25 Depot Plz,,Bedford Hills,NY,10507,US,,9142188357,,2021-12-10,2021-12-10,Yes,C,CBD,,,
Big Apple Smoke Shop,1158 Fulton St,,Bedford-Stuyvesant,NY,11216,US,,,,2021-11-05,2022-02-15,Yes,S,CBD,,,
Tobacco Shop & Convenience Store,495 Nostrand Ave,,Bedford-Stuyvesant,NY,11216,US,,3472211339,,2021-11-23,2021-11-23,Yes,S,CBD,,,
Bellmore Cigars and Vapor,2825 Merrick Rd,,Bellmore,NY,11710,US,http://bellmorecigarsandvapor.business.site/,5167858879,,2019-07-22,,Yes,S,CBD,Yes,,
Euphoria Psychedelic Gift Shop,213 Bedford Ave,,Bellmore,NY,11710,US,http://euphoriabellmore.com/,5167814200,info@euphoriabellmore.com,2019-01-01,2022-01-06,Yes,H,CBD,Yes,,
Hemp Smarts,2974 Merrick Rd,,Bellmore,NY,11710,US,,5162628620,info.hempsmartsny@gmail.com,2020-07-05,2021-06-30,Yes,C,CBD,,,
Smoke Shop,1640 Montauk Hwy,,Bellport,NY,11713,US,,,,2020-02-23,,,T,,,,
Kevin's Korner,204 Broadway,,Bethpage,NY,11714,US,https://kevins-corner-e-smoke-vape.business.site/,5169386776,,2019-12-25,,,S,,Yes,,
Vape & Bake,4119 Hempstead Turnpike,,Bethpage,NY,11714,US,,5164954520,jdvape800@gmail.com,2018-09-11,2021-06-30,Yes,V,CBD,,,
Vapor King,279 Front St,,Binghampton,NY,13905,US,http://www.vaporking.com/,6077233913,info@vaporking.com,2014-09-12,2019-05-17,Yes,V,CBD,,,
Hemp Geek,1332 Front St Upper Level,,Binghamton,NY,13901,US,https://www.hempgeek.com/,6072175010,hempgeek@icloud.com,2021-01-25,2021-01-25,Yes,C,CBD,,,
Smokers Choice,254 Main St,,Binghamton,NY,13903,US,http://www.smokerschoiceusa.com/,6072387774,info@smokerschoiceusa.com,2019-01-01,,Yes,S,CBD,Yes,,
Smokers Choice,42 Pennsylvania Ave,,Binghamton,NY,13903,US,http://www.smokerschoiceusa.com/,6077242027,info@smokerschoiceusa.com,2018-09-28,2018-10-28,Yes,S,CBD,,,
Sugar Mountain,42 Court St,,Binghamton,NY,13901,US,http://sugarmountain.biz,6077232420,info@sugarmountain.biz,2018-11-15,2020-01-31,Yes,H,CBD,Yes,,
Darth Vapor,580 NY-303,,Blauvelt,NY,10913,US,http://darthvaporshops.com/,8456806023,darthvaporbv@gmail.com,2017-06-04,2019-03-31,Yes,V,CBD,,,
South Shore Vapor Lounge,51 Montauk Hwy,,Blue Point,NY,11715,US,http://www.southshorevaporlounge.com/,6318683712,southshorevaporlounge@gmail.com,2015-02-14,2019-01-29,Yes,V,CBD,,,
Cloud 9 Smoke Shop,128 Heyward St,,Brentwood,NY,11717,US,,6314565207,,2018-10-20,,Yes,S,CBD,,,
International Hayloft,1016 NY-22,,Brewster,NY,10509,US,,8452782511,mchinchida@yahoo.com,2018-10-22,2018-11-11,Yes,S,CBD,Yes,,
Open Minded Organics,720 Butter Ln,,Bridgehampton,NY,11932,US,https://openmindedorganics.com/,8338333800,dave@openmindedorganics.com,2021-02-15,,Yes,C,CBD,,,
Veterans Hemp Market,111 Bellen Rd,,Broadalbin,NY,12025,US,https://veteranshempmarket.com/,5188728723,info@veteranshempmarket.com,2021-06-29,2021-07-09,Yes,C,CBD,,,
Smokers Choice,1651 Nathaniel Poole Trl,,Brockport,NY,14420,US,http://www.smokerschoiceusa.com/,5854313018,info@smokerschoiceusa.com,2019-01-01,2019-01-01,Yes,S,CBD,Yes,,
The Kratom Shop,52 Main St,,Brockport,NY,14420,US,https://www.rochesterkratom.com/,5853913461,rochesterkratom@gmail.com,2020-11-16,2020-11-16,Yes,O,CBD,Yes,,
Beard Plus Vape,2451 Westchester Ave,,Bronx,NY,10461,US,,7186846116,,2018-06-13,2019-03-24,,V,,,,
Best Smoke Shop,585 E 168th St,,Bronx,NY,10456,US,,7182933572,,2019-07-24,2020-07-08,Yes,S,CBD,Yes,,
Beyond Vape,839 Hutchinson River Pkwy,,Bronx,NY,10465,US,http://www.beyondvape.com/,7186187911,,2018-02-06,2019-01-24,Yes,V,CBD,,,
Guardian Vape Shop,3615 E Tremont Ave,,Bronx,NY,10465,US,https://guardianvapeshop.business.site/,9176349910,,2021-12-08,2021-12-08,,V,,,,
Guardian Vape Shop 2,2500 Arthur Ave,,Bronx,NY,10458,US,,3473290641,,2018-08-06,2019-12-24,Yes,V,CBD,,,
Kingsbridge Smoke Shop & Candy,5619 Broadway,,Bronx,NY,10463,US,,9293747290,,2019-12-26,,,T,,Yes,,
Rams Village Inc,580 E Fordham Rd,,Bronx,NY,10458,US,https://www.facebook.com/ramsvillagefordham/,7187084930,,2019-05-08,,Yes,S,CBD,Yes,,
Tremont Hookah & Smokes,2710 E Tremont Ave,,Bronx,NY,10461,US,,7188926800,unclevape1@gmail.com,2020-07-20,,Yes,S,CBD,Yes,,
18th Ave Smoke Shop Discount,8120 18th Ave,,Brooklyn,NY,11214,US,,7186212023,,2019-07-12,,,S,,,,
7 Leaf Clover Hemp - Brooklyn,100 N 3rd St,,Brooklyn,NY,11249,US,https://www.7leafcloverhemp.com/,3472940820,info@7leafcloverhemp.com,2020-11-15,,Yes,C,CBD,,,
718 Vape And Smoke,718 Manhattan Ave Store A,,Brooklyn,NY,11222,US,https://www.brooklynvapestore.com/,6467831397,,2019-01-31,,Yes,S,CBD,,,
A-List CBD,958 Halsey St,,Brooklyn,NY,11233,US,https://alistcbd.com,3472953766,info@alistcbd.com,2020-11-15,,Yes,C,CBD,,,
Amy Smoke Shop,1563 Flatbush Ave,,Brooklyn,NY,11210,US,,,,2019-07-18,,,S,,,,
Anaconda Vape,490 Coney Island Ave,,Brooklyn,NY,11218,US,,3472402950,anacondavape@gmail.com,2018-02-08,2019-01-24,Yes,V,CBD,,,
Atlantic Ave Smoke Shop,176 Atlantic Ave,,Brooklyn,NY,11201,US,,3477659081,176smokeshop@gmail.com,2018-10-14,,,S,,,,
Bayridge Smoke Shop,8505 4th Ave,,Brooklyn,NY,11209,US,,7184391590,,2019-05-13,2019-05-13,Yes,S,CBD,Yes,,
Bedford Exotics,195 Bedford Ave,,Brooklyn,NY,11211,US,,7183025005,,2018-10-14,2021-11-03,Yes,S,CBD,Yes,,
Bushwick Smoke Shop,388 Troutman St,,Brooklyn,NY,11237,US,https://bushwick-smoke-shop.business.site/,7189750325,,2020-06-22,,Yes,S,CBD,Yes,,
Cigar Emporium,1953 86th St,,Brooklyn,NY,11214,US,,7187149289,,2021-11-05,2021-11-05,Yes,S,CBD,,,
Cigar N Vape,452 5th Ave,,Brooklyn,NY,11215,US,,7187881812,cigarsvapenyc@gmail.com,2018-10-18,2020-07-30,,S,,,,
DB Smoke Shop,65 5th Ave,,Brooklyn,NY,11217,US,,7188579559,,2018-10-21,2018-10-21,,S,,,,
Drop Smoke,1550 Coney Island Ave,,Brooklyn,NY,11230,US,http://dropsmoke.com,5132737671,,2018-08-06,2021-11-05,,V,,,,
Empire Tobacco Shop,521 Myrtle Ave,,Brooklyn,NY,11205,US,,7182303130,,2022-05-11,2022-05-11,Yes,S,CBD,Yes,,
Finest Deli & Smoke Shop,719 Fulton St,,Brooklyn,NY,11217,US,,7182432905,,2020-02-25,,,S,,,,
Freaky Dog,4310 3rd Ave,Front Door,Brooklyn,NY,11232,US,https://www.freaky.dog,3472005765,vlad@traderdepot.us,2021-05-01,2021-05-01,Yes,S,CBD,,,
Fulton Smoke Shop Brooklyn,727 Fulton St,,Brooklyn,NY,11217,US,,7188559500,bedfordsmokeshops@gmail.com,2019-04-12,,Yes,S,CBD,Yes,,
General Vape Brooklyn,8314 5th Ave,,Brooklyn,NY,11209,US,,7188338273,generalvapenyc@gmail.com,2018-08-06,2019-12-22,Yes,V,CBD,,,
Gimmy Deli & Smoke Shop,299 Winthrop St,,Brooklyn,NY,11225,US,,7183631598,,2021-11-10,2021-11-10,,S,,,,
Grace H + W,8610 Bay Pkwy,,Brooklyn,NY,11229,US,https://hello@gracehw.com,8334722349,hello@gracehw.com,2021-08-24,,Yes,C,CBD,,,
Graham Vape & Cigar,354 Graham Ave,,Brooklyn,NY,11211,US,,7189633375,bedfordsmokeshops@gmail.com,2015-06-11,2019-04-12,Yes,S,CBD,Yes,,
Grand Smoke Shop Brooklyn,176 Grand St,,Brooklyn,NY,11211,US,,7183885610,bedfordsmokeshops@gmail.com,2018-08-06,2019-04-12,Yes,S,CBD,Yes,,
Hemp Lab NYC,637 Wilson Ave BRM 2,,Brooklyn,NY,11207,US,https://www.hemplabnyc.com/,6466418952,info@hemplabnyc.com,2021-01-26,,Yes,C,CBD,,,
Hidden Hemp,2196 Flatbush Ave,,Brooklyn,NY,11234,US,https://www.hempednyc.com/,6316407679,,2021-01-27,,Yes,C,CBD,,,
Hidden Hemp NYC,411 7th Ave,,Brooklyn,NY,11215,US,,3474576694,,2021-01-25,,Yes,C,CBD,,,
High Rollers Smoke,370 Ave P,,Brooklyn,NY,11204,US,,7189987445,,2021-11-16,2021-11-16,Yes,S,CBD,,,
Highway Smoking,2096 Coney Island Ave,,Brooklyn,NY,11223,US,,7186271387,highwaysmoking@yahoo.com,2021-11-16,2021-11-16,Yes,S,CBD,Yes,,
J & J Smoke Shop Corp,3373 Fulton St,,Brooklyn,NY,11208,US,https://jj-smoke-shop-corp.business.site/,9294612729,,2021-11-22,2021-11-22,Yes,S,CBD,,,
Kosher CBD,368 Kingston Ave,,Brooklyn,NY,11213,US,https://kosher-cbd.com/,9179661611,koshercbdllc@gmail.com,2021-02-25,,Yes,C,CBD,,,
Life Made A Little Easier,403 Avenue P,,Brooklyn,NY,11223,US,https://lifemade.nyc/,7183757000,lifemadealittleeasier@gmail.com,2019-07-28,2019-07-28,Yes,V,CBD,,,
Life Made A Little Easier,1702 Sheepshead Bay Rd,,Brooklyn,NY,11235,US,https://lifemade.nyc/,7187692000,info@lifemadealittleeasier.com,2018-10-06,,Yes,S,CBD,,,
Master Piece Vape & Smoke Shop,130 India St,,Brooklyn,NY,11222,US,,7183896027,masterpiecesmokeshop@gmail.com,2018-11-26,,Yes,S,CBD,,,
Metro Beer & Smoke,298 Metropolitan Ave,,Brooklyn,NY,11211,US,,8652557967,,2021-11-11,2021-11-11,,S,,,,
Muz Muz CBD Lounge,296 Graham Ave,,Brooklyn,NY,11211,US,https://www.yomuzmuz.com/,9173411843,info@yomuzmuz.com,2021-03-09,,Yes,C,CBD,,,
New Star Tobacco,4524 5th Ave,,Brooklyn,NY,11220,US,,7184374932,,2022-01-27,2022-01-27,Yes,S,CBD,Yes,,
Nextgen Vapeshop,2417 Ave U,,Brooklyn,NY,11229,US,http://www.ngvapeshop.com/,3477024457,info@ngvapeshop.com,2018-06-04,2019-06-19,Yes,V,CBD,,,
Noise NYC,435 5th Ave,,Brooklyn,NY,11215,US,,9175156663,,2021-10-29,2021-10-29,Yes,S,CBD,,,
NY City Smoke Shop,127 Graham Ave,,Brooklyn,NY,11206,US,,7183871050,nycitysmoke@gmail.com,2018-10-13,,Yes,S,CBD,Yes,,
Smoke & Clouds,63 Pearl St,,Brooklyn,NY,11201,US,,13476893313,smokencloudny@gmail.com,2018-09-15,2018-12-16,Yes,S,CBD,Yes,,
Smoke Shop & Premium Cigars,9257 4th Ave,,Brooklyn,NY,11209,US,https://smoke-shop-premium-cigars.business.site/,7187591701,,2021-11-05,2021-11-05,,S,,,,
Smoke Shop N Cigars Vapeology101,618 Metropolitan Ave,,Brooklyn,NY,11211,US,https://vapeology-101-vape-shop.business.site/,7183880222,,2021-11-23,2021-11-23,Yes,S,CBD,Yes,,
Smokestax,6607 18th Ave,,Brooklyn,NY,11204,US,,7182590736,,2021-11-23,2021-11-23,Yes,S,CBD,Yes,,
Sunflower Glass Company,377 Metropolitan Ave,,Brooklyn,NY,11211,US,http://sunflowerpipes.com/,7184518032,sunflowersupport@gmail.com,2018-09-28,2021-11-24,Yes,H,CBD,,,
Sunflower Glass Company,12 Wilson Ave,,Brooklyn,NY,11237,US,https://sunflowerpipes.com/,3474067090,sunflowerglasscompany@gmail.com,2018-09-28,2018-11-13,Yes,H,CBD,,,
Sunrise Optimo Smoke Shop,304 Court St,,Brooklyn,NY,11231,US,,7185961222,,2018-11-15,,Yes,S,CBD,Yes,,
The Locals Laboratory,6 Cornelia St,,Brooklyn,NY,11221,US,https://www.thelocalslaboratory.com/,9292667832,info@thelocalslaboratory.com,2020-12-15,,Yes,C,CBD,,,
Vape and Cloud,896 Quincy St,,Brooklyn,NY,11221,US,,7189191060,,2021-11-23,2021-11-23,,V,,,,
Vape N Cloud Smoke Shop,573 Nostrand Ave,,Brooklyn,NY,11216,US,,7187737240,,2018-09-09,2020-04-07,,S,,,,
Vape Rite Lounge,7322 3rd Ave,,Brooklyn,NY,11209,US,,7188333600,info@vaperitelounge.com,2018-09-11,,,V,,,,
VapeNY,545 92nd St,,Brooklyn,NY,11209,US,https://store.vapeny.com/,5163990606,vapeny@gmail.com,2018-09-11,,,V,,,,
Vaping Culture,2749 Coney Island Ave,,Brooklyn,NY,11235,US,http://vapingcultureny.com/,7183320487,,2019-06-01,,,V,,,,
Vapor & Smoke Shop,325 Graham Ave #A,,Brooklyn,NY,11211,US,,7183878273,newyorksmokeshop@gmail.com,2018-08-06,2020-04-18,Yes,V,CBD,Yes,,
Vaporizers & Tobacco Smoke Shop,390 Metropolitan Ave #A,,Brooklyn,NY,11211,US,http://www.brooklynsmokeshops.com,7187828273,bedfordsmokeshops@gmail.com,2018-08-27,2019-04-11,Yes,V,CBD,Yes,,
Wiz Khalifa Smoke Shop,925 Livonia Ave,,Brooklyn,NY,11207,US,,3479849721,,2019-09-10,,,S,,,,
Yogi Smoke Shop,8604 4th Ave,,Brooklyn,NY,11209,US,,7186806443,,2019-08-28,,,S,,,,
Your CBD Store,195 5th Ave,,Brooklyn,NY,11217,US,https://www.yourcbdstorebk.com/,9292950031,brooklyn@cbdrx4u.com,2020-12-07,,Yes,C,CBD,,,
Zaza Exotic,147 N 6th St,,Brooklyn,NY,11249,US,,3477536658,,2021-11-29,2021-11-29,Yes,S,CBD,,,
Bison Botanics,1100 Military Rd,,Buffalo,NY,14217,US,https://bisoncbd.com/,7162599001,info@bisoncbd.com,2020-11-19,2020-11-19,Yes,C,CBD,,,
California Dreamin' Smoke Shop,7806 Transit Rd,,Buffalo,NY,14221,US,https://www.headyliving.com/,7162768714,queencityamusements@gmail.com,2018-10-30,2020-06-18,Yes,S,CBD,Yes,,
Centuries Smoke & Novelty Shop,10 Center Rd,,Buffalo,NY,14224,US,https://westsenecawaterpipes.com/,7162220433,wnyflavor@gmail.com,2021-11-17,2021-11-17,Yes,S,CBD,Yes,,
Chain Vapors of Buffalo,2278 Seneca St,,Buffalo,NY,14210,US,https://chainvaporsseneca.com/,7163740908,chainvaporsseneca@gmail.com,2014-09-24,2021-11-03,Yes,V,CBD,,,
Clean Green Mart,1368 Hertel Ave,,Buffalo,NY,14216,US,https://cleangreenmartbuffalo.com/,7164710159,favatamark@yahoo.com,2020-02-09,2020-02-09,Yes,C,CBD,,,
Cloud 9 Smoke & Vapors,476 Elmwood Ave,,Buffalo,NY,14222,US,https://cloud9smokesandvapors.com/,7168811100,,2018-08-06,2019-09-08,Yes,S,CBD,Yes,,
Decades Psychedelic Daze,2895 Seneca St,,Buffalo,NY,14224,US,http://decadespsychedelicdaze.com/,7166770311,decadespsychedelicdaze@yahoo.com,2018-08-06,2020-12-20,Yes,H,CBD,Yes,,
Galaxy Glass,3047 Main St,,Buffalo,NY,14214,US,https://buffalogalaxy.glass/,7167683687,tyler@cheddar.consulting,2021-07-31,,Yes,H,CBD,,,
Golden Pipe Smoke Shop,2540 Hamburg Turnpike #3,,Buffalo,NY,14219,US,http://www.thegoldenpipe.com/,7168247473,goldenpipess@aol.com,2018-08-08,2020-01-25,Yes,S,CBD,,,
HeadSpace Glass,67 Elmwood Ave,,Buffalo,NY,14201,US,https://headspaceglass.com/,7168448907,headspaceglass@gmail.com,2018-12-25,2018-12-25,Yes,H,CBD,Yes,,
HeadSpace Glass & Gifts,920 Niagara Falls Blvd,,Buffalo,NY,14223,US,https://headspaceglass.com/,7168370201,headspaceglass@gmail.com,2018-08-08,2020-01-31,Yes,H,CBD,,,
Local. Smoke Shop,42 Allen St,,Buffalo,NY,14202,US,,7168810537,lcalsmokeshop@aol.com,2018-11-04,,Yes,S,CBD,,,
Pavilion International,4225 Transit Rd,,Buffalo,NY,14221,US,,7166312514,,2018-10-27,2018-10-27,,S,,,,
Prism Smoke Shop,1079 Union Rd,,Buffalo,NY,14224,US,https://prismsmokeshop.com,7166718006,prismsmokeshop@gmail.com,2019-12-12,,Yes,S,CBD,Yes,,
Shake N Daze,1929 S Park Ave,,Buffalo,NY,14220,US,http://www.shakendazesmokeshop.com/,7162578138,shakendaze@gmail.com,2018-12-03,2019-01-23,Yes,H,CBD,Yes,,
Tasty Clouds Vape & Smoke Shop,3173 Main St,,Buffalo,NY,14214,US,https://tasty-clouds.business.site/,7166023387,,2021-11-03,2021-11-03,Yes,S,CBD,Yes,,
Terrapin Station,1172 Hertel Ave,,Buffalo,NY,14216,US,http://terrapinstationbuffalo.com/,7168746677,info@terrapinstationbuffalo.com,2018-11-13,2018-11-13,Yes,H,CBD,,,
The Kratom Shop,1007 Elmwood Ave,,Buffalo,NY,14222,US,https://www.rochesterkratom.com/,7169393331,thekratomshops@gmail.com,2020-11-16,2020-11-16,Yes,O,CBD,Yes,,
Vape Linq,2890 Elmwood Ave,,Buffalo,NY,14217,US,,7164680899,sales@vapelinq.com,2019-05-31,,,V,,,,
Vape Lyfe,1183 Hertel Ave,,Buffalo,NY,14216,US,https://vape-lyfe.business.site/,7167682120,,2021-11-01,2021-11-01,Yes,V,CBD,Yes,,
Vape716,3500 Main St Ste 24A,,Buffalo,NY,14226,US,,7162574396,,2021-11-01,2021-11-01,,V,,,,
Virgil Avenue Tobacconist,6 Virgil Ave,,Buffalo,NY,14216,US,https://virgilave.com,7168736461,,2019-02-01,,,T,,,,
"Your CBD Store - Hamburg, NY",4154 McKinley Pkwy Ste 800,,Buffalo,NY,14219,US,https://cbdrx4u.com/,7166491940,hamburg310@cbdrx4u.com,2019-09-14,2019-09-14,Yes,C,CBD,,,
Clouds & Coffee,772 Saratoga Rd,,Burnt Hills,NY,12027,US,http://vapecloudscoffee.com,5185002516,support@vapecloudscoffee.com,2018-11-11,2019-12-02,Yes,V,CBD,,,
Clouds Over Evans Mills,26304 US-11,,Calcium,NY,13637,US,http://www.cloudserum.com,3154107188,support@cloudserum.com,2018-10-20,2018-10-20,,V,,,,
Premium E-Cigs & Vapor Shop,3718 Milton Ave,,Camillus,NY,13219,US,,3153960049,support@premiumecigsandvapor.com,2018-09-28,,,V,,,,
"Your CBD Store - Camillus, NY",3546 W Genesee St,,Camillus,NY,13219,US,https://cbdrx4u.com/,3152145128,camillus440@cbdrx4u.com,2019-09-14,2019-09-14,Yes,C,CBD,,,
Smokers Choice,63 Church St,,Canajoharie,NY,13317,US,http://www.smokerschoiceusa.com/,5186730265,,2018-10-28,2018-10-28,Yes,S,CBD,,,
Jaydega7.0,236 S Main St,,Canandaigua,NY,14424,US,https://jaydega.com/,5853621082,jaydega7.0@gmail.com,2021-02-16,,Yes,C,CBD,,,
Smoker's Choice,63 Eastern Blvd,,Canandaigua,NY,14424,US,http://www.smokerschoiceusa.com/,5859053028,info@smokerschoiceusa.com,2018-09-28,,Yes,T,CBD,,,
Vaping Bad,185 S Main St,,Canandaigua,NY,14424,US,https://vapingbadny.com/,5859053614,,2020-12-13,,Yes,V,CBD,,,
Vapor Rising Shoppe,201 S Main St,,Canandaigua,NY,14424,US,,5859053033,vapor@needvapor.com,2018-09-07,2020-03-10,Yes,V,CBD,,,
Giggles In Carmel,1739 US-6,,Carmel,NY,10512,US,http://giggles.com,8452253375,info@giggles.com,2018-12-21,,,S,,,,
Tobacco Shop,1876 Old Route 6,,Carmel,NY,10512,US,,8452007480,,2022-01-24,2022-01-24,Yes,S,CBD,,,
Happy Habits Vape & Smoke Shop - Carmel,3 Seminary Hill Rd,,Carmel Hamlet,NY,10512,US,http://happyhabits.com/,8452284224,info@happyhabits.com,2018-08-06,2019-06-01,Yes,S,CBD,,,
Smokers Choice,18 Boulevard Ave,,Catskill,NY,12414,US,http://www.smokerschoiceusa.com/,5189435731,info@smokerschoiceusa.com,2019-01-01,,Yes,S,CBD,Yes,,
Hemp Supply Plus,127 Spruce St Ste A,,Cedarhurst,NY,11516,US,https://www.hempsupplyplus.com/,7184501983,sam@hempsupplyplus.com,2020-07-05,,Yes,C,CBD,,,
All Day Vapes,2545 Middle Country Rd,,Centereach,NY,11720,US,http://www.alldayvapesltd.com,6316763002,jdvape800@gmail.com,2018-06-09,2019-06-21,Yes,V,CBD,,,
Barcode Smoke Shop And Hookah,115 Mark Tree Rd,,Centereach,NY,11720,US,,6316765880,mostsmoke115@gmail.com,2019-07-22,,Yes,S,CBD,Yes,,
CBD BOSS of Centereach,2297 Middle Country Rd,,Centereach,NY,11720,US,https://cbdboss.org/,6316156630,joseph.mileti@cbdboss.org,2021-12-10,2021-12-10,Yes,C,CBD,,,
Hemp Clouds,1515 Middle Country Rd,,Centereach,NY,11720,US,,6318803361,hempcloudscbd@gmail.com,2019-10-23,,Yes,C,CBD,,,
Utopia,2343 Middle Country Rd,,Centereach,NY,11720,US,,6314675463,,2018-12-25,,Yes,H,CBD,,,
Vape Escape,108 W Suffolk Ave,,Central Islip,NY,11722,US,,6313921799,,2018-09-11,,Yes,V,CBD,Yes,,
Smokers Choice,15 Dardess Dr,,Chatham,NY,12037,US,http://www.smokerschoiceusa.com/,5183927665,info@smokerschoiceusa.com,2018-09-28,2018-10-28,Yes,S,CBD,,,
Curious Needs' Golden Pipe & Airsoft,3770 Harlem Rd,,Cheektowaga,NY,14215,US,,7168337473,grgives@yahoo.com,2019-11-14,2019-11-14,Yes,S,CBD,,,
Elevated Smoke Shop,7 Kelly Dr,,Cheektowaga,NY,14227,US,https://www.elevatedbuffalo.com,7163226499,elevatedbuffalo@gmail.com,2022-02-01,2022-02-01,Yes,H,CBD,,,
Oasis Smoke Shop,4212 Union Rd,,Cheektowaga,NY,14225,US,,7164283567,oasissmoke@gmail.com,2018-10-06,2019-06-30,Yes,S,CBD,Yes,,
Premier Vape,4192 Union Rd,,Cheektowaga,NY,14225,US,,7168109599,premiervape716@gmail.com,2021-06-17,2021-06-17,Yes,V,CBD,,,
Puffcity Smoke & Vape Shop - Cheektowaga,3735 Union Rd,,Cheektowaga,NY,14225,US,,7163911007,puffcity716@gmail.com,2022-03-14,2022-03-14,Yes,S,CBD,,,
Smoke World,1050 Harlem Rd,,Cheektowaga,NY,14227,US,https://smokeworld716.com/,7169315545,smokeworld716@yahoo.com,2019-07-29,,Yes,S,CBD,Yes,,
Wet Vapes,2190 Walden Ave,,Cheektowaga,NY,14225,US,https://www.wetvapes.com,7166816400,info@wetvapes.com,2018-08-27,2020-02-27,Yes,V,CBD,,,
Tobacco House,69 Brookside Ave #212,,Chester,NY,10918,US,,8452027080,,2021-07-07,,Yes,S,CBD,,,
All Mixed Up,8140 Brewerton Rd,,Cicero,NY,13039,US,https://www.allmixedupcicerony.com/,3156984330,info@allmixedupcicero.com,2018-10-25,,Yes,H,CBD,,,
Clouds Over Cicero,8120 Brewerton Rd,,Cicero,NY,13039,US,,3154107188,ultravapenecig@gmail.com,2020-01-11,2020-01-11,Yes,V,CBD,,,
Premium E-Cigs & Vapor Shop,6195 NY-31 Unit 3,,Cicero,NY,13039,US,,3156997599,support@premiumecigsandvapor.com,2018-09-28,,,V,,,,
Unique eCigs,8355 Brewerton Rd,,Cicero,NY,13039,US,https://www.uniquecigs.com/,3156984400,david@uniquecigs.com,2018-09-20,,Yes,V,CBD,,,
Good Day - Sunshine,10255 Main St Ste 6,,Clarence,NY,14031,US,http://www.goodday-sunshine.com,7162893717,gooddaysunshine716@yahoo.com,2019-01-17,,Yes,H,CBD,,,
The Kokoro Way,10255 Main St #2,,Clarence,NY,14031,US,http://thekokoroway.com,7169304073,,2018-11-02,,Yes,H,CBD,,,
51 Vape,805 NY-146,,Clifton Park,NY,12065,US,,5186306801,ny51vape@yahoo.com,2018-06-04,2018-10-27,Yes,V,CBD,,,
CA Smoke Shop,1602 US-9 Ste 3,,Clifton Park,NY,12065,US,https://ca-smoke-shop.business.site/,5183830313,,2019-09-29,,,S,,,,
One Dream Sunoco,601 Plank Rd,,Clifton Park,NY,12065,US,https://onedreamsunoco.com/,5182865087,onedreamsunoco@gmail.com,2018-10-24,,Yes,V,CBD,,,
Smoke Signals,1502 US-9,,Clifton Park,NY,12065,US,http://smokesignals518.com/,5183834200,fouseman@icloud.com,2021-01-06,,Yes,S,CBD,Yes,,
Smokers Paradise,1758 US-9,,Clifton Park,NY,12065,US,,5189524543,,2019-06-24,,,S,,Yes,,
Tobacco Roll,1570 US-9 #3,,Clifton Park,NY,12065,US,,5183481017,,2020-03-14,,,S,,,,
Your CBD Store,22 Clifton Country Rd Ste 140,,Clifton Park,NY,12065,US,https://cbdrx4u.com,5189820015,cliftonpark644@cbdrx4u.com,2020-12-07,,Yes,C,CBD,,,
Vape Kult,41 Columbia St,,Clyde,NY,14433,US,http://www.vapekult.com/,3155151541,shop@vapekult.com,2018-09-09,2020-04-07,,V,,,,
Smokers Choice,703 E Main St Ste 2,,Cobleskill,NY,12043,US,http://www.smokerschoiceusa.com/,5182342897,info@smokerschoiceusa.com,2018-09-28,2018-10-28,Yes,S,CBD,,,
Spartan Vapers,2021 College Point Blvd,,College Point,NY,11356,US,https://www.spartanvapers.com/,6465806479,vape@spartanvapers.com,2018-09-28,2021-06-15,Yes,V,CBD,,,
Smoke Shop,6318 Jericho Turnpike,,Commack,NY,11725,US,,6314863044,,2020-02-25,,Yes,S,CBD,Yes,,
OK Botanicals,80 Montauk Hwy Ste G,,Copiague,NY,11726,US,http://www.ok-botanicals.net,5163997013,okbotanicals@gmail.com,2020-03-24,2020-03-24,Yes,C,CBD,Yes,,
Lucky 7 Convenience 1,3663 NY-112 Ste A,,Coram,NY,11727,US,,6314377777,,2021-12-20,2021-12-20,,S,,,,
Sector 4 Vapes,108 Bridge St,,Corning,NY,14830,US,,6076846044,,2018-09-28,,,V,,,,
The Vape Flavourium,18 W Market St,,Corning,NY,14830,US,https://www.theflavourium.com/,6073467276,theflavourium@gmail.com,2018-09-20,2020-06-20,Yes,V,CBD,,,
"Your CBD Store - Corning, NY",39 E Pulteney St,,Corning,NY,14830,US,https://cbdrx4u.com/,6073775038,corningny@cbdrx4u.com,2019-09-14,2019-09-14,Yes,C,CBD,,,
New York Vape Collection,2330 NY-32,,Cornwall,NY,12518,US,,8452394947,,2021-02-26,,Yes,V,CBD,Yes,,
El Dorado,10228 43rd Ave,,Corona,NY,11368,US,,7185051669,,2018-08-08,2020-01-27,Yes,H,CBD,,,
Smokers Choice,3944 Route 281 Unit 11,,Cortland,NY,13045,US,http://www.smokerschoiceusa.com/,6077562646,info@smokerschoiceusa.com,2018-09-28,2019-08-18,Yes,S,CBD,,,
Underground Leather & Cycle,11 Clinton Ave,,Cortland,NY,13045,US,,6077564205,,2019-10-24,,Yes,H,CBD,,,
Vape Kult,130 Main St,,Cortland,NY,13045,US,http://www.vapekult.com/,3152467412,shop@vapekult.com,2018-09-09,2019-08-18,,V,,,,
DT Vapor & Cigar,2081 Main St,,Cortlandt,NY,10567,US,,9149307689,,2018-08-06,2021-06-11,Yes,S,CBD,,,
Vapor Tobacco King,2085 E Main St,,Cortlandt,NY,10567,US,,9144025801,,2019-10-06,,,S,,,,
Smokers Choice,12165 US-9W Unit 5,,Coxsackie,NY,12192,US,http://www.smokerschoiceusa.com/,5187317705,info@smokerschoiceusa.com,2018-09-28,2018-10-28,Yes,S,CBD,,,
4Fathers CBD,117 Franklin St Ste 200,,Dansville,NY,14437,US,https://www.4fatherscbd.com/,5853352223,innovation@4fatherscbd.com,2020-11-15,,Yes,C,CBD,,,
Smoke Shop,15 Bay Shore Rd,,Deer Park,NY,11729,US,,6319407272,,2018-09-28,2020-02-28,,S,,Yes,,
Surreal Vapors & e-liquids,940 Grand Blvd,,Deer Park,NY,11729,US,http://www.surrealvapors.us/,6312430511,surrealvapors@gmail.com,2019-05-19,2019-05-19,Yes,V,CBD,,,
Vapor Depot,1878 Deer Park Ave,,Deer Park,NY,11729,US,,6313924188,,2019-06-01,,Yes,V,CBD,,,
Smokers Choice,3 Main St Ste 40,,Delhi,NY,13753,US,http://www.smokerschoiceusa.com/,6074644098,info@smokerschoiceusa.com,2018-09-28,2018-10-28,Yes,S,CBD,,,
Absolute Vapor,4729 Transit Rd Ste 8,,Depew,NY,14043,US,http://absolutevaporwny.com/,7162068997,info@absolutevaporwny.com,2014-09-14,2019-02-06,,V,,,,
Cloud Chasers,4776 Broadway,,Depew,NY,14043,US,,7163740588,,2018-08-08,2020-01-27,,V,,,,
Decades Too,6053 Transit Rd,,Depew,NY,14043,US,http://decadespsychedelicdaze.com/,7166814420,decadespsychedelicdaze@yahoo.com,2018-08-06,2019-09-08,Yes,H,CBD,Yes,,
Perfection Vapes,5860 Transit Rd,,Depew,NY,14043,US,http://www.perfectionvapes.com/,7169017641,support@perfectionvapes.com,2014-09-01,2019-01-28,,V,,,,
Shake N Daze,1380 French Rd,,Depew,NY,14043,US,https://www.shakendazesmokeshop.com/,7162578138,dzign12@gmail.com,2021-04-21,2021-05-22,Yes,S,CBD,Yes,,
Soothing Vapors,2102 George Urban Blvd,,Depew,NY,14043,US,,7169847844,soothingvapor@gmail.com,2018-09-28,2021-06-15,,V,,,,
Vapor In Depew,3478 Walden Ave,,Depew,NY,14043,US,http://www.vaporindepew.15fingersllc.com/,7166831892,,2018-09-09,2020-04-07,,V,,,,
Your CBD Store,5319 Transit Rd,,Depew,NY,14043,US,https://cbdrx4u.com,7163933400,depew525@cbdrx4u.com,2020-12-07,,Yes,C,CBD,,,
Bone Creek Farm,231 Shaver Hill Rd,,Deposit,NY,13754,US,https://bonecreekfarm.com/,8458261573,bonecreekfarmllc@gmail.com,2020-11-21,,Yes,C,CBD,,,
Cedar Gifts & More,43 Cedar St,,Dobbs Ferry,NY,10522,US,http://www.cedarsmoke.com,9145748001,cedargift@yahoo.com,2018-10-15,2019-05-10,,S,,,,
Smoke World,663 Main St,,East Aurora,NY,14052,US,,7167149152,smokeworld716@yahoo.com,2019-07-29,,Yes,S,CBD,Yes,,
The Kokoro Way,712 Main St,,East Aurora,NY,14052,US,https://thekokoroway.com/,7169304073,thekokoroway@gmail.com,2020-12-15,,Yes,C,CBD,,,
Your CBD Store,598 Columbia Turnpike,,East Greenbush,NY,12061,US,https://cbdrx4u.com,5186507117,eastgreenbush570@cbdrx4u.com,2020-12-07,,Yes,C,CBD,,,
Quick Stop Smoke Shop,230 E Main St,,East Islip,NY,11730,US,,6316507455,,2019-12-01,,Yes,S,CBD,Yes,,
Crown Smoke and Vape Shop,2685 N Jerusalem Rd,,East Meadow,NY,11554,US,,5163083448,crownsmokeandvape@gmail.com,2018-10-18,2019-04-08,Yes,V,CBD,,,
e-Smoke Shop,2174 Hempstead Turnpike,,East Meadow,NY,11554,US,https://e-smoke-shop-cigar-shop.business.site/,5167949094,esmokeshop2174@gmail.com,2018-08-06,2019-09-16,Yes,S,CBD,Yes,,
Funtazia,2560 Hempstead Turnpike,,East Meadow,NY,11554,US,,5165200090,,2018-11-21,,,H,,Yes,,
Pipes & Stuff,2384 Hempstead Tpke,,East Meadow,NY,11554,US,,5164701994,uzipipes123@gmail.com,2018-11-14,,,S,,,,
Twisted Smoke Shop,347 Merrick Ave,,East Meadow,NY,11554,US,,5164850980,,2019-11-18,,Yes,S,CBD,Yes,,
Vapor Smoke Shop,2059 Hempstead Tpke,,East Meadow,NY,11554,US,,5164275559,,2018-10-28,,,V,,,,
Evolve 2 Smoke Shop,290 Larkfield Rd,,East Northport,NY,11731,US,https://evolve-2-smoke-shop.business.site/,6312392343,,2019-06-28,2019-06-28,Yes,S,CBD,,,
Evolve 4 Smoke Shop,2066 Jericho Turnpike,,East Northport,NY,11731,US,,6314895207,,2019-06-28,2019-06-28,Yes,S,CBD,,,
Legacy Smoke Shop,39 Larkfield Rd,,East Northport,NY,11731,US,,6312396289,,2021-12-16,2021-12-16,Yes,S,CBD,Yes,,
Mr Tobacco Shop II,2031 Jericho Tpke,,East Northport,NY,11731,US,,6314992330,,2018-10-24,,,T,,,,
Smokeez Smoke Shop,324 Larkfield Rd,,East Northport,NY,11731,US,,5165487052,,2021-12-22,2021-12-22,Yes,S,CBD,Yes,,
J Mart & Smoke Shop,580 NY-112,,East Patchogue,NY,11772,US,http://jmartandsmokeshop.com/,6315692613,jmartsmokeshop580@gmail.com,2019-12-18,,,S,,,,
The Cloud Factory Vape Shop,226 W Commercial St,,East Rochester,NY,14445,US,http://tcf226.com/,5855863244,,2018-09-28,,,V,,,,
"Your CBD Store - East Rochester, NY",129 W Commercial St #1,,East Rochester,NY,14445,US,https://cbdrx4u.com/,5854850105,eastrochester322@cbdrx4u.com,2019-09-14,,Yes,C,CBD,,,
Zonen Limited,6697 Old Collamer Rd N,,East Syracuse,NY,13057,US,,3154373000,,2019-01-09,2020-02-07,Yes,H,CBD,,,
Pronto Lotto,4004 74th St,,Elmhurst,NY,11373,US,,7184290929,,2019-06-19,,,S,,,,
Vapor NY,2080 College Ave,,Elmira,NY,14903,US,,6078737216,hmglidden@aol.com,2014-10-10,2018-12-24,Yes,V,CBD,,,
Linden Smoke Shop,23812 Linden Blvd,,Elmont,NY,11003,US,https://linden-smoke-shop.business.site/,5165687549,,2019-06-16,,Yes,S,CBD,Yes,,
Tobacco Junction,201 Hempstead Turnpike,,Elmont,NY,11003,US,https://gnppriyalcorp.wixsite.com/website,5164370468,gnppriyalcorp@gmail.com,2018-09-20,,Yes,T,CBD,Yes,,
Hemp King,2100 E Main St,,Endicott,NY,13760,US,,6079530414,,2021-01-25,,Yes,C,CBD,,,
Rolling Fire Glass Works,300 N Nanticoke Ave,,Endicott,NY,13760,US,,6072396770,rollingfireglassworks@yahoo.com,2018-11-09,,Yes,H,CBD,,,
Vapor King,2801 E Main St #4,,Endicott,NY,13760,US,http://www.vaporking.com/,6072051946,info@vaporking.com,2018-08-06,2020-01-08,Yes,V,CBD,,,
Village Vape Or Smoke (VVS) Fairport,150 N Main St Ste 1,,Fairport,NY,14450,US,http://villagevapeorsmoke.com,5856784188,villagevapeorsmoke@gmail.com,2019-10-10,,Yes,S,CBD,Yes,,
Cosmik Debris,1249 Melville Rd Ste A,,Farmingdale,NY,11735,US,,6317529171,,2018-12-21,,Yes,H,CBD,,,
Puff City,511 E Genesee St,,Fayetteville,NY,13066,US,https://puffcity.com/,3156378700,info@puffcity.com,2021-11-23,2021-11-23,Yes,S,CBD,,,
Giggles Glass and Gifts,10 Stagedoor Rd,,Fishkill,NY,12524,US,http://gigglesglass.com,8456323240,info@gigglesglass.com,2019-01-01,2019-01-01,,H,,,,
Smokes 4 Less,982 Main St,,Fishkill,NY,12524,US,https://www.smokes4less.com/,8458978180,,2018-09-14,,Yes,S,CBD,,,
Tobacco House,738 US-9 Ste C5,,Fishkill,NY,12524,US,,8452027082,,2020-07-06,,Yes,S,CBD,Yes,,
Vape N Smoke,584 US-9 #3,,Fishkill,NY,12524,US,https://www.vapensmokefishkill.com/,8457656081,vapensmoke2@gmail.com,2020-12-14,,Yes,S,CBD,Yes,,
EmpireMods,171-61 46th Ave,,Flushing,NY,11358,US,http://www.empiremods.com/,7188861969,sales@empiremods.com,2018-10-18,2019-02-18,,V,,,,
Smoke Shop Inc,1439 Myrtle Ave,,Flushing,NY,11385,US,,7184567378,,2019-09-15,,,S,,,,
Continental Smoke Shop,107-36 71st Ave,,Forest Hills,NY,11375,US,,7187934331,,2019-05-07,,Yes,S,CBD,,,
Franklin Smoke Shop,774 Hempstead Turnpike,,Franklin Square,NY,11010,US,,5162161222,,2019-05-13,,,S,,,,
Expressions Electronic Cigarettes,32 Park Square,,Franklinville,NY,14737,US,,5852969081,,2018-10-16,2019-02-16,Yes,V,CBD,,,
Yeti Vape,45 E Main St,,Fredonia,NY,14063,US,http://yetivape.com/,8559384827,,2018-08-27,2019-03-29,Yes,V,CBD,,,
Harry's Market,179 Atlantic Ave,,Freeport,NY,11520,US,,5166009116,harrysmarket007@gmail.com,2021-11-16,2021-11-16,Yes,S,CBD,Yes,,
Omni,1 East Sunrise Hwy,,Freeport,NY,11520,US,https://www.omnismoke.com/,5162231949,info@omnismoke.com,2019-05-05,2019-05-05,Yes,S,CBD,Yes,,
Z Vape Station,384 Atlantic Ave,,Freeport,NY,11520,US,,5164420548,,2018-04-06,2020-12-04,Yes,V,CBD,Yes,,
Hi Life Gifts And Smoke Shop,168-06 Union Tpke,,Fresh Meadows,NY,11366,US,,7183800900,,2018-11-08,,Yes,H,CBD,Yes,,
Evolve CBD,123 W Broadway,,Fulton,NY,13069,US,https://evolvecbd.com/,3152460442,info@evolvecbd.com,2020-12-06,,Yes,C,CBD,,,
Unique eCigs,157 N 2nd St,,Fulton,NY,13069,US,https://www.uniquecigs.com/,3158875029,david@uniquecigs.com,2018-09-20,,Yes,V,CBD,,,
Vape Kult,123 W Broadway St,,Fulton,NY,13069,US,http://www.vapekult.com/,3152509977,shop@vapekult.com,2018-09-09,2020-04-07,,V,,,,
Soota 2,34 Nassau Blvd,,Garden City,NY,11530,US,,5164854343,,2018-09-28,2020-02-28,Yes,S,CBD,Yes,,
Smokers Choice,4331 Genesee Valley Plaza,,Geneseo,NY,14454,US,http://www.smokerschoiceusa.com/,5854479162,,2018-10-28,,Yes,S,CBD,,,
Above All,372 Exchange St,,Geneva,NY,14456,US,,3157810122,aboveallsmokeshop@gmail.com,2020-11-16,,Yes,S,CBD,Yes,,
Vaping Bad,48 Castle St,,Geneva,NY,14456,US,https://vapingbadny.com/,3157898273,,2018-09-07,2020-03-10,Yes,S,CBD,,,
Shore Vapes/DBA Thrifty Minky,184 Glen Cove Ave,,Glen Cove,NY,11542,US,,5167239411,,2018-09-28,,,V,,,,
Unique Tobacco & Accessories,12 School St,,Glen Cove,NY,11542,US,http://uniquetobacco.com/,5162009800,uniquetobacco@gmail.com,2018-09-20,,,T,,,,
42 Degrees,23 Park St,,Glens Falls,NY,12801,US,http://42degreesgallery.com,5182230403,42degreesny@gmail.com,2019-01-01,,Yes,H,CBD,,,
Smoke N Save,19 Park St,,Glens Falls,NY,12801,US,,5184803172,,2020-01-03,,,S,,,,
Aficionado's Cigar and Pipe Shop,443 Saratoga Rd,,Glenville,NY,12302,US,,5183842665,,2019-07-16,,,T,,,,
Smoke Signals,19 Glenridge Rd,,Glenville,NY,12302,US,http://smokesignals518.com/,5183573780,fouseman@icloud.com,2021-01-06,2021-01-06,Yes,S,CBD,Yes,,
Kosmic Korner Inc.,2688 NY-17M,,Goshen,NY,10924,US,,8452942688,kosmickornergoshenny@yahoo.com,2019-12-26,2019-12-26,Yes,H,CBD,,,
Iroquois Smoke Shop,14411 NY-438,,Gowanda,NY,14070,US,http://www.rje-international.com/,7165324449,info@rje-international.com,2019-12-17,,,T,,,,
Niagara Mist Vapors,1734 Grand Island Blvd,,Grand Island,NY,14072,US,https://niagaramistvapors.com/,7164785907,info@niagaramistvapors.com,2018-10-06,,,V,,,,
Smoke Factory,136 Northern Blvd,,Great Neck,NY,11021,US,,5163045511,,2018-09-28,,,S,,,,
STOA Wellness,7A Northern Blvd,,Greenvale,NY,11548,US,https://stoawellness.com/,5168010095,info@stoawellness.com,2021-01-01,,Yes,C,CBD,,,
Green Witch Vape,1156 NY-29,,Greenwich,NY,12834,US,,5185314295,greenwitchvape@gmail.com,2020-05-24,2020-05-24,Yes,V,CBD,Yes,,
Windy Hill CBD,106 Main St,,Greenwich,NY,12834,US,https://windyhillcbdoil.com/,5182326832,hollyh338@gmail.com,2021-12-14,2021-12-14,Yes,C,CBD,,,
Decades Hamburg,4514 Camp Rd,,Hamburg,NY,14075,US,https://decadespsychedelicdaze.com/,7162021953,decadespsychedelicdaze@yahoo.com,2020-12-20,2020-12-20,Yes,H,CBD,Yes,,
HeadSpace Glass,4151 McKinley Pkwy,,Hamburg,NY,14075,US,http://www.headspaceglass.com/,7166481111,headspaceglass@gmail.com,2018-12-25,,Yes,H,CBD,Yes,,
Sir Vape a Lot Of WNY,5999 S Park Ave,,Hamburg,NY,14075,US,,7168809619,sirvapealotofwny@gmail.com,2014-10-10,2018-10-13,,V,,,,
Yeti Vape,164 Buffalo St,,Hamburg,NY,14075,US,http://yetivape.com/,8559384827,info@yetivape.com,2018-08-27,2019-03-29,Yes,V,CBD,,,
The Joint Smoke Vape & CBD,1712 Lake Rd N,,Hamlin,NY,14464,US,https://thejoint-vaporizerstore.business.site/,5856364023,,2021-11-03,2021-11-03,Yes,S,CBD,,,
Motor Parkway Smoke Shop,676 Motor Pkwy,,Hauppauge,NY,11788,US,,6312577462,,2021-03-11,,Yes,S,CBD,,,
The Boro Room Smoke Shop,591 Smithtown Bypass Ste A,,Hauppauge,NY,11788,US,,6312575151,,2019-10-25,2019-10-25,Yes,H,CBD,,,
The CBD Room,591 Smithtown Bypass Ste B,,Hauppauge,NY,11788,US,,6316565315,,2020-07-18,,Yes,C,CBD,,,
Hookah Paradise,25 New Main St,,Haverstraw,NY,10927,US,http://thehookahparadise.com/,8455539478,jafra_84_n@yahoo.com,2019-12-06,,Yes,S,CBD,,,
Smokers Choice,206 N Main St,,Herkimer,NY,13350,US,http://www.smokerschoiceusa.com/,3152195600,,2018-10-28,,Yes,S,CBD,,,
Utica Hemp Co.,230 N Main St,,Herkimer,NY,13350,US,https://uticahempco.com,3152724804,uticahempco@gmail.com,2020-12-12,,Yes,C,CBD,,,
Canbiola,960 S Broadway Ste 120,,Hicksville,NY,11801,US,https://canbiola.com/,5165959544,marco@canbiola.com,2020-11-22,,Yes,C,CBD,,,
Evolve 6 Smoke Shop,612 S Oysterbay Rd,,Hicksville,NY,11801,US,,5164903947,evovle6smoke@gmail.com,2019-06-28,,Yes,S,CBD,Yes,,
Smoke Stax,240 N Broadway Ste 1,,Hicksville,NY,11801,US,,5169388347,,2019-06-24,2019-06-24,Yes,S,CBD,,,
Utopia,3 Newbridge Rd,,Hicksville,NY,11801,US,,5169356680,,2019-01-01,,Yes,H,CBD,,,
Vaporville,132 Woodbury Rd,,Hicksville,NY,11801,US,,5167784625,vaporvilleli@gmail.com,2018-08-27,2020-02-26,Yes,V,CBD,,,
Akwaks Smoke Shop,640 NY-37,,Hogansburg,NY,13655,US,,5183584090,,2019-07-16,,,S,,,,
Big Boy's Gas & Tobacco,20 Raquette Point Rd,,Hogansburg,NY,13655,US,,5183586144,,2019-07-24,,,S,,,,
Crossroads Tobacco & Wellness Center,612 NY-37,,Hogansburg,NY,13655,US,,5183330852,,2020-12-02,,Yes,T,CBD,,,
Smoke Stacks,639 NY-37,,Hogansburg,NY,13655,US,,5183583291,,2020-03-01,,,T,,,,
Smoker's Warehouse,8 NY-37,,Hogansburg,NY,13655,US,http://smokerswarehouse.business.site/,5183330429,justin.mitchell@caamgmt.com,2019-11-29,,Yes,S,CBD,,,
Smokey's Tobacco Shop,908 NY-37,,Hogansburg,NY,13655,US,,5183589920,,2020-03-20,,,T,,,,
The Juice Box Vape Shop,975 Main St Ste 1C,,Holbrook,NY,11741,US,,6314688800,,2018-09-28,,Yes,V,CBD,,,
Vapors Smoke Shop,315 Main St,,Holbrook,NY,11741,US,,6316762210,vaporssmokeshop@hotmail.com,2018-08-27,2020-04-18,Yes,S,CBD,,,
Puff Kulture,1100 Waverly Ave,,Holtsville,NY,11742,US,http://www.puffkulture.com,6314380925,,2020-01-26,,,S,,,,
Green Spectrums,46 Foster Rd Ste1,,Hopewell Junction,NY,12533,US,https://greenspectrums.com/,8454472240,info@greenspectrums.com,2021-01-17,,Yes,C,CBD,,,
Smokes 4 Less,814 NY-82,,Hopewell Junction,NY,12533,US,http://www.smokes4less.com/,8452262622,,2019-10-09,,Yes,S,CBD,,,
Yolo Vape & Smoke Shop,800 NY-82 #C,,Hopewell Junction,NY,12533,US,,8454471382,,2019-08-28,,Yes,V,CBD,,,
Hornell Hookah and Smoke Shop,976 NY-36,,Hornell,NY,14843,US,,6073241464,hornellhookah@aol.com,2018-11-23,2018-11-23,Yes,S,CBD,,,
Next Level Wellness,10 Seneca St,,Hornell,NY,14843,US,https://www.nxlevelwellness.com/,6073853188,joshuacanfield@yahoo.com,2021-02-26,,Yes,C,CBD,,,
"Your CBD Store - Horseheads, NY",3317 Chambers Rd,,Horseheads,NY,14845,US,https://cbdrx4u.com/,6074420114,horseheadsny@cbdrx4u.com,2019-09-14,2019-09-14,Yes,C,CBD,,,
Smokers Choice,160 Fairview Ave,,Hudson,NY,12534,US,http://www.smokerschoiceusa.com/,5186716415,info@smokerschoiceusa.com,2018-09-28,2018-10-28,Yes,S,CBD,,,
Smoke N Save,42 Main St,,Hudson Falls,NY,12839,US,http://smoke-n-save-tobacco-shop.business.site/,5182230751,,2020-01-03,,Yes,S,CBD,,,
ENDO Ethos,289 Main Street,,Huntington,NY,11743,US,https://www.endoethos.com/,6312645891,info@endoethos.com,2021-01-01,,Yes,C,CBD,,,
Evolve Smoke Shop,233 Broadway Greenlawn #A,,Huntington,NY,11743,US,,6312392359,,2019-06-28,,Yes,S,CBD,,,
Huntington Smoke & Vape,1730B E Jericho Turnpike,,Huntington,NY,11743,US,https://huntington-smokevape.business.site/,6314895434,huntsmokeandvape@gmail.com,2021-12-03,2021-12-03,Yes,S,CBD,,,
Huntington Village Vapes,4 Elm St,,Huntington,NY,11743,US,http://www.huntingtonvillagevapes.com/,6319230218,info@huntingtonvillagevapes.com,2018-08-06,2019-12-25,Yes,V,CBD,,,
Organically Connected,415 New York Ave,,Huntington,NY,11743,US,https://organicallyconnected.shop/,6314708034,info@organicallyconnected.shop,2022-04-13,2022-04-13,Yes,C,CBD,,,
Gotham Smoke And Novelty,681 E Jericho Tpke,,Huntington Station,NY,11746,US,,6319231133,gothamsmoke1@aol.com,2018-12-18,2018-12-18,,H,,,,
Karma Vapes,217 Walt Whitman Rd,,Huntington Station,NY,11746,US,,6314232460,,2019-12-19,,Yes,S,CBD,,,
Smokes 4 Less,4290 Albany Post Rd,,Hyde Park,NY,12538,US,https://www.smokes4less.com/,8452294118,,2018-09-28,,Yes,T,CBD,,,
Smokers Choice,40 Central Plz,,Ilion,NY,13357,US,http://www.smokerschoiceusa.com/,3158950738,,2018-10-28,,Yes,S,CBD,,,
Perfection Vapes,1839 E Ridge Rd,,Irondequoit,NY,14622,US,http://www.perfectionvapes.com/,8554908273,support@perfectionvapes.com,2018-09-12,,,V,,,,
"Your CBD Store - Irondequoit, NY",1971 East Ridge Rd,,Irondequoit,NY,14622,US,https://cbdrx4u.com/,5859787441,irondequoitny@cbdrx4u.com,2019-09-14,2019-09-14,Yes,C,CBD,,,
Big Buffalo Vapor,11318 Southwestern Blvd,,Irving,NY,14081,US,http://bigbuffalovapor.com/,7165458354,,2018-10-30,,,V,,,,
Catt-Rez Enterprises Inc,10910 Erie Rd,,Irving,NY,14081,US,,7165495610,cattrez@cattrez.com,2019-07-31,,Yes,T,CBD,,,
Heron's Landing Smokeshop,11186 Southwestern Blvd,,Irving,NY,14081,US,https://heronssmokesandmore.com/,7165496032,heronslanding2015@yahoo.com,2021-11-16,2021-11-16,Yes,S,CBD,,,
Irving Smokeshop,551 Milestrip Rd,,Irving,NY,14081,US,http://irvingsmokeshop.com/,7169846295,,2019-12-11,,,S,,,,
Mikey's Emporium,11177 US-20,,Irving,NY,14081,US,http://www.mikeysemporium.com/,7165497888,info@mikeysemporium.com,2019-12-19,,Yes,S,CBD,,,
Signals,11024 Southwestern Blvd,,Irving,NY,14081,US,https://knowyoursignals.com/,7165490353,tnasca@knowyoursignals.com,2021-11-17,2021-11-17,Yes,O,CBD,Yes,,
The Big Indian Smoke Shop,597 Milestrip Rd,,Irving,NY,14081,US,https://www.bigindiansmokeshop.com/,7169340370,info@bigindiansmokeshop.com,2019-07-07,2019-07-07,Yes,T,CBD,,,
Beer Shack,"259 Main Street, Unit B",,Islip,NY,11751,US,,6314468014,beershackislip@gmail.com,2020-01-27,2020-01-27,Yes,S,CBD,Yes,,
Islandwood Cigars & Vapors,474 Main St,,Islip,NY,11751,US,http://islandwoodsmokes.business.site/,6314464544,,2019-11-30,,Yes,S,CBD,Yes,,
Vintage Vapors,568 Main St,,Islip,NY,11751,US,http://www.vintagevapors.net/,6316509300,,2018-08-27,2020-02-26,Yes,V,CBD,Yes,,
Exscape,156 E State St,,Ithaca,NY,14850,US,http://exscapesmoke.com/,6072564200,,2019-01-01,2019-09-29,Yes,H,CBD,Yes,,
Headdies Pipe Shop,103 E State St,,Ithaca,NY,14850,US,https://www.headdies.com/,6076450500,ithaca@headdies.com,2018-08-06,2021-06-10,Yes,H,CBD,,,
Unique eCigs,222 S Fulton St,,Ithaca,NY,14850,US,https://www.uniquecigs.com/,6072571395,david@uniquecigs.com,2018-09-20,,,V,,,,
"Your CBD Store - Ithaca, NY",308 E Seneca St,,Ithaca,NY,14850,US,https://cbdrx4u.com/,8452440868,ithaca@cbdrx4u.com,2019-09-14,2019-09-14,Yes,C,CBD,,,
Kazi Deli / Vapor inc,114-64 Merrick Blvd,,Jamaica,NY,11434,US,,7183743881,,2019-12-24,,,O,,,,
Big Puff's Vapor Store,1310 Washington St,,Jamestown,NY,14701,US,,7163529835,,2018-08-08,2020-01-27,Yes,V,CBD,,,
Liquid Monkey,16 E 3rd St,,Jamestown,NY,14701,US,,7164881370,,2018-12-17,,Yes,H,CBD,,,
Patricks Enchanted Smoke Shop,615 N Main St,,Jamestown,NY,14701,US,https://patricks-enchanted-smoke-shop.business.site/,7167080233,,2019-02-06,2019-12-03,Yes,H,CBD,Yes,,
The Releaf Market,1240 E 2nd St,,Jamestown,NY,14701,US,https://thereleafmarket.com/,7162943108,info@thereleafmarket.com,2020-12-09,,Yes,C,CBD,,,
Yeti Vape - Jamestown,607 W 3rd St,,Jamestown,NY,14701,US,http://yetivape.com/,8559384827,info@yetivape.com,2018-09-30,2019-03-29,Yes,V,CBD,,,
Smokers Choice,283 N Comrie Ave,,Johnstown,NY,12095,US,http://www.smokerschoiceusa.com/,5187625704,info@smokerschoiceusa.com,2018-09-28,2018-10-28,Yes,S,CBD,,,
"Your CBD Store - Kenmore, NY",3191 Delaware Ave,,Kenmore,NY,14217,US,https://cbdrx4u.com/,7167682020,cbd3507@gmail.com,2019-09-14,2019-09-14,Yes,C,CBD,,,
Kill Buck Outlet,6650 NY-417,,Kill Buck,NY,14748,US,http://killbuckoutlet.com/,7169452001,,2019-12-26,,Yes,T,CBD,,,
Evolve Smoke Shop,629 E Main St,,Kings Park,NY,11754,US,,6314066805,,2022-01-18,2022-01-18,Yes,S,CBD,,,
Smoke Shop,214 Plaza Rd,,Kingston,NY,12401,US,,9172267091,,2018-09-28,2020-02-28,,S,,,,
Smokers Choice,1146 Ulster Ave,,Kingston,NY,12401,US,http://www.smokerschoiceusa.com/,8458020647,info@smokerschoiceusa.com,2018-09-28,2018-10-28,Yes,S,CBD,,,
"Your CBD Store - Kingston, NY",1220 Ulster Ave,,Kingston,NY,12401,US,https://cbdrx4u.com,8453831425,kingstonny630@cbdrx4u.com,2020-12-07,,Yes,C,CBD,,,
Hookawanna Smoke Shop,283 Ridge Rd,,Lackawanna,NY,14218,US,,7164363221,,2019-12-07,,,S,,,,
Yeti Vape,1385 Abbott Rd,,Lackawanna,NY,14218,US,http://yetivape.com/,7167681017,info@yetivape.com,2018-08-27,2019-03-29,Yes,V,CBD,,,
Silvermine North,168 Canada St,,Lake George,NY,12845,US,,5186683434,,2018-12-03,2018-12-03,,H,,,,
Vape More Tobacco Store,204 Canada St,,Lake George,NY,12845,US,,5186853336,,2020-02-19,2020-10-05,Yes,S,CBD,,,
Hookah City - Lake Grove,2700 Middle Country Rd,,Lake Grove,NY,11755,US,http://hookahcity1.com/,6312852900,hookahcity1@gmail.com,2019-12-09,2019-12-09,Yes,S,CBD,,,
Up In Smoke,2776 Main St,,Lake Placid,NY,12946,US,,5183074106,ria.eliot@gmail.com,2018-10-28,2018-10-28,Yes,H,CBD,,,
Your CBD Store,2420 Main St,,Lake Placid,NY,12946,US,https://cbdrx4u.com/find-us/new-york/lake-placid,5188375104,,2021-06-10,,Yes,C,CBD,,,
Tobacco City,600 Portion Rd Unit 10,,Lake Ronkonkoma,NY,11779,US,,6316487664,,2019-05-23,,,S,,,,
42 Degrees & Sunny,50 Chautauqua Ave,,Lakewood,NY,14750,US,https://42degreesandsunny.com,7162228770,forty2degreesandsunny@yahoo.com,2020-11-15,,Yes,H,CBD,,,
Smokers Choice,671 New Loudon Rd,,Latham,NY,12110,US,http://www.smokerschoiceusa.com/,5187829365,info@smokerschoiceusa.com,2018-09-28,2018-10-28,Yes,S,CBD,,,
Up In Smoke,889 New Loudon Rd,,Latham,NY,12117,US,,5189551820,ria.eliot@gmail.com,2018-10-29,2018-10-29,Yes,S,CBD,,,
Vape More,638 Columbia St Ext,,Latham,NY,12110,US,https://vapemoreinc.com/,5187830013,,2020-02-19,,,S,,,,
Metropolis Smoke,3110 Hempstead Trnpk,,Levittown,NY,11756,US,,5166229632,metropolissmoke@aol.com,2019-01-29,2019-01-29,Yes,S,CBD,Yes,,
Mr Vape & Smoke Shop,677 Newbridge Rd,,Levittown,NY,11756,US,,5162619977,,2018-10-06,,,S,,,,
Hank's Smoke Shop,5861 Garlow Rd,,Lewiston,NY,14092,US,,7162977255,,2019-11-22,,,T,,,,
Healing Earth CBD,765 Cayuga St,,Lewiston,NY,14092,US,https://healingearthcbd.com/,7164057008,healingearthcbd@outlook.com,2021-11-05,2021-11-05,Yes,C,CBD,,,
Dapper Vapor,411 40th St Ste A,,Lindenhurst,NY,11757,US,https://www.dappervapor.com/,8445008273,dappervapor411@gmail.com,2016-01-08,2019-02-05,Yes,V,CBD,,,
Happy Times Tobacco,130 Sunrise Hwy,,Lindenhurst,NY,11757,US,,6312255606,,2019-11-23,,,S,,,,
Lindy's Smoke Shop,260 Sunrise Hwy,,Lindenhurst,NY,11757,US,,6319570287,,2019-12-28,,,T,,,,
Nicks Smoke Shop,170 N Wellwood Ave #A,,Lindenhurst,NY,11757,US,,6319563669,,2020-01-09,,,T,,,,
Smokers Choice,519 Albany St,,Little Falls,NY,13365,US,http://www.smokerschoiceusa.com/,3155561011,,2018-10-28,,Yes,S,CBD,,,
Premium E-Cigs & Vapor Shop,7608 Oswego Rd Ste 3,,Liverpool,NY,13090,US,,3156222244,support@premiumecigsandvapor.com,2018-09-28,,,V,,,,
Unique eCigs,922 Old Liverpool Rd,,Liverpool,NY,13088,US,https://www.uniquecigs.com/,3154570043,david@uniquecigs.com,2018-09-20,,Yes,V,CBD,,,
"Your CBD Store - Liverpool, NY",676 Old Liverpool Rd #8,,Liverpool,NY,13088,US,https://cbdrx4u.com/,3158709933,liverpoolny@cbdrx4u.com,2019-09-14,2019-09-14,Yes,C,CBD,,,
Aurelia Vape Shop,21 Main St,,Lockport,NY,14094,US,http://www.aureliavapes.com/,7164340500,aureliavapeshop@gmail.com,2018-08-06,2020-01-11,Yes,V,CBD,Yes,,
Herb City,298 S Transit St,,Lockport,NY,14094,US,https://herbcity.com/,7163023298,info@herbcity.com,2021-01-30,2021-01-30,Yes,H,CBD,,,
Wet Vapes,302 S Transit St,,Lockport,NY,14094,US,https://www.wetvapes.com/,7162011739,info@wetvapes.com,2018-08-27,2020-02-27,Yes,V,CBD,,,
Dr. Nature Rx CBD,78 E Park Ave,,Long Beach,NY,11561,US,https://drnaturerx.com/,5166325986,info@drnaturerx.com,2020-12-24,,Yes,C,CBD,,,
Your CBD Store,880 W Beech St #B,,Long Beach,NY,11561,US,https://cbdrx4u.com,5166325199,longbeach510@cbdrx4u.com,2020-12-06,,Yes,C,CBD,,,
Smokers Corner,7565 S State St,,Lowville,NY,13367,US,https://www.scorner.shop,3155423355,thesmokecorner@gmail.com,2021-05-13,2021-05-13,Yes,V,CBD,,,
Sunrise Cigar Shop,87 Sunrise Hwy,,Lynbrook,NY,11563,US,https://sunrise-cigar-shop.business.site/,5167583104,,2021-11-24,2021-11-24,Yes,T,CBD,Yes,,
Elab Smokers Boutique - Macedon,237 Pittsford-Palmyra Rd,,Macedon,NY,14502,US,https://elabsb.com/,3158163094,,2018-08-06,2019-09-16,Yes,S,CBD,,,
DT Tobacco and Vapor,896 S Lake Blvd,,Mahopac,NY,10541,US,,8458038448,,2018-08-06,2019-12-02,Yes,S,CBD,Yes,,
Unique eCigs,5 Elm St,,Malone,NY,12953,US,https://www.uniquecigs.com/,5186512000,david@uniquecigs.com,2018-09-20,,,V,,,,
NY CBD Smoke Shop,212 Mamaroneck Ave,,Mamaroneck,NY,10543,US,http://ikhlaqahmed378@gmail.com,9146304300,ikhlaqahmed378@gmail.com,2019-11-20,,Yes,C,CBD,Yes,,
Cloud 69 Cigar & Smoke Shop,1317 2nd Ave,,Manhattan,NY,10021,US,,9172614010,,2021-10-29,2021-10-29,Yes,S,CBD,Yes,,
Zee Smoke & Convenience,246 E 14th st E 14th St,,Manhattan,NY,10003,US,,6468632286,,2021-11-30,2021-11-30,Yes,S,CBD,Yes,,
Now Playing 1,9425 River Rd,,Marcy,NY,13403,US,https://nowplayingboutique.business.site/,3157650756,,2018-10-06,,Yes,S,CBD,,,
Laxmi Vape & Smoke Shop,4127 Merrick Rd,,Massapequa,NY,11758,US,https://laxmi-smoke-convenience-store.business.site/,5164994399,,2021-03-07,,Yes,S,CBD,Yes,,
Eruza Vape - Massena,170 Highland Rd,,Massena,NY,13662,US,http://www.eruzavape.com/,3154088480,,2019-04-11,2019-10-27,,V,,,,
Calvin's Smokes & House Of Glass,150 Poospatuck Ln,,Mastic,NY,11950,US,https://www.calvinssmokeshop.com/,6316576691,calvinshouseofglass@gmail.com,2019-06-21,,Yes,S,CBD,,,
Cortney's Smoke Shop,12 Squaw Ln,,Mastic,NY,11950,US,,6317722804,,2019-09-01,,,T,,,,
Geronimo Smoke Shop,10 Squaw Ln,,Mastic,NY,11950,US,,6312812906,,2019-11-10,,,T,,,,
Gtalks Smoke Shop,137 Poospatuck Ln,,Mastic,NY,11950,US,,6313437110,,2019-08-19,,,T,,,,
Joanne's Smoke Shop,1484 Montauk Hwy,,Mastic,NY,11950,US,,6313954618,,2019-12-21,2019-12-21,Yes,S,CBD,Yes,,
Little Rose Smoke Shop,128 Poospatuck Ln,,Mastic,NY,11950,US,,6317725419,,2020-02-27,2020-02-27,,T,,,,
Native Land Smoke Shop,136 Poospatuck Ln,,Mastic,NY,11950,US,http://www.nativelandsmokeshop.com/,6313573094,nativelandsmokes@gmail.com,2020-01-26,2020-01-26,Yes,S,CBD,Yes,,
Poospatuck Smoke Shop,207 Poospatuck Ln,,Mastic,NY,11950,US,http://www.poospatucksmokeshop.com/,6312814143,poospatuck_customer_service@verizon.net,2019-07-22,,Yes,S,CBD,,,
Red Rose Smoke Shop,110 Poospatuck Ln,,Mastic,NY,11950,US,,6317724010,,2020-02-08,,,T,,,,
Smoke Signal Smoke Shop,134 Poospatuck Ln #A,,Mastic,NY,11950,US,,6312817193,,2019-09-19,,,T,,,,
The Smokers Depot & Head Shop,163 Poospatuck Ln #C,,Mastic,NY,11950,US,http://www.smokersdepotli.com/,6317724854,,2020-01-09,,Yes,S,CBD,Yes,,
Mike Smoke Shop,122 Mastic Rd,,Mastic Beach,NY,11951,US,https://mike-smoke-shop.business.site/,6313996294,,2021-03-13,,Yes,S,CBD,Yes,,
Hookah City - Medford,2717 NY-112 Ste B,,Medford,NY,11763,US,http://hookahcity1.com/,6314380999,hookahcity1@gmail.com,2019-12-09,2019-12-09,Yes,S,CBD,,,
Medford Smoke Shop,2594 NY-112,,Medford,NY,11763,US,,6314476221,,2020-01-08,,,S,,,,
Vintage Vapors,3199 Horseblock Rd,,Medford,NY,11763,US,,6313079359,,2018-08-27,2020-02-26,Yes,V,CBD,,,
Pure Vapor USA,339 N Main St,,Medina,NY,14103,US,,5853184490,,2019-08-25,2019-08-25,Yes,V,CBD,,,
FMS Vapes,825 Walt Whitman Rd,,Melville,NY,11747,US,,6313850190,fmsvapes@gmail.com,2018-09-30,2020-04-18,Yes,S,CBD,Yes,,
Cigar Shop,1690 Sunrise Hwy,,Merrick,NY,11566,US,,5164073172,,2021-11-05,2021-11-05,,S,,,,
Natural Remedies,1016 Jerusalem Ave,,Merrick,NY,11566,US,https://naturalremediesnewyork.com/,5169928417,naturalremediesmerrick@gmail.com,2021-03-05,,Yes,C,CBD,Yes,,
Vape Flow,2336 Merrick Rd,,Merrick,NY,11566,US,http://www.vapeflowshop.com/,5169001800,vapeflowinc@gmail.com,2021-11-05,2021-11-05,Yes,S,CBD,Yes,,
Gotham Smokes Inc,1271 Middle Country Rd,,Middle Island,NY,11953,US,,6319247789,,2019-01-10,,,H,,,,
EC Tobacco,88 Dunning Rd Ste 6,,Middletown,NY,10940,US,,8459560055,,2020-12-14,,Yes,S,CBD,Yes,,
Green Papas Premium CBD,1 N Galleria Dr,,Middletown,NY,10941,US,https://greenpapas.com/,8456459914,greenpapas@greenpapas.com,2021-01-16,,Yes,C,CBD,,,
Rock Fantasy,12 E Main St,,Middletown,NY,10940,US,http://www.rockfantasy.com/wp/,8453437300,rockfantasyman03@yahoo.com,2018-11-23,2020-06-20,Yes,H,CBD,Yes,,
Smokers Choice,400 NY-211 Ste 20,,Middletown,NY,10940,US,http://www.smokerschoiceusa.com/,8453423055,info@smokerschoiceusa.com,2018-09-28,2018-10-28,Yes,S,CBD,,,
Smokers Choice,157 Dolson Ave,,Middletown,NY,10940,US,http://www.smokerschoiceusa.com/,8454674519,info@smokerschoiceusa.com,2018-09-28,2018-10-28,Yes,S,CBD,,,
Smokers Heaven,690 NY-211 Ste 5,,Middletown,NY,10941,US,,8456731189,smokersheavenus@gmail.com,2018-09-14,2020-12-26,Yes,S,CBD,Yes,,
Gary's Smoke Shop,87 N Country Rd #A,,Miller Place,NY,11764,US,,6314034822,,2019-11-02,,,S,,,,
Aura Vape & Smoke / Conoco Gas,2 Jericho Turnpike,,Mineola,NY,11501,US,https://aura-vape-smoke.business.site/,5167466260,,2020-11-18,2020-11-18,Yes,S,CBD,Yes,,
Healios CBD,43 Mineola Blvd,,Mineola,NY,11501,US,https://healioscbd.com,5164164367,info@healioscbd.com,2021-01-23,,Yes,C,CBD,,,
Mineola Card & Smoke Shop,428 Jericho Turnpike,,Mineola,NY,11501,US,,5167413385,,2020-01-09,,,T,,,,
Mineola Cigar and Vapor,124 E Jericho Turnpike,,Mineola,NY,11501,US,https://stop-24-grocery-mineola-cigar.business.site/,5167472475,,2019-05-19,,,S,,,,
Smokers Choice,8 E Main St,,Mohawk,NY,13407,US,http://www.smokerschoiceusa.com/,3152195057,info@smokerschoiceusa.com,2018-09-28,2020-03-03,Yes,S,CBD,,,
Orange County Vape / Pipe Dream,581 NY-17M,,Monroe,NY,10950,US,http://orangecountyvape.com/,8452391036,info@pipedreamny.com,2015-10-12,2018-11-12,Yes,H,CBD,,,
Smoke & Puff,817 NY-17M,,Monroe,NY,10950,US,https://smokenpuff.business.site/,3472174059,,2020-02-17,,,S,,,,
Mr. Vape Guru,73 Pleasant St,,Monticello,NY,12701,US,,8457962274,,2018-10-06,,,V,,,,
Smokers Choice,4370 NY-42,,Monticello,NY,12701,US,http://www.smokerschoiceusa.com/,8457917301,,2019-01-14,,Yes,S,CBD,,,
Cortlandt Smoke & Vape,2153 Albany Post Rd,,Montrose,NY,10548,US,https://cortlandtvape.com/,9149307592,cortlandtsv@yahoo.com,2018-08-08,2020-01-27,,S,,,,
CBD Boss,339 Montauk Hwy,,Moriches,NY,11955,US,https://www.cbdboss.org/,6316185734,joseph.mileti@cbdboss.org,2020-11-23,2021-12-10,Yes,C,CBD,,,
Kisco Vapors,145 E Main St,,Mount Kisco,NY,10549,US,,9142188138,mtkiscovapors@gmail.com,2018-04-06,2019-06-18,Yes,V,CBD,,,
Smoking King,32 E Main St,,Mount Kisco,NY,10549,US,,9142412243,,2022-03-11,2022-03-11,,S,,,,
Barcode Hookah & Smoke Shop,39 NY-25A,,Mount Sinai,NY,11766,US,https://barcodesmoke.business.site/,6318284244,tasabbirhossain432@gmail.com,2021-12-05,2021-12-05,Yes,S,CBD,Yes,,
Island Vapor Wellness,31 NY-25A,,Mount Sinai,NY,11766,US,,6318282818,islandvaporw@gmail.com,2022-03-07,2022-03-07,Yes,V,CBD,Yes,,
East Coast Psychedelics,5507 Nesconset Hwy,,Mt Sinai,NY,11766,US,https://cbdflowers.us,6314939200,hippiegeo@gmail.com,2020-12-26,2020-12-26,Yes,H,CBD,,,
Fleetwood Smoke Shop,583 Gramatan Ave,,Mt Vernon,NY,10552,US,,9148409443,,2021-01-04,,Yes,S,CBD,,,
Your CBD Store,222 E Main St,,Mt. Kisco,NY,10549,US,https://cbdrx4u.com/find-us/new-york/mt-kisco,9142765409,cbd@yourcbdstoremtkisco.com,2021-06-10,,Yes,C,CBD,,,
MT Smoke & Vape,5507 Nesconset Hwy #3,,My Sini,NY,11766,US,https://mtsmokevape1,3473202102,radfan.nagi1@aol.com,2022-02-21,2022-02-21,Yes,S,CBD,,,
Village Sensations,111 Main St #A,,Nanuet,NY,10954,US,http://villagesensations.com,8456232222,,2018-11-14,2018-11-14,,H,,,,
Purple Haze Novelties,169 Smithtown Blvd,,Nesconset,NY,11767,US,https://purplehazeli.com/,6312056629,novelties@purplehazeli.com,2021-12-15,2021-12-15,Yes,H,CBD,,,
Smoke & Vapor,4679 Commercial Dr,,New Hartford,NY,13413,US,http://www.smokeandvaporshop.com/,3158643392,smokeandvapor2@gmail.com,2020-02-17,,Yes,S,CBD,,,
Unique eCigs,8457 Seneca Tpke,,New Hartford,NY,13413,US,https://www.uniquecigs.com/,3157321323,david@uniquecigs.com,2018-09-20,,Yes,V,CBD,,,
Utica Hemp Co. of New Hartford,8469 Seneca Turnpike Ste 303,,New Hartford,NY,13413,US,https://uticahempco.com,13157656013,uticahempco@gmail.com,2020-12-12,,Yes,C,CBD,,,
Grab & Go Marketplace,272-10 Union Tpke,,New Hyde Park,NY,11040,US,,5164371303,,2018-08-08,2020-01-29,,T,,,,
Smoke Stax and Vape,412 Hillside Ave,,New Hyde Park,NY,11040,US,https://smokestaxandvape.com/,5164373737,smokestaxvape@gmail.com,2018-09-11,,Yes,S,CBD,Yes,,
Smoke Vape & Lotto,272-10 Union Turnpike,,New Hyde Park,NY,11040,US,https://smoke-vape-lotto.business.site/,5164371303,smokevape272@gmail.com,2020-05-24,,Yes,S,CBD,Yes,,
Dead Ahead Smoke Shop,Midtown Mall Route 20,,New Lebanon,NY,12125,US,http://deadaheadsmokeshop.com/,5187947441,sirsmoke@deadaheadsmokeshop.com,2018-11-07,2018-11-07,Yes,S,CBD,Yes,,
Heady Teddy's Outfitters,57 Main St,,New Paltz,NY,12561,US,http://www.headyteddys.com/,8454306368,headyteddys@gmail.com,2018-12-08,,,H,,,,
Likwid,65 Main St,,New Paltz,NY,12561,US,http://www.likwidskateboards.com/,8452561013,sales@likwidskateboards.com,2019-01-01,,Yes,H,CBD,,,
Our Smoke Shop,11 Treno St,,New Rochelle,NY,10801,US,http://oursmokeshop.com/,9149159999,,2021-02-16,2021-02-16,Yes,S,CBD,Yes,,
The Glass Room,11 Church St,,New Rochelle,NY,10801,US,,9143552727,,2019-01-01,,Yes,H,CBD,,,
The Green House Smoke Shop,134 North Ave,,New Rochelle,NY,10801,US,,9143362492,,2020-12-17,,Yes,S,CBD,Yes,,
Smokes 4 Less,327 NY-32,,New Windsor,NY,12553,US,https://www.smokes4less.com/,8455627980,,2018-09-28,,Yes,T,CBD,,,
200 Tobacco Smoke City,200 W 40th St,,New York,NY,10018,US,,6466493177,,2021-10-29,2021-10-29,,S,,,,
2nd Ave Smoke And Beer,82 2nd Ave,,New York,NY,10003,US,https://2ndavesmokeandbeer.business.site/,2122605263,,2021-11-28,2021-11-28,Yes,S,CBD,Yes,,
2nd Avenue Smoke Shop,68 2nd Ave,,New York,NY,10003,US,http://2ndavesmokeshop.business.site/,2122530848,info@brooklynsmokeshop.net,2018-06-04,2018-10-12,,S,,Yes,,
3 Ave Vape Smoke Shop,162 E 23rd St,,New York,NY,10010,US,https://3rdavevape-smoke-shop.business.site/,6462471473,,2018-10-26,,,S,,,,
333 Smoke Shop,333 Park Ave S,,New York,NY,10010,US,https://333-smoke-shop.business.site/,3473949035,,2019-08-24,2019-08-24,Yes,S,CBD,Yes,,
559 Smoke Shop,559 4th Ave,,New York,NY,11215,US,,7184047897,,2018-08-08,2020-01-24,,S,,,,
6th Avenue Smoke Shop,317 6th Ave,,New York,NY,10014,US,http://6thavenuesmokeshop.com/,2122424424,,2018-09-17,2019-07-13,Yes,S,CBD,Yes,,
7th Avenue Convenience Ultimate Smoke Shop,200 7th Ave,,New York,NY,10011,US,,6466528175,,2018-06-04,2018-10-12,,S,,,,
97 Tobacco Shop,2578 Broadway,,New York,NY,10025,US,,6466492027,,2021-12-01,2021-12-01,Yes,S,CBD,Yes,,
A2Z Convenience & Smoke Shop,711 8th Ave,,New York,NY,10036,US,,6469817532,,2018-09-17,,,S,,,,
Alcove,162 Allen St,,New York,NY,10002,US,https://alcove.shop/,9174751832,hi@alcove.shop,2019-08-24,2019-08-24,,H,,,,
Ali Baba Smoke Shop,328 E 14th St,,New York,NY,10009,US,https://evsmokesusa.com/,6466829251,contact@evsmokes.com,2020-06-27,,Yes,S,CBD,Yes,,
Ally's Smokes and Magazines,158 W 30th St,,New York,NY,10001,US,,2128046273,,2018-06-09,2021-10-29,Yes,S,CBD,Yes,,
Amazing Store & Smoke Shop,208 Columbus Ave,,New York,NY,10023,US,,2125010400,,2018-09-17,,,S,,,,
Amsterdam Tobacco House,273 Amsterdam Ave,,New York,NY,10023,US,,2127992925,,2018-06-09,2018-10-13,,S,,Yes,,
Avenue B Beer & Cigars,206 Ave B,,New York,NY,10009,US,,2122282807,,2018-08-06,2019-05-17,Yes,S,CBD,Yes,,
Baba Convenience Store,1585 2nd Ave,,New York,NY,10028,US,,2123961171,,2021-10-29,2021-10-29,,O,,,,
Beer & Smoke Shop,149 1st Ave,,New York,NY,10003,US,,6465902070,beerandsmokeshop@yahoo.com,2021-11-30,2021-11-30,Yes,S,CBD,,,
Beer Cave,2110 30th Ave,,New York,NY,11102,US,,7187777007,,2021-11-30,2021-11-30,,O,,,,
Big Apple Smoke Shop & Organics,3542 Broadway,,New York,NY,10031,US,,6467073089,,2019-07-24,,,S,,,,
Blow Smoke Shop,829 9th Ave,,New York,NY,10019,US,http://blowsmokeshop.com/,6468786371,,2021-10-29,2021-10-29,,S,,Yes,,
Blue Nile,324 Bleecker St,,New York,NY,10014,US,https://www.bluenilesmokeshop.com,6463361118,info@bluenilesmokeshop.com,2018-10-14,,Yes,S,CBD,,,
Broadway Smoke Shop,4801 Broadway,,New York,NY,10034,US,,9176226500,broadwaysmoke1@gmail.com,2019-08-24,2019-08-24,Yes,S,CBD,Yes,,
Broadway Smoke Shop,3501 Broadway,,New York,NY,10031,US,,9172616169,,2018-10-15,,Yes,S,CBD,,,
Broadway Tobacco House,2802 Broadway,,New York,NY,10025,US,,2128658359,,2018-10-15,,,T,,Yes,,
Brooklyn Smoke,720 Washington Ave #A,,New York,NY,11238,US,,3472405871,,2018-10-15,,,S,,,,
Brooklyn Smoke Shop,198 Flatbush Ave,,New York,NY,11217,US,http://www.brooklynsmokeshop.net,3479874210,info@brooklynsmokeshop.net,2018-08-06,2019-08-25,Yes,S,CBD,Yes,,
Brooklyn Smokes,5602 Avenue N,,New York,NY,11234,US,,7183382501,,2018-08-06,2019-08-25,,S,,,,
Brooklyn Vape,53 5th Ave,,New York,NY,11217,US,,7186222597,,2018-06-14,2019-06-25,Yes,V,CBD,Yes,,
Canal Smoke Shop,342 Canal St,,New York,NY,10013,US,,6468640174,canals342@gmail.com,2021-11-05,2021-11-05,Yes,S,CBD,Yes,,
CBD Kratom - New York,354 W 14th St,,New York,NY,10014,US,https://www.shopcbdkratom.com/pages/new-york,9172614294,,2021-05-07,2021-05-07,Yes,C,CBD,,,
Cigar Palace,1929 Avenue U,,New York,NY,11229,US,,7183681235,cigarpalace@gmail.com,2018-10-18,,,S,,,,
Cigarillos,191 Spring St #A,,New York,NY,10012,US,,2123342250,cigarillos.ny@gmail.com,2019-07-09,2022-04-08,Yes,T,CBD,,,
Cigarville Inc.,51 W 14th St,,New York,NY,10011,US,,2124888100,,2018-10-16,,,T,,,,
Classic Smoke Shop,206 Thompson St,,New York,NY,10012,US,,,,2018-10-18,,,S,,,,
Clinton Novelties,20 Clinton St Ste 1,,New York,NY,10002,US,https://clintonnovelties.business.site/,2127777733,clintonnovelties@gmail.com,2018-10-18,2019-08-24,Yes,S,CBD,,,
Columbia Deli Smoke Shop,974 Amsterdam Ave,,New York,NY,10025,US,,6465246907,,2019-08-24,,,S,,,,
Come Back Daily,516 E 11th St Ground Floor,,New York,NY,10009,US,https://comebackdaily.co/,9177220547,hello@comebackdaily.com,2020-08-19,,Yes,C,CBD,,,
Craft Beer & Smoke Shop,779 Grand St,,New York,NY,11211,US,,3479873361,,2018-10-20,,Yes,S,CBD,,,
Davidoff of Geneva,515 Madison Ave,,New York,NY,10022,US,https://us.davidoffgeneva.com/store/new-york-madison,2127519060,customercare.us@davidoffgeneva.com,2021-11-03,2021-11-03,,S,,,,
Dawn To Dusk,401 E 57th St,,New York,NY,10022,US,,,,2021-10-29,2021-10-29,,O,,,,
Decent Store,535 Amsterdam Ave,,New York,NY,10024,US,,2128731380,,2018-08-06,2019-09-16,Yes,S,CBD,,,
Dubai Smoke Shop,161 Rivington St,,New York,NY,10002,US,,,,2022-04-18,2022-04-18,,S,,,,
E Smoke & Convenience,52 Canal St,,New York,NY,10002,US,,9172615054,,2021-11-05,2021-11-05,Yes,S,CBD,Yes,,
E Smoke Shop & Convenience,227 1st Ave,,New York,NY,10003,US,,9174751086,esmokeshop227@gmail.com,2021-11-05,2021-11-05,,S,,,,
E- Smoke & Beer,31 Saint Marks Pl,,New York,NY,10003,US,,2127775380,esmoke31@gmail.com,2019-06-13,,Yes,S,CBD,Yes,,
East Side Cigars & Smoke Shop,279 E Houston St,,New York,NY,10002,US,https://evsmokesusa.com/,2122282882,contact@evsmokes.com,2020-06-27,2020-06-27,Yes,S,CBD,Yes,,
East Village Smoke Shop,177 1st Ave,,New York,NY,10003,US,https://evsmokesusa.com,2122289005,contact@evsmokes.com,2018-08-06,2020-06-27,Yes,S,CBD,Yes,,
Empire Smoke Shop,57 1st Avenue,,New York,NY,10003,US,https://evsmokesusa.com/,6464299772,contact@evsmokes.com,2020-06-27,,Yes,S,CBD,Yes,,
Fantasy Party Tattoo,333 6th Ave,,New York,NY,10014,US,,9173883669,333fantasyparty@gmail.com,2021-11-05,2021-11-05,,O,,,,
Funky Town,14 Saint Marks Pl Ste 1,,New York,NY,10003,US,,2125336501,,2019-06-14,,,H,,,,
Gee Vape & Smoke Shop,88 Delancey St,,New York,NY,10002,US,,2127809999,,2018-08-08,2020-01-27,Yes,S,CBD,,,
Hemp Garden,158 Orchard St,,New York,NY,10002,US,https://hempgardengroup.com/,3154003444,contact@hempgardengroup.com,2021-01-25,,Yes,C,CBD,,,
Hemped NYC,247 Bleecker St,,New York,NY,10014,US,https://hempednyc.com,8444436733,info@hempednyc.com,2021-01-27,2021-01-27,Yes,C,CBD,,,
Higher Standards,75 9th Ave,,New York,NY,10011,US,https://higherstandards.com/,2124720760,info@higherstandards.com,2021-02-03,,Yes,H,CBD,,,
Hookah Plus,11 W 27th St,,New York,NY,10001,US,,6466665109,,2019-06-15,,,S,,,,
i-Vape,36 St Marks Pl,,New York,NY,10003,US,,2122601903,,2018-08-08,2020-01-31,,H,,,,
International Smoke Shop,809 8th Ave,,New York,NY,10019,US,,6465570501,,2018-10-29,2019-12-16,,S,,,,
Jubilee Vape and Smoke,165 Church St,,New York,NY,10007,US,https://jubilee-vape-smoke-inc.business.site/,3475247101,,2021-11-22,2021-11-22,Yes,S,CBD,,,
Jubilee Vapes & Smoke Shop,1487 York Ave,,New York,NY,10075,US,http://jubileesmokeshop.com/,6466783436,,2018-08-08,2018-10-29,,S,,,,
Jubilee Vapes & Smoke Shop,219 W 14th St,,New York,NY,10011,US,http://jubileesmokeshop.com/,6467070985,,2018-08-08,2018-10-29,Yes,S,CBD,,,
La Hookah Smoke Shop,569 W 207th St,,New York,NY,10034,US,,2123040114,,2019-04-30,,Yes,S,CBD,,,
Midtown Smoke and Vape,454 9th Ave,,New York,NY,10018,US,,6466885779,,2018-08-06,2019-10-23,Yes,S,CBD,Yes,,
Millennium Smoke & News,2345 Broadway,,New York,NY,10024,US,,9174092437,,2020-04-07,2020-04-07,Yes,S,CBD,Yes,,
N & N Delancey Smoke Shop,61 Delancey St,,New York,NY,10002,US,,2129666020,,2020-01-24,,,S,,,,
Natural Releaf CBD,470 3rd Ave,,New York,NY,10016,US,http://www.thenaturalreleaf.com/#/,2126832818,,2020-01-12,2020-01-12,Yes,C,CBD,,,
Natural Releaf CBD,247 E 77th St,,New York,NY,10075,US,http://www.thenaturalreleaf.com/,6468385248,,2020-01-12,2020-01-12,Yes,C,CBD,,,
New York Smoke Shop,531 9th Ave,,New York,NY,10018,US,http://newyork-smokeshop.com,2124650660,newyorksmokeshop1@yahoo.com,2018-10-29,,Yes,S,CBD,Yes,,
News On 23rd,171 W 23rd St,,New York,NY,10011,US,,2129244700,,2021-10-29,2021-10-29,,O,,,,
NY Gifts,375A 6th Ave,,New York,NY,10011,US,,2129896350,,2018-11-06,,,S,,,,
NY Smoke N Vape 2,1238 Lexington Ave,,New York,NY,10028,US,https://smokenvape2.com/,2128589346,,2021-10-29,2021-10-29,Yes,S,CBD,Yes,,
NYC Smoke Shop & Vape Shop,12 John St,,New York,NY,10038,US,http://www.brooklynsmokeshops.com/,6469645469,newyorksmokeshop@gmail.com,2017-01-04,2018-12-07,Yes,S,CBD,Yes,,
NYC Smokes & More Inc,104 MacDougal St,,New York,NY,10012,US,http://www.brooklynsmokeshop.net,6463704699,info@brooklynsmokeshop.net,2018-10-24,2018-10-12,Yes,S,CBD,Yes,,
One's Convenience & Smoke Shop,315 1st Ave,,New York,NY,10003,US,,2125331074,,2022-03-07,2022-03-07,,S,,,,
Oxford News & Smoke,504 3rd Ave,,New York,NY,10016,US,,,,2021-10-29,2021-10-29,,S,,,,
Popped,219 Madison St,,New York,NY,10002,US,https://popped.nyc/,9176278572,lauren@lespoppednyc.com,2021-11-23,2021-11-23,Yes,C,CBD,,,
Puff and Passion,51 E Houston St,,New York,NY,10012,US,,3476342630,,2021-11-23,2021-11-23,,S,,,,
PUR Vape & Smoke,346 9th Ave,,New York,NY,10001,US,http://www.purvapenyc.com/,6467609307,purvapeandsmoke@gmail.com,2018-09-28,2018-11-26,,S,,Yes,,
Rick & Morty Smoke Shop,2180 White Plains Rd,,New York,NY,10462,US,,9292391050,,2022-03-14,2022-03-14,,S,,,,
Smoke City,737 2nd Ave,,New York,NY,10016,US,https://www.smokecityny.com/,2126971331,smokecity212@gmail.com,2019-08-24,2019-08-24,Yes,S,CBD,,,
Smoke N Vape,644 9th Ave,,New York,NY,10036,US,http://www.smokenvapenyc.com/,2123901654,smokenvape644@gmail.com,2018-09-28,,Yes,S,CBD,Yes,,
Smoke n' E-Vape,1380 1st Ave,,New York,NY,10021,US,,2128371206,smokenevape@gmail.com,2021-10-29,2021-10-29,Yes,S,CBD,,,
Smoke Scene,845 7th Ave,,New York,NY,10019,US,http://www.smokescenenyc.com/,2122651425,nysmokescene@gmail.com,2021-10-29,2021-10-29,,S,,,,
Smoke Scene N Vape,786 9th Ave,,New York,NY,10019,US,http://www.smokescenenyc.com/,2122651426,nysmokescene@gmail.com,2018-09-28,2020-02-28,Yes,S,CBD,Yes,,
Smoke Shop,222 W 145 St,,New York,NY,10039,US,,2122349691,,2020-07-20,2021-01-06,Yes,S,CBD,Yes,,
Smoke Shop,927 2nd Ave,,New York,NY,10022,US,,3472085785,,2021-12-09,2021-12-09,Yes,S,CBD,Yes,,
Smoke Shop,1594 3rd Ave,,New York,NY,10128,US,,9176393022,,2021-11-23,2021-11-23,Yes,S,CBD,,,
Smoke Shop & Convenience Store,1140 1st Ave,,New York,NY,10065,US,,2128386960,,2021-11-20,2021-11-20,Yes,S,CBD,Yes,,
Smoke Shop and CBD Store & Kratom,521 W 125th St,,New York,NY,10027,US,,2128661572,,2019-06-18,2019-06-18,Yes,S,CBD,Yes,,
Smoke Zone,1059 2nd Ave,,New York,NY,10022,US,,2129352697,smokezones@gmail.com,2018-09-11,,,S,,,,
Smoke Zone N Vape,1411 2nd Ave,,New York,NY,10021,US,,6469186306,smokezones@gmail.com,2018-09-28,2020-02-28,,S,,,,
Smoke Zone N Vape,901 1st Ave,,New York,NY,10022,US,,2128881425,smokezones@gmail.com,2018-09-28,2020-02-28,,S,,Yes,,
Smoking Culture NYC & Vape Bar,177 W 4th St #1,,New York,NY,10014,US,http://www.smokingculturenyc.com/,2122554616,info@smokingculturenyc.com,2018-09-28,,Yes,S,CBD,Yes,,
Smoking N Vaping Store,165 9th Ave,,New York,NY,10011,US,,2124306828,,2018-09-28,,,S,,,,
Stanton Smoke & Beer,100 Stanton St,,New York,NY,10002,US,,2122289647,,2022-05-09,2022-05-09,,S,,,,
Sunflower Glass Company,220 Thompson St,,New York,NY,10012,US,http://sunflowerpipes.com/,9174091974,sunflowersupport@gmail.com,2021-11-24,2021-11-24,Yes,H,CBD,,,
Sweet Spot,1552 Westchester Ave,,New York,NY,10472,US,,3153205442,,2022-04-27,2022-04-27,,S,,,,
T-Square Tobacco Shop,362 W 42nd St,,New York,NY,10036,US,,3137071313,,2019-08-24,,Yes,S,CBD,Yes,,
The 420: A CBD Store,145 Greene St,,New York,NY,10012,US,https://www.the420.com/,2125057476,hello@the420cbd.com,2020-10-07,,Yes,C,CBD,,,
The Alchemists Kitchen,119 Crosby St,,New York,NY,10012,US,https://thealchemistskitchen.com,5186253477,info@thealchemistskitchen.com,2020-12-22,,Yes,O,CBD,,,
The Smoking Shop,45 Christopher St,,New York,NY,10014,US,https://www.thesmokingshopnyc.com/,2129291151,info@thesmokingshopnyc.com,2018-09-20,,,S,,,,
The Village Hemp Shop,110 MacDougal St,,New York,NY,10012,US,,6465907375,,2022-03-16,2022-03-16,Yes,H,CBD,,,
Tobacco & Smoke,23 St James Pl,,New York,NY,10038,US,,2122336334,,2021-11-24,2021-11-24,Yes,S,CBD,Yes,,
Tobacco N Vape,1171 2nd Ave,,New York,NY,10065,US,,6464764600,,2021-10-29,2021-10-29,,S,,,,
Tramway Smoke Shop | Vape Shop,1147 2nd Ave #1,,New York,NY,10065,US,http://www.brooklynsmokeshops.com/,2123086943,bedfordsmokeshops@gmail.com,2018-09-20,2019-04-14,Yes,S,CBD,Yes,,
Ultimate Vapor Source,43 W 29th St Fl 2,,New York,NY,10001,US,,2125321242,info@vaporsourcenyc.com,2018-09-20,,Yes,V,CBD,,,
Vape N Smoke,150 2nd Ave,,New York,NY,10003,US,http://vapensmokeny.com/,2123533150,vapensmoke212@gmail.com,2021-11-17,2021-11-17,Yes,S,CBD,Yes,,
VapeNY,247 W 36th St,,New York,NY,10018,US,https://store.vapeny.com/,5163990606,vapeny@gmail.com,2018-09-11,,,V,,,,
Village Bazaar,351 6th Ave,,New York,NY,10014,US,,2122061660,,2021-11-23,2021-11-23,,S,,,,
Village Cigars,110 7th Ave S,,New York,NY,10014,US,,2122423872,,2021-11-24,2021-11-24,,T,,,,
Village Craft Beer & Smoke,136 1st Ave,,New York,NY,10009,US,,6465903744,,2021-11-24,2021-11-24,Yes,S,CBD,Yes,,
Village Gourmet Smoke Shop,102 2nd Ave,,New York,NY,10003,US,,2122287951,,2018-11-26,,Yes,S,CBD,Yes,,
Village Grannies,346 E 9th St,,New York,NY,10003,US,http://www.villagegrannies.com/,2122541555,,2019-08-24,2019-08-24,,H,,,,
Village Pop,311 Avenue Of The Americas,,New York,NY,10014,US,https://villagepopnyctatto.wixsite.com/nycpop,2122557000,villagepoptattoo@yahoo.com,2019-06-26,2019-06-26,,H,,,,
Village Vape & Cigar,171 W 4th St,,New York,NY,10014,US,https://villagevapecigar.com/,2122290562,,2019-01-01,2019-01-01,Yes,S,CBD,,,
Weed World,480 7th Ave,,New York,NY,10035,US,,4044963602,,2021-09-12,2021-09-12,Yes,C,CBD,,,
Yoyo Smoke Shop,96-22 Queens Blvd,,New York,NY,11374,US,https://www.vapeshopsnewyork.com/,9293312643,,2021-11-05,2021-11-05,,S,,,,
Jubilee Smoke & Vape,1211 Lexington Ave,,New York City,NY,10028,US,https://www.jubileesmokeandvapeshop.com/,9172612629,,2020-07-08,,Yes,S,CBD,,,
Smoke Gift & Convenience 2,251 5th Ave,,New York City,NY,10016,US,https://smokegiftconvenience2.business.site/,6466094032,,2020-07-17,,Yes,S,CBD,,,
Honest Pharm Co,621 E Maple Ave,,Newark,NY,14513,US,https://honestpharmco.com/,8778240938,contact@honestpharmco.com,2021-02-07,,Yes,C,CBD,,,
Puff-N-Stuff Smoke & Novelty,1151 E Union St Ste 2,,Newark,NY,14513,US,http://www.mypuffnstuff.com/,3155737173,puffnstuffdream@gmail.com,2018-12-25,,Yes,S,CBD,Yes,,
Smokers Choice,6750 NY-31 E,,Newark,NY,14513,US,http://www.smokerschoiceusa.com/,3153326042,info@smokerschoiceusa.com,2018-09-28,2018-10-28,Yes,S,CBD,,,
Discount Smoke Shop,190 S Plank Rd Unit 7,,Newburgh,NY,12550,US,,8455650002,,2019-09-24,,,T,,,,
Hangout Vapor Lounge / Hangout Vape Shop,1400 NY-300 #4,,Newburgh,NY,12550,US,https://hangoutvapor.com/,8457875111,info@hangoutvapor.com,2018-08-06,2019-12-24,Yes,V,CBD,,,
Happy Habits Vape & Smoke Shop,1422 NY-300,,Newburgh,NY,12550,US,http://happyhabits.com/,8455641800,info@happyhabits.com,2018-08-06,2019-06-04,Yes,S,CBD,,,
Happy Habits Vape & Smoke Shop,16 N Plank Rd,,Newburgh,NY,12550,US,http://happyhabits.com/,8455698273,info@happyhaits.com,2018-08-06,2019-06-04,Yes,S,CBD,,,
The Leaf,498 Main St,,Newburgh,NY,12508,US,https://theleafny.com/,8455583477,sales@theleafbrands.com,2020-04-25,,Yes,C,CBD,,,
The Spot Smoke Shop,112 Liberty St,,Newburgh,NY,12550,US,,8453918316,thespotvarietystore@gmail.com,2022-01-10,2022-01-10,,H,,,,
White Atmoss CBD and Vape Shop,136 Lake St Ste 2,,Newburgh,NY,12550,US,https://whiteatmoss.com/,8455610780,atmoss1@outlook.com,2020-12-11,,Yes,V,CBD,,,
Alchemy Gift Shop,6910 Buffalo Ave,,Niagara Falls,NY,14304,US,,7162831000,,2019-07-16,,Yes,H,CBD,,,
Niagara Mist Vapors,7309 Niagara Falls Blvd,,Niagara Falls,NY,14304,US,https://niagaramistvapors.com/,7169408674,info@niagaramistvapors.com,2018-10-06,,Yes,V,CBD,,,
One Hemp Holistics,2023 Military Rd,,Niagara Falls,NY,14304,US,https://onehempholistics.com/,7163629499,kari@onehempholistics.com,2021-02-20,,Yes,C,CBD,,,
Vicious Vapors,2908 Pine Ave,,Niagara Falls,NY,14301,US,https://www.viciousvapors.net/,7162990355,viciousvaporsllc@gmail.com,2019-06-06,,Yes,V,CBD,,,
Laxmi Smoke Shop,785 Deer Park Ave Ste G,,North Babylon,NY,11703,US,,6313079030,,2019-04-30,,,S,,,,
Smoke N Vape,1169 Deer Park Ave,,North Babylon,NY,11703,US,,6319409991,,2019-05-13,,Yes,S,CBD,,,
Broadway Smoke Shop,1141 N Broadway,,North Massapequa,NY,11758,US,,5169278111,nbroadwaysmokeshop@gmail.com,2018-10-15,,,S,,,,
Vaporsaurus Vape Shop,742 N Broadway,,North Massapequa,NY,11758,US,https://www.vaporsaurus.com/,5165907778,info@vaporsaurus.com,2018-08-25,2020-02-25,Yes,V,CBD,,,
Salt City Book & Video,2807 Brewerton Rd,,North Syracuse,NY,13212,US,http://www.saltcityvideo.com/,3154540629,,2018-11-06,2018-11-06,,S,,,,
Earth House Center For The Arts,140 Main St,,North Tonawanda,NY,14120,US,,7166963131,spunoutfireproductions1@gmail.com,2019-03-20,2019-11-29,Yes,H,CBD,,,
Wet Vapes,3571 Niagara Falls Blvd Ste 4,,North Tonawanda,NY,14120,US,https://www.wetvapes.com/,7162971593,info@wetvapes.com,2018-08-27,2020-02-27,Yes,V,CBD,,,
ENDO Ethos,112 Main St,,Northport,NY,11768,US,https://www.endoethos.com/,6312645891,info@endoethos.com,2021-01-01,,Yes,C,CBD,,,
"Smoke Shop, Food Mart",33 N Broad St,,Norwich,NY,13815,US,,6073362501,,2020-02-29,,,S,,,,
Smokers Choice,5631 NY-12 Ste 13,,Norwich,NY,13815,US,http://www.smokerschoiceusa.com/,6073341999,,2018-12-05,2018-12-05,,S,,,,
Nyack Vapes,66 S Broadway,,Nyack,NY,10960,US,,8453532194,,2020-01-31,2020-01-31,Yes,V,CBD,Yes,,
"Oakdale Cigarette, Cigar & Vape Shop",1316 Montauk Hwy,,Oakdale,NY,11769,US,,6312180580,,2020-01-31,2020-01-31,Yes,T,CBD,,,
Bayside Smoke & Vape Shop,224-25 Union Tpke,,Oakland Gardens,NY,11364,US,,7184647303,,2019-06-28,2021-06-25,Yes,S,CBD,Yes,,
Shreeji Smoke & Vape Shop,3224 Long Beach Rd,,Oceanside,NY,11572,US,,5162089997,,2018-09-28,2019-06-21,Yes,S,CBD,,,
Tobacco Town,3395 Long Beach Rd,,Oceanside,NY,11572,US,,5166781298,tobaccotown3395@gmail.com,2021-11-23,2021-11-23,Yes,S,CBD,Yes,,
Zee Smoke Inc,2895 Long Beach Rd,,Oceanside,NY,11572,US,,5164420130,,2019-08-20,,,S,,,,
D&J Vapor,637 State St,,Ogdensburg,NY,13669,US,,3156051254,,2020-12-19,,,V,,,,
The Underground,663 E State St,,Olean,NY,14760,US,,7163738282,undergroundtat2@yahoo.com,2019-05-20,,Yes,H,CBD,Yes,,
Three Faces Tobacco,210 W State St,,Olean,NY,14760,US,https://3-faces.com/,7163734039,sales@3-faces.com,2018-09-20,2020-04-17,Yes,S,CBD,Yes,,
51 Vape and CBD,41 Chestnut St,,Oneonta,NY,13820,US,,6074413068,ny51vape@yahoo.com,2021-10-25,,Yes,V,CBD,,,
Maxwell's,145 Main St,,Oneonta,NY,13820,US,http://www.maxwellsspecialtyshop.com,6074324731,,2018-11-23,,Yes,H,CBD,,,
Smokers Choice,357 Chestnut St,,Oneonta,NY,13820,US,http://www.smokerschoiceusa.com/,6072674622,info@smokerschoiceusa.com,2018-09-28,2018-10-28,Yes,S,CBD,,,
Smokers Choice,76 Chestnut St,,Oneonta,NY,13820,US,http://www.smokerschoiceusa.com/,6074319146,info@smokerschoiceusa.com,2018-09-28,2018-10-28,Yes,S,CBD,,,
Smokers Choice,5051 NY-23,,Oneonta,NY,13820,US,http://www.smokerschoiceusa.com/,6074319171,info@smokerschoiceusa.com,2018-09-28,2019-09-25,Yes,S,CBD,,,
Ontario Video & News,1380 NY-104,,Ontario,NY,14519,US,http://www.gotoovn.com/,3155243325,,2020-02-02,,Yes,H,CBD,Yes,,
Rochester Vapor,710 NY-104,,Ontario,NY,14519,US,,5856152563,,2020-02-10,,Yes,V,CBD,,,
AJ's Coastal Bliss District,3911 N Buffalo St,,Orchard Park,NY,14127,US,https://www.ajscbd.com/,7166221795,coastalblissdistrict@gmail.com,2020-11-16,,Yes,C,CBD,,,
Bodified,25 W Bridge St,,Oswego,NY,13126,US,http://bodified.com/,3153429999,heidi@bodified.com,2019-07-27,,Yes,H,CBD,,,
Smokers Choice,286 NY-104,,Oswego,NY,13126,US,http://www.smokerschoiceusa.com/,3152164747,info@smokerschoiceusa.com,2018-09-28,2018-10-28,Yes,S,CBD,,,
Smokers Choice,255 W Seneca St,,Oswego,NY,13126,US,http://www.smokerschoiceusa.com/,3152164498,info@smokerschoiceusa.com,2018-09-28,2018-10-28,Yes,S,CBD,,,
Owego Hemp,928 NY-17C,,Owego,NY,13827,US,https://www.owegohemp.com/,6072231585,owegohemp@gmail.com,2021-02-14,,Yes,C,CBD,,,
Your Essential Cannabis,44 Lake St,,Owego,NY,13827,US,https://youressentialcannabis.com/,6076446819,hempgeekofowego@gmail.com,2020-12-04,,Yes,C,CBD,,,
Crossbay Express Smoke & Vape Shop,137-02 Cross Bay Blvd,,Ozone Park,NY,11417,US,,3479609519,,2018-08-06,2019-09-08,,S,,Yes,,
Gotham Vapor Lounge,105-6 101st Ave,,Ozone Park,NY,11416,US,,7188051249,info@gothamvaporlounge.com,2019-04-18,2019-04-18,Yes,V,CBD,,,
Nimbus Vape & Cigar Shop,92-15 Rockaway Blvd,,Ozone Park,NY,11417,US,https://delivermyejuice.com/,6462878273,nimbusvapeshopnyc@gmail.com,2018-10-16,2019-05-16,Yes,S,CBD,Yes,,
Gogula Beer And Smoke Shop,582 S Service Rd,,Patchogue,NY,11772,US,,6316549828,,2018-12-11,2018-12-11,Yes,S,CBD,Yes,,
High Times Vape,500 Medford Ave Ste 2,,Patchogue,NY,11772,US,,6315695322,hightimesvape@yahoo.com,2014-11-07,2019-08-29,Yes,V,CBD,,,
Organically Connected,18 Railroad Ave,,Patchogue,NY,11772,US,https://www.organicallyconnectedus.com/,6315695211,info@organicallyconnectedus.com,2019-11-19,,Yes,C,CBD,,,
Shakedown Headshop,554 Medford Ave #A,,Patchogue,NY,11772,US,,6312896525,,2019-01-01,,Yes,H,CBD,Yes,,
Pelham Manor Smoke Shop,4408 Boston Post Rd,,Pelham,NY,10803,US,,9143651740,,2021-12-01,2021-12-01,Yes,S,CBD,Yes,,
Acadia CBD & Kratom,2118 Five Mile Line Rd,,Penfield,NY,14526,US,https://acadiacbd.io/,5855009374,acadiacbd@gmail.com,2020-11-16,,Yes,C,CBD,Yes,,
Concord Vapes,142 Main St,,Penn Yan,NY,14527,US,http://concordvapes.com/,3156947847,markjohnson@concordvapes.com,2016-05-05,2019-03-28,,V,,,,
Kratom & CBD Oil / Edibles,783 Old Country Rd,,Plainview,NY,11803,US,,5164999173,,2018-09-15,2019-08-11,Yes,H,CBD,Yes,,
Good Stuff,289 Cornelius St,,Plattsburgh,NY,12901,US,http://goodstuff.xxx,5185664466,,2018-10-22,,Yes,S,CBD,,,
Premier Vapors,2 Cogan Ave Ste 102,,Plattsburgh,NY,12901,US,,5185727174,,2018-09-28,2021-03-10,Yes,V,CBD,,,
PVC Glassworks,60 Bridge St Ste 102,,Plattsburgh,NY,12901,US,,5185664399,earldahl@gmail.com,2021-10-27,,,H,,,,
State Of Mind,319 Cornelia St #B,,Plattsburgh,NY,12901,US,http://plattsburghstateofmind.gotome.biz/contact.aspx,5183246463,stateofmind319@gmail.com,2019-01-01,,,H,,,,
Unique eCigs,519 NY-3 Ste 200,,Plattsburgh,NY,12901,US,https://www.uniquecigs.com/,5185610919,support@uniquecigs.com,2018-09-20,2019-11-14,Yes,V,CBD,,,
Up In Smoke Plattsburgh,41 Clinton St,,Plattsburgh,NY,12901,US,,5188027413,ria.eliot@gmail.com,2018-11-05,,Yes,S,CBD,,,
Smokes 4 Less,17 North Ave,,Pleasant Valley,NY,12569,US,https://www.smokes4less.com/,8456359530,info@smokes4less.com,2022-05-13,2022-05-13,Yes,S,CBD,,,
The Vape Craze Shop,1449 US-44,,Pleasant Valley,NY,12569,US,,8452421264,vapecraz@gmail.com,2018-09-19,,,V,,,,
Pleasantville Smoke Shop,510 Bedford Rd,,Pleasantville,NY,10570,US,,9144953860,,2019-05-07,,,S,,,,
Hookah City - Port Jefferson,202 Main St,,Port Jefferson,NY,11777,US,http://hookahcity1.com/,6315091900,hookahcity1@gmail.com,2019-12-09,2019-12-09,Yes,S,CBD,,,
Best CBD Wellness,1651 NY-112,,Port Jefferson Station,NY,11776,US,https://www.bestcbdwellness.com/,6319285353,info@bestcbdwellness.com,2019-07-24,2021-11-30,Yes,C,CBD,Yes,,
Your CBD Store,590 Patchogue Rd,,Port Jefferson Station,NY,11776,US,https://cbdrx4u.com/find-us/new-york/port-jefferson-station,6318283877,,2021-06-10,,Yes,C,CBD,,,
360 Vape & Smoke + CBD,41 Main St #B,,Port Washington,NY,11050,US,,5165700795,,2020-11-14,,Yes,S,CBD,Yes,,
Eruza Vape,2 Main St #A,,Potsdam,NY,13676,US,http://eruzavape.com/,3158048273,sales@eruzavape.com,2018-08-08,2019-10-27,,V,,,,
Happy Daze Smoke Shop,6 Market St,,Potsdam,NY,13676,US,,3152749668,,2019-11-06,,,H,,,,
Darkside Records,611 Dutchess Turnpike,,Poughkeepsie,NY,12603,US,http://www.darksiderecords.com,8454528010,john@darksiderecords.com,2018-11-08,,Yes,H,CBD,,,
Happy Habits Vape & Smoke Shop,404 Manchester Rd,,Poughkeepsie,NY,12601,US,http://happyhabits.com/,8458492464,info@happyhabits.com,2018-08-06,2019-06-04,Yes,S,CBD,,,
Smokes 4 Less,3434 North Rd,,Poughkeepsie,NY,12601,US,https://www.smokes4less.com/,8454711826,,2018-09-28,,,T,,,,
Smokes 4 Less,32 Raymond Ave,,Poughkeepsie,NY,12603,US,https://www.smokes4less.com/,8454716602,,2018-09-28,2021-01-05,Yes,T,CBD,,,
Smokes 4 Less,702 Freedom Plains Rd,,Poughkeepsie,NY,12603,US,https://www.smokes4less.com/,8458493094,,2018-09-28,,,T,,,,
Vapeology NY,44 Raymond Ave,,Poughkeepsie,NY,12603,US,https://www.vapeologyny.com/,8454718273,vapeologyny@gmail.com,2018-09-30,,Yes,V,CBD,,,
CBD Superstore,150-51B 14th Ave,,Queens,NY,11357,US,https://www.cannachemist.com/default.asp,3477790575,info@cannachemist.com,2020-06-28,,Yes,C,CBD,,,
Dr Smoke,29-23 Astoria Blvd,,Queens,NY,11102,US,,3478088832,,2020-06-27,,Yes,S,CBD,Yes,,
Eliot Smoke & Convenience,84-54 Eliot Ave,,Queens,NY,11379,US,https://eliot-convenience-smoke.business.site/,3479353443,,2021-11-05,2021-11-05,Yes,S,CBD,Yes,,
Esmoke Vape and Convenience,106-16 Continental Ave,,Queens,NY,11375,US,,7187930242,,2019-04-11,,Yes,S,CBD,,,
Vape Blvd,34-43 Vernon Blvd,,Queens,NY,11106,US,,7184403298,vapeblvdnyc@gmail.com,2019-05-30,,Yes,V,CBD,,,
2Strains CBD,578 Aviation Rd,,Queensbury,NY,12804,US,https://2strains.com/,5182230720,care@2strains.com,2020-11-14,,Yes,C,CBD,,,
51 Vape and CBD - Queensbury,727 Upper Glen St,,Queensbury,NY,12804,US,,5185021949,ny51vape@yahoo.com,2018-08-08,2020-01-24,Yes,V,CBD,,,
Anchor Beverage Center 2,376 Dix Ave,,Queensbury,NY,12804,US,,5187986046,,2018-10-27,,,T,,,,
Super Smoke N Save,756 Upper Glen St Ste 6,,Queensbury,NY,12804,US,,5187921959,,2019-01-01,,Yes,S,CBD,,,
Up In Smoke,717 Upper Glen St,,Queensbury,NY,12804,US,,5189551791,,2018-09-20,,Yes,S,CBD,,,
King Kong Vape,91-10A 63rd Dr,,Rego Park,NY,11374,US,http://www.kingkongvape.com/,9173961736,info@kingkongvape.com,2018-08-08,2020-01-31,Yes,V,CBD,,,
51 Vape,593 N Greenbush Rd,,Rensselaer,NY,12144,US,http://51vapellc.com,5182383143,,2018-06-04,2019-06-19,Yes,V,CBD,,,
Grateful Glass,350 Columbia Tpke,,Rensselaer,NY,12144,US,https://gratefull-glass.business.site/,5184198191,,2021-10-28,2021-10-28,,H,,Yes,,
Vapor R' Us,1814 Weirfield St,,Ridgewood,NY,11385,US,http://vapor-r-us.business.site/,3477213628,,2018-09-07,2019-10-07,Yes,V,CBD,Yes,,
Bapa Vapor And Smoke Shop,763 Old Country Rd,,Riverhead,NY,11901,US,,6313692744,,2019-07-22,,Yes,S,CBD,Yes,,
Riverhead  Vapor and Smoke,407 E Main St,,Riverhead,NY,11901,US,,6317279189,,2018-11-15,,Yes,S,CBD,,,
Acadia CBD & Kratom Express,677 Monroe Ave,,Rochester,NY,14607,US,https://acadiacbd.io,5855009374,acadiacbd@gmail.com,2020-11-16,,Yes,C,CBD,Yes,,
All Natural CBD Store,2453 Lyell Rd,,Rochester,NY,14606,US,https://www.allnatural-cbd.com/,5852474367,info@allnatural-cbd.com,2020-11-17,,Yes,C,CBD,,,
Cartel Palace,481 Spencerport Rd,,Rochester,NY,14606,US,https://cartelpalace.com/,5853195200,contactcartel.palace@gmail.com,2021-11-01,2021-11-01,Yes,S,CBD,,,
CBD ReLeaf Center,3349 Monroe Ave,,Rochester,NY,14618,US,https://cbdreleafpittsford.com,5854850017,releafcenterpittsford@gmail.com,2020-06-28,,Yes,C,CBD,,,
CBDepot,2300 West Ridge Rd Ste 103,,Rochester,NY,14626,US,https://www.cbdepotboutique.com/,5856238776,info@cbdepotboutique.com,2020-06-29,,Yes,C,CBD,,,
Clinton Ave Smoke Shop,1036 N Clinton Ave,,Rochester,NY,14621,US,,5855445576,,2019-08-22,,Yes,S,CBD,Yes,,
Dewey Avenue Smoke Shop,1405 Dewey Ave,,Rochester,NY,14613,US,http://deweyavesmokeshop.com/,5854588824,sdeweyavesmoke@rochester.rr.com,2019-04-07,,Yes,S,CBD,Yes,,
Elab Smokers Boutique,4373 Lake Ave,,Rochester,NY,14612,US,,5858654513,,2018-08-06,2019-09-16,Yes,S,CBD,,,
Elab Smokers Boutique Too,719 Monroe Ave,,Rochester,NY,14612,US,,5854735882,,2018-08-08,2020-01-27,Yes,S,CBD,Yes,,
Elite Cigar and Smoke,1555 E Henrietta Rd,,Rochester,NY,14623,US,https://www.elitecigarandsmoke.com/,5855637230,elitecigar@icloud.com,2021-11-01,2021-11-01,Yes,S,CBD,,,
Emerald City Smoke Shop,3187 Chili Ave,,Rochester,NY,14624,US,http://www.emeraldcitysmokeshop.com,5855714648,information@emeraldcitysmokeshop.com,2020-08-02,2021-11-01,Yes,S,CBD,Yes,,
END. Vape & Smoke Supply,4165 Buffalo Rd,,Rochester,NY,14624,US,https://www.endvape.com/,5852278273,support@endvape.com,2019-05-22,2019-05-22,Yes,S,CBD,,,
END. Vape & Smoke Supply,2112 Chili Ave,,Rochester,NY,14624,US,https://www.endvape.com/,5852278273,support@endvape.com,2019-05-22,2019-05-22,Yes,S,CBD,,,
END. Vape & Smoke Supply,887 Long Pond Rd,,Rochester,NY,14626,US,https://www.endvape.com/,5852090168,support@endvape.com,2019-05-22,2019-05-22,Yes,S,CBD,,,
END. Vape & Smoke Supply,1455 E Henrietta Rd,,Rochester,NY,14623,US,https://www.endvape.com/,5852278273,support@endvape.com,2019-05-22,2019-05-22,Yes,S,CBD,,,
Exscape Smoke Shop & Vapor Lounge,644 Monroe Ave,,Rochester,NY,14607,US,http://exscapesmoke.com/,5853194533,,2018-08-06,2019-09-16,Yes,H,CBD,,,
Ghost Dog Glass,631 Monroe Ave,,Rochester,NY,14607,US,,5854737680,,2019-01-01,,,H,,,,
Glenna's CBD Best Oil,1892 Monroe Ave,,Rochester,NY,14618,US,https://cbdbestoil.com/,5854424223,,2021-01-13,,Yes,C,CBD,,,
Hemp It Up,622 Park Ave #2,,Rochester,NY,14607,US,https://www.hempitupgifts.com/,5854344962,info@hempitupgifts.com,2020-07-04,,Yes,C,CBD,,,
Hempire State Smoke Shop,2340 Lyell Ave,,Rochester,NY,14606,US,http://www.hempirestatesmokeshop.com/,5852224367,hempirestaterochester@gmail.com,2019-01-01,,Yes,H,CBD,,,
HempSol CBD,1425 Jefferson Rd Ste 9,,Rochester,NY,14623,US,https://www.hempsolcbd.com/,5853193766,,2020-07-05,,Yes,C,CBD,,,
Lyell Avenue Smoke Shop,455 Lyell Ave,,Rochester,NY,14606,US,,5856479601,,2018-11-06,2019-07-02,Yes,S,CBD,Yes,,
Mad Hatter's Hide Away,2334 Culver Rd,,Rochester,NY,14609,US,http://www.madhattershideaway.com/index.html,5852662929,info@madhattershideaway.com,2018-10-06,,Yes,S,CBD,,,
Mad Hatters Hide Away Smoke Shop,535 W Ridge Rd,,Rochester,NY,14615,US,https://www.madhattershideaway.com,5853602003,info@madhattershideaway.com,2022-05-03,2022-05-03,Yes,S,CBD,,,
Nathaniel Square Convenience Store,495 South Ave,,Rochester,NY,14620,US,,5853635301,ameloyalinc@gmail.com,2021-11-01,2021-11-01,,O,,,,
Puff Palace Smoke Shop,579 Stone Rd,,Rochester,NY,14616,US,,5857479618,puffpalace@yahoo.com,2018-09-28,,Yes,S,CBD,,,
Show World,1167 Brighton Henrietta Town Line Rd,,Rochester,NY,14623,US,http://showworldstores.com/,5854242580,,2018-11-23,,,H,,,,
Smokers Choice,2851 W Henrietta Rd Ste B,,Rochester,NY,14623,US,http://www.smokerschoiceusa.com/,5853194097,,2018-12-05,,Yes,S,CBD,,,
The Kratom Shop,984 Monroe Ave,,Rochester,NY,14620,US,https://www.rochesterkratom.com/,5854176462,rochesterkratom@gmail.com,2020-11-16,,Yes,O,CBD,Yes,,
The Vape Shop,2680 W Ridge Rd,,Rochester,NY,14612,US,http://thevapeshoponline.com/,5859787494,,2018-09-20,,,V,,,,
Tobacco Express Smokeshop,3259 Winton Rd #7,,Rochester,NY,14623,US,https://tobaccoexpresssmokeshop.com/,5854812362,,2020-07-05,,Yes,S,CBD,,,
Westside Smoke Shop,1105 Lyell Ave,,Rochester,NY,14606,US,http://www.westsidesmokeshop.net/,5854586180,smokeshop1100@yahoo.com,2019-09-20,2019-09-20,,S,,,,
Wise Guys Smoke Shop,746 Elmgrove Rd,,Rochester,NY,14624,US,,5852479333,,2019-01-01,,Yes,S,CBD,Yes,,
Dr. Nature Rx CBD,218A Sunrise Hwy,,Rockville Centre,NY,11570,US,https://drnaturerx.com/,5166080456,info@drnaturerx.com,2020-12-24,2020-12-24,Yes,C,CBD,,,
Green Space,47 Broadway,,Rocky Point,NY,11778,US,https://greenspaceli.com/,6313585007,info@greenspaceli.com,2021-07-02,,Yes,C,CBD,,,
Rocky Point Smoke & Vape Shop,593 NY-25A Ste B,,Rocky Point,NY,11778,US,https://www.rockypointsmokeandvape.com/,6317447372,nickos29@gmail.com,2015-10-14,2022-02-07,Yes,S,CBD,,,
Bill's Variety,504 W Thomas St,,Rome,NY,13440,US,,3153369261,,2019-07-25,,Yes,T,CBD,,,
Odd Creations Junkett,601 W Dominick St,,Rome,NY,13440,US,,3153391731,,2019-01-01,2019-07-29,,H,,,,
Puff n Stuff,301 1/2 E Dominick St,,Rome,NY,13440,US,,3157387121,puffnstuff333@yahoo.com,2018-11-02,2018-11-02,,S,,,,
Smoke & Vapor,1144 Erie Blvd W,,Rome,NY,13440,US,http://www.smokeandvaporshop.com/,3153710607,smokeandvapor2@gmail.com,2020-02-17,2020-02-17,Yes,S,CBD,,,
Smokers Choice,1790 Black River Blvd N,,Rome,NY,13440,US,http://www.smokerschoiceusa.com/,3155336015,info@smokerschoiceusa.com,2018-09-28,2018-10-28,Yes,S,CBD,,,
Vaporz,148 Erie Blvd E,,Rome,NY,13440,US,,3153370745,,2018-08-27,2020-02-26,,V,,,,
Hempire Vapes & CBD,1014 Portion Rd,,Ronkonkoma,NY,11779,US,https://www.hempirevapes.com/,6318464104,btvaporsupply@hotmail.com,2021-01-28,,Yes,V,CBD,,,
"Soota CBD, Kratom, Cigarette, Cigar & Vape shop",3311 E Veterans Memorial Hwy,,Ronkonkoma,NY,11779,US,,6312853536,,2019-07-06,,Yes,S,CBD,Yes,,
Smoke More,93 W Campbell Rd,,Rotterdam,NY,12306,US,http://www.smokemore247.com/,5183701300,smokemore247@gmail.com,2018-10-29,,Yes,S,CBD,,,
OMO the Apothecary,7 Wharf St,,Sag Harbor,NY,11963,US,https://openmindedorganics.com/,6318993755,dave@openmindedorganics.com,2021-02-15,,Yes,C,CBD,,,
Homestead Hemp 1787,821 Chamberlin Mills Rd,,Salem,NY,12865,US,https://homesteadhemp1787.com/,5184784730,info@homesteadhemp1787.com,2021-02-07,,Yes,C,CBD,,,
Gails Tobacco and Gas Outlet,2273 Saunders Settlement Rd,,Sanborn,NY,14132,US,,7164622605,gailstobacco2273@gmail.com,2021-11-10,2021-11-10,Yes,S,CBD,,,
No Blanket Smoke Shop,2400 Upper Mountain Rd,,Sanborn,NY,14132,US,http://www.noblanketsmokeshop.com/,7166280904,,2018-11-07,,Yes,S,CBD,,,
Shoot The Moon Head Shop & Wholesale,2273 Saunders Settlement Rd,,Sanborn,NY,14132,US,http://shootthemoonheadshop.business.site/,7164622605,,2020-02-16,,Yes,H,CBD,,,
Smokin Joes Trading Post,2293 Saunders Settlement Rd,,Sanborn,NY,14132,US,http://www.smokinjoes.com/,7162970251,marketing@smokinjoe.com,2020-03-22,2020-03-22,,T,,,,
Higher Peaks Glassworks LLC,82 Main St,,Saranac Lake,NY,12983,US,,5183545469,higherpeaksglassworksllc@gmail.com,2019-07-27,,Yes,H,CBD,,,
Ex-Hale,3 Marion Ave,,Saratoga Springs,NY,12866,US,https://ex-hale.business.site/,5183066013,,2018-08-08,2020-01-27,Yes,S,CBD,,,
Saratoga CBD Wellness,454 Broadway Ste 6,,Saratoga Springs,NY,12866,US,https://saratogacbdwellness.com/,5182885001,info@saratogacbdwellness.com,2021-01-13,,Yes,C,CBD,,,
Super Smoke N Save,109 West Ave,,Saratoga Springs,NY,12866,US,,5185848583,,2019-01-01,,Yes,S,CBD,,,
Up In Smoke Saratoga,40 Caroline St,,Saratoga Springs,NY,12866,US,,5188605761,,2018-12-03,,Yes,H,CBD,,,
Smokers Choice,1 Ulster Ave,,Saugerties,NY,12477,US,http://www.smokerschoiceusa.com/,8452460415,,2018-11-24,,Yes,S,CBD,,,
Island Hookah,291 W Main St,,Sayville,NY,11782,US,https://island-hookah-sayville.mycloveronline.com/,6315736669,islandhookah@yahoo.com,2018-10-22,2019-02-22,Yes,S,CBD,Yes,,
20 West Smoke Shop,3610 State St #4,,Schenectady,NY,12304,US,http://20westsmokeshop.com/,5183446486,,2019-07-12,,Yes,S,CBD,,,
GottaVape,1870 Altamont Ave,,Schenectady,NY,12303,US,http://www.gottavape.com/,5189458273,mike@gottavape.com,2018-08-06,2019-12-23,Yes,V,CBD,,,
Green Leaf Wellness Co.,1624 Union St,,Schenectady,NY,12309,US,https://greenleafwellnesscompany.com/,5183725829,info@greenleafwellnesscompany.com,2021-01-16,,Yes,C,CBD,,,
GV Alternatives,1870 Altamont Ave,,Schenectady,NY,12303,US,https://www.gvalternatives.com/,5183460500,info@gvalternatives.com,2020-07-03,,Yes,C,CBD,,,
Orion Boutique,169 Jay St,,Schenectady,NY,12305,US,,5183464902,,2018-11-08,,Yes,H,CBD,,,
Smokers Choice,1713 Union St,,Schenectady,NY,12309,US,http://www.smokerschoiceusa.com/,5189825163,info@smokerschoiceusa.com,2018-09-28,2020-03-03,Yes,S,CBD,Yes,,
Upstate CBD,1613 Union St,,Schenectady,NY,12309,US,https://upstatecbd.org/,5182804289,upstatecbd@gmail.com,2019-08-13,,Yes,C,CBD,,,
Market on Main,303 Main St,,Schoharie,NY,12157,US,,5187024197,mainonmarket@gmail.com,2021-11-11,2021-11-11,Yes,S,CBD,,,
Tweek'd Boutique,281 Main Street,,Schoharie,NY,12157,US,http://www.tweekdboutique.com,5186942072,tweekd_boutique@yahoo.com,2020-07-20,,Yes,H,CBD,,,
Vaped City Smoke Shop,125 Mohawk Ave,,Scotia,NY,12302,US,,5183770870,dabbcity518@gmail.com,2018-09-11,2021-10-28,Yes,S,CBD,,,
One Stop Vape & Smoke Shop,4007 Merrick Rd Ste 5,,Seaford,NY,11783,US,,5167835375,smokeshop4007@gmail.com,2019-05-06,2019-05-06,Yes,S,CBD,,,
Sunrise Vapor,3848 Sunrise Hwy,,Seaford,NY,11783,US,,5162218273,,2016-01-08,2019-01-06,,V,,,,
Aura Vape Smoke Shop,1112 Middle Country Rd,,Selden,NY,11784,US,,6313463917,,2018-10-14,2019-05-10,,S,,,,
Smoke Shop,317 Middle Country Rd,,Selden,NY,11784,US,https://www.smokeshopselden.com/,6317321701,seldensmoke@gmail.com,2019-07-07,2019-07-07,Yes,S,CBD,Yes,,
Pavilion,764 NY-25A,,Setauket,NY,11733,US,http://pavilionstores.com/,6316750925,aj@pavilionstores.com,2018-10-24,2018-11-12,,S,,,,
Island Hookah,921 Montauk Hwy Ste A,,Shirley,NY,11967,US,,6317726500,,2018-11-21,,Yes,S,CBD,,,
Nirvana Vape & Smoke,800-15 Montauk Highway,,Shirley,NY,11967,US,,6313993999,,2020-07-14,,Yes,H,CBD,Yes,,
Smokers Choice,6 Dorian Ln,,Sidney,NY,13838,US,http://www.smokerschoiceusa.com/,6075638255,,2018-12-05,,,S,,,,
Suffolk Vape & Smoke,165 Terry Rd #A,,Smithtown,NY,11787,US,,6316560707,suffolkvapeandsmoke@gmail.com,2019-07-19,2019-07-19,Yes,S,CBD,Yes,,
J & J Convenience Smoke Shop,2134 W Genesee St,,Solvay,NY,13209,US,,3158026654,,2021-11-22,2021-11-22,Yes,S,CBD,,,
Evergreen Smoke Shop,199 Merritts Rd #E,,South Farmingdale,NY,11735,US,https://evergreen-smoke-shop.business.site/,5165865629,,2020-12-05,,Yes,S,CBD,Yes,,
Tobacco World,148 Saratoga Rd,,South Glens Falls,NY,12803,US,,5186365880,tobaccoworldsgf@yahoo.com,2018-10-17,,Yes,T,CBD,,,
USA Gas Station,84 Main St,,South Glens Falls,NY,12803,US,,5187615438,usagas518@gmail.com,2020-07-20,,Yes,S,CBD,Yes,,
Vaporize,12420 Liberty Ave,,South Richmond Hill,NY,11419,US,https://www.vaporizeny.com/,7186418273,info@vaporizeny.com,2018-08-27,2020-02-26,Yes,V,CBD,,,
Native Son's Tobacco,50 Montauk Hwy Ste A,,Southampton,NY,11968,US,,6313773351,nativesons50a@gmail.com,2020-01-26,2020-01-26,Yes,S,CBD,,,
Neepa's Smoke Shop,42 Montauk Hwy,,Southampton,NY,11968,US,,6313773595,,2020-01-27,,,T,,,,
Shinnecock Smoke Shop,50 Montauk Hwy,,Southampton,NY,11968,US,http://www.shinnecocksmokeshop.com/,6312879578,,2019-09-09,,Yes,T,CBD,,,
The ZFO,42 Nichols St Ste 14,,Spencerport,NY,14559,US,http://thezfo.com/,8558439365,zenfactoryoutlet@gmail.com,2020-04-26,,,V,,,,
Buffalo Vapor Lounge,372 S Cascade Dr,,Springville,NY,14141,US,http://www.buffalovapor.com/,7165929222,buffalovaporlounge@gmail.com,2014-08-27,2019-05-12,Yes,V,CBD,,,
Bay Cigars And Tobacco,1201 Bay St,,Staten Island,NY,10305,US,https://www.baycigarsandtobacco.com/,7185246411,smokeonbay@gmail.com,2018-08-06,2019-08-16,,S,,Yes,,
Caviar Mist,1250 Hylan Blvd Ste 8B,,Staten Island,NY,10305,US,http://caviarmist.com/,7184478000,caviarmist@gmail.com,2018-08-06,2020-01-12,,S,,,,
Caviar Mist 2,1949 Richmond Ave Unit 6,,Staten Island,NY,10314,US,http://caviarmist.com/,7187617777,caviarmist@gmail.com,2018-08-06,2020-01-12,,V,,,,
Caviar Mist 3,2655 Richmond Ave,,Staten Island,NY,10314,US,http://caviarmist.com/,7183001114,caviarmist@gmail.com,2018-08-06,2020-01-12,,V,,,,
Caviar Mist 4,1427 Forest Ave,,Staten Island,NY,10302,US,http://caviarmist.com/,7188156666,caviarmist@gmail.com,2018-08-06,2020-01-12,,V,,,,
Caviar Mist 6,645 Rossville Ave Unit 103,,Staten Island,NY,10309,US,,7189667777,,2021-09-08,,,V,,,,
Cloud City Vape Shop,1281 Arthur Kill Rd,,Staten Island,NY,10312,US,,7182275811,,2021-09-08,,Yes,V,CBD,,,
Forest Smoke & Vape,1106 Forest Ave,,Staten Island,NY,10310,US,https://forest-smoke-vape.business.site/,7184482111,,2021-09-09,,Yes,S,CBD,,,
General Vape,2001 Victory Blvd,,Staten Island,NY,10314,US,,7184428273,generalvapenyc@gmail.com,2018-08-06,2019-12-22,Yes,V,CBD,,,
General Vape,960 Bloomingdale Rd,,Staten Island,NY,10309,US,,7182278273,generalvapenyc@gmail.com,2018-08-06,2019-12-22,Yes,V,CBD,,,
General Vape,95 Page Ave,,Staten Island,NY,10309,US,,7189672447,generalvapenyc@gmail.com,2018-08-06,2019-12-22,Yes,V,CBD,,,
J&A Vapes,2110 Richmond Rd,,Staten Island,NY,10306,US,http://javapesinc.com/,7186682737,ja_vapes@aol.com,2018-08-06,2019-12-26,Yes,V,CBD,,,
My Smoke Shop,1805 Forest Ave,,Staten Island,NY,10303,US,https://mysmokeshop.business.site/,9173979201,,2020-01-17,,,S,,,,
New Dorp Snack & Tobacco,136 New Dorp Ln,,Staten Island,NY,10306,US,http://snack-tobacco.business.site/,7186821260,,2018-09-28,,,T,,,,
Nitecap Megastore,690 Gulf Ave,,Staten Island,NY,10314,US,http://www.nitecapmegastore.com/,7183708100,,2018-10-06,,,S,,,,
NovaCBD,2655 Richmond Ave,,Staten Island,NY,10314,US,https://novacbdshop.com/,9089225771,info@novacbdshop.com,2019-08-13,,Yes,C,CBD,,,
Smoking Kulture,280 New Dorp Ln Ste B,,Staten Island,NY,10306,US,https://www.statenislandsmokeshop.com/,7189793232,smokingkulture@yahoo.com,2018-09-28,,,S,,,,
Tobacco & Gift Emporium,3277 Richmond Ave,,Staten Island,NY,10312,US,,7189482899,,2019-07-07,2019-07-07,,S,,,,
O J's Smoke Shop & Gas Station,2111 W Perimeter Rd,,Steamburg,NY,14783,US,,7163546435,,2020-01-31,,Yes,S,CBD,,,
Twisted Sisterz Smoke Shop,30 Chestnut St,,Suffern,NY,10901,US,https://www.twistedsisterzsmokeshop.com/,8455472657,twistedsisterzllc@gmail.com,2019-11-14,2019-11-14,Yes,S,CBD,Yes,,
Sky Smokes and Electronics,43-19 Queens Blvd,,Sunnyside,NY,11104,US,,3476491190,,2021-12-27,2021-12-27,,S,,,,
Syosset Pharmacy,175 Jerico Turnpike Ste 100,,Syosset,NY,11791,US,https://www.syossetpharmacy.com/,5168651151,hello@syossetpharmacy.com,2020-01-22,,Yes,C,CBD,,,
Boulevard Books,2576 Erie Blvd E,,Syracuse,NY,13224,US,http://boulevardbooks.net/,3154461595,blvdbooksonline@gmail.com,2018-08-06,2020-01-12,Yes,O,CBD,,,
Camillus Smoke Shop,4310 W Genesee St,,Syracuse,NY,13219,US,,3159133891,,2021-12-13,2021-12-13,Yes,S,CBD,,,
CBD Source,1011 W Genesee St,,Syracuse,NY,13204,US,https://cbdsourcecenter.com/,3158027243,contact@cbdsourcecenter.com,2020-12-01,2020-12-01,Yes,C,CBD,,,
Down Under,804 S Crouse Ave,,Syracuse,NY,13210,US,,3154754039,,2019-09-15,,,H,,,,
Eastwoods Discount Smoke Shop,2701 James St,,Syracuse,NY,13206,US,,3153730008,,2021-11-05,2021-11-05,Yes,S,CBD,,,
Exscape Smoke Shop,167 Marshall St,,Syracuse,NY,13210,US,http://exscapesmoke.com/,3154724200,,2018-08-06,2019-09-16,Yes,H,CBD,,,
North Salina Cigar & Vape Shop,851 N Salina St,,Syracuse,NY,13208,US,,3154753988,,2020-01-29,,,S,,Yes,,
Rocky's News & Cigars,447 N Salina St,,Syracuse,NY,13203,US,https://www.rockyscigars.com/,3154229975,,2018-09-28,,,T,,,,
Smokers Choice,174 Swansea Dr,,Syracuse,NY,13206,US,http://www.smokerschoiceusa.com/,3154634633,info@smokerschoiceusa.com,2018-09-28,2018-10-28,Yes,S,CBD,,,
Smokers Choice,1011 W Genesee St Ste 2,,Syracuse,NY,13204,US,http://www.smokerschoiceusa.com/,3158027243,info@smokerschoiceusa.com,2018-09-28,2018-10-28,Yes,S,CBD,,,
Solvay Ecigs,2019 Milton Ave,,Syracuse,NY,13209,US,,,solvay.ecigs@gmail.com,2018-09-28,2021-06-08,,V,,,,
Art Of Glass Smoke Shop,3497 Delaware Ave,,Tonawanda,NY,14217,US,,7167125347,aogwholesale@outlook.com,2019-01-03,2022-04-26,Yes,S,CBD,Yes,,
Cloud 9 Smokes & Vapors,1594 Niagara Falls Blvd,,Tonawanda,NY,14150,US,https://cloud9smokesandvapors.com/,7168318273,,2019-08-22,2019-08-22,,S,,Yes,,
Decades III,2855 Sheridan Dr,,Tonawanda,NY,14150,US,http://decadespsychedelicdaze.com/,7163225631,decadespsychedelicdaze@yahoo.com,2018-08-06,2020-12-20,Yes,H,CBD,Yes,,
Planet Vape,894 Brighton Rd,,Tonawanda,NY,14150,US,,7168383113,planetvapor101@gmail.com,2019-03-26,,Yes,V,CBD,,,
Sativa Remedy,19 Main St,,Tonawanda,NY,14150,US,https://sativaremedy.com/,7162601324,info@sativaremedy.com,2020-07-16,2020-07-16,Yes,C,CBD,,,
The Kokoro Way,1856 Colvin Blvd,,Tonawanda,NY,14150,US,https://thekokoroway.com/,7169304073,thekokoroway@gmail.com,2020-12-15,,Yes,C,CBD,,,
Vape E's,44 Main St,,Tonawanda,NY,14150,US,,7165638445,,2018-09-11,,,V,,,,
Yeti Vape,2327 Sheridan Dr,,Tonawanda,NY,14150,US,http://yetivape.com/,8559384827,info@yetivape.com,2018-08-25,2021-11-01,Yes,V,CBD,,,
51 Vape and CBD,616 Hoosick Rd #B,,Troy,NY,12180,US,,5182792996,,2020-06-17,,Yes,V,CBD,,,
Amazing Intimate Essentials - Troy,516 River Street,,Troy,NY,12180,US,,5182727577,,2020-06-18,,Yes,O,CBD,,,
Prism Glassworks,225 4th St,,Troy,NY,12180,US,https://www.pgwgallery.com/,5182734527,artist@troyglassstudio.com,2020-02-05,,,H,,,,
Smokers Choice,120 Hoosick St,,Troy,NY,12180,US,http://www.smokerschoiceusa.com/,5183260518,info@smokerschoiceusa.com,2018-09-28,2018-10-28,Yes,S,CBD,,,
Smokers Paradise,828 Hoosick Rd,,Troy,NY,12180,US,https://smokers-paradise-tobacco-super-center.business.site/,5182383079,smokersparadiseny@gmail.com,2019-06-24,2019-06-24,Yes,S,CBD,Yes,,
Vapetimes,1198 Hempstead Turnpike,,Uniondale,NY,11553,US,https://vapetimes.business.site/,5162808504,,2019-12-19,,Yes,S,CBD,Yes,,
Eagle St Express,904 Eagle St,,Utica,NY,13501,US,,3157350116,,2021-11-05,2021-11-05,,S,,,,
Flawless Vapor,110 Bleecker St,,Utica,NY,13501,US,https://www.flawlessvapeshop.com/,3158648107,,2019-04-15,,Yes,V,CBD,,,
Global Smoke Shop,1160 Mohawk St,,Utica,NY,13501,US,,3158648695,,2020-06-15,,Yes,S,CBD,,,
Puff n Stuff CNY,333 Genesee St,,Utica,NY,13501,US,,3157387121,puffnstuff333@yahoo.com,2019-01-01,,,H,,,,
Smoke & Vapor,756 Horatio St Ste C,,Utica,NY,13502,US,http://www.smokeandvaporshop.com/,3157249000,smokeandvapor2@gmail.com,2020-02-17,,Yes,S,CBD,,,
Smokers Choice,50 Auert Ave,,Utica,NY,13502,US,http://www.smokerschoiceusa.com/,3155075783,info@smokerschoiceusa.com,2018-09-28,2018-10-28,Yes,S,CBD,,,
The Smoke Corner,328 Genesee St,,Utica,NY,13501,US,,3158803070,lorrysingh.ps@gmail.com,2020-06-22,,Yes,H,CBD,Yes,,
Utica Vapors,2002 Genesee St,,Utica,NY,13502,US,https://www.uticavapors.com/,3153165249,steven.morse31@yahoo.com,2018-09-11,,Yes,V,CBD,,,
West Side Smoke Shop,1232 Court St,,Utica,NY,13502,US,,3159227885,,2019-11-06,,,T,,,,
Vapor Junction,165 Rockaway Ave,,Valley stream,NY,11426,US,,5162804555,vaporjunction@yahoo.com,2015-04-22,2018-12-29,Yes,V,CBD,Yes,,
Hemp Geek,2508 Vestal Pkwy E,,Vestal,NY,13850,US,https://www.hempgeek.com/,6072174022,hempgeek@icloud.com,2021-01-25,,Yes,C,CBD,,,
Vapor King,3201 Vestal Pkwy E #C,,Vestal,NY,13850,US,http://www.vaporking.com/,6077290175,vaporkingvestal@gmail.com,2014-09-12,2021-11-28,Yes,V,CBD,,,
"Your CBD Store - Vestal, NY",1901 Vestal Pkwy E Ste 1B,,Vestal,NY,13850,US,https://cbdrx4u.com/,6074443048,vestalny@cbdrx4u.com,2019-09-14,2019-09-14,Yes,C,CBD,,,
Glenna's CBD Best Oil,7979 Pittsford Victor Rd #208,,Victor,NY,14564,US,https://cbdbestoil.com,5854424223,,2021-01-13,,Yes,C,CBD,,,
Victor Vapes,39 E Main St,,Victor,NY,14564,US,,5853988618,victorvapes@gmail.com,2015-07-02,2019-02-07,Yes,V,CBD,,,
Cloud Vapor and Smoke,53 NY-111,,Village of the Branch,NY,11787,US,,6312575020,cloudvaporny@gmail.com,2018-10-19,,,V,,,,
Noid Botanicals,5768 NY-25A Ste V3,,Wading River,NY,11792,US,https://www.noidbotanicals.com/,6318862738,contact@noidbotanicals.com,2020-11-10,,Yes,C,CBD,,,
Wading River Smoke And Vapor Shop,6278 NY-25A,,Wading River,NY,11792,US,,6319299301,,2015-09-23,2021-12-16,Yes,S,CBD,Yes,,
East End Naturals,354 Montauk Hwy #3b,,Wainscott,NY,11975,US,https://www.eastendnaturals.com/,6316045212,bill@eastendnaturals.com,2020-06-29,,Yes,C,CBD,,,
Jakpot CBD Wellness,81 E Main St,,Walden,NY,12586,US,https://jakpotcbd.com/,8457135026,,2021-02-12,,Yes,C,CBD,,,
Smokers Choice,78 Oak St,,Walden,NY,12586,US,http://www.smokerschoiceusa.com/,8457134201,,2018-10-28,,Yes,S,CBD,,,
Smokers Choice,169 Delaware St,,Walton,NY,13856,US,http://www.smokerschoiceusa.com/,6078659368,,2018-12-05,,Yes,S,CBD,,,
Burn,3248 Railroad Ave,,Wantagh,NY,11793,US,https://www.go2burn.com/,5163084424,info@go2burn.com,2019-01-14,2019-01-14,Yes,H,CBD,,,
Crown Smoke and Vape Shop,1134 Wantagh Ave,,Wantagh,NY,11793,US,,5168043313,crownsmokeandvape@gmail.com,2018-10-18,2019-04-08,Yes,V,CBD,,,
Tobacco Junction,3300 Sunrise Hwy,,Wantagh,NY,11793,US,,5167838646,tobaccojunction3300@gmail.com,2018-10-25,2019-02-25,Yes,S,CBD,Yes,,
Twisted Glass,1898 Wantagh Ave,,Wantagh,NY,11793,US,,5168097380,,2018-11-02,2018-11-02,Yes,H,CBD,,,
Happy Habits Vape & Smoke Shop - Wappingers,1177 US-9,,Wappingers Falls,NY,12590,US,http://happyhabits.com/,8452189829,info@happyhabits.com,2018-08-06,2019-06-04,Yes,S,CBD,,,
Nutz,1708 US-9,,Wappingers Falls,NY,12590,US,https://www.nutzstore.com/,8452982457,nutzstore1708@gmail.com,2019-01-01,,,H,,,,
Smokes 4 Less,1582 US-9,,Wappingers Falls,NY,12590,US,https://www.smokes4less.com/,8452961720,info@smokes4less.com,2022-05-13,2022-05-13,Yes,S,CBD,,,
Smokes 4 Less,1671 US-9,,Wappingers Falls,NY,12590,US,https://www.smokes4less.com/,8456327050,info@smokes4less.com,2018-09-28,2022-05-13,Yes,S,CBD,,,
Yolo Vape & Smoke Shop,1597 US-9,,Wappingers Falls,NY,12590,US,,8452189851,,2020-12-05,,Yes,V,CBD,Yes,,
Your CBD Store,1582 US-9 #5,,Wappingers Falls,NY,12590,US,https://cbdrx4u.com/find-us/new-york/wappingers,,,2021-06-10,,Yes,C,CBD,,,
Earthly Healing,10 W Buffalo St,,Warsaw,NY,14569,US,https://earthyhealing19.com/,5856899253,earthlyhealing19@gmail.com,2020-12-26,,Yes,C,CBD,,,
Fusion CBD,176 NY-94 S,,Warwick,NY,10990,US,https://fusioncbd.com/,8459884367,contact@fusioncbd.com,2021-01-09,,Yes,C,CBD,,,
7 Leaf Clover,760 Montauk Hwy,,Water Mill,NY,11976,US,https://www.7leafcloverhemp.com/,6315009172,info@7leafcloverhemp.com,2020-11-15,,Yes,C,CBD,,,
Show World Waterloo,1490 Ninefoot Rd,,Waterloo,NY,13165,US,http://showworldstores.com/,3155395466,,2020-02-16,,,H,,,,
Clouds Over Watertown,20991 Arsenal St,,Watertown,NY,13601,US,,3154107188,,2018-08-06,2019-12-15,Yes,V,CBD,,,
Dusty B's Smoke Shop,273 State St,,Watertown,NY,13601,US,http://dusty-bs-smoke-shop.business.site/,3156814154,,2019-09-30,2019-09-30,Yes,H,CBD,,,
Interstate Vape 3,23720 NY-342,,Watertown,NY,13601,US,,3257774886,interstatevape3@gmail.com,2018-08-06,2019-12-16,,V,,,,
The High Life,22220 US-11,,Watertown,NY,13601,US,,3157790035,highlifeny@yahoo.com,2018-11-10,,Yes,H,CBD,,,
Trip On The Wild Side,671 Mill St,,Watertown,NY,13601,US,,3157889916,triponthewildside2@yahoo.com,2019-01-01,,Yes,H,CBD,,,
Unique eCigs,21307 County Rte 202,,Watertown,NY,13601,US,https://www.uniquecigs.com/,3157820582,support@uniquecigs.com,2018-09-20,2019-10-19,,V,,,,
Watertown CBD & Wellness by 5 Star Nutrition,21290 Sams Dr Stop 3,,Watertown,NY,13601,US,https://5starnutritionusa.com/,3156816816,watertown@5starnutritionusa.com,2020-12-12,,Yes,O,CBD,,,
Wright's Beverages,438 S Franklin St,,Watkins Glen,NY,14891,US,http://wrightsbeverages.com/,6075357449,mymalialee@gmail.com,2018-09-30,,,O,,,,
Apothecary Of Mary,332 Broad St,,Waverly,NY,14892,US,https://apothecaryofmarycbdstore.com/,6072496128,apothecaryofmary@gmail.com,2021-01-25,,Yes,C,CBD,,,
All Access CBD,1991 Empire Blvd,,Webster,NY,14580,US,https://www.allaccesscbd.com,5853476568,info@allaccesscbd.com,2020-11-16,,Yes,C,CBD,,,
Empire Smoke & Vape Shop,1766 Empire Blvd,,Webster,NY,14580,US,http://empirevapestore.com,5856710555,,2018-08-08,2020-01-27,Yes,S,CBD,,,
End CBD Supply,1900 Empire Blvd Ste 165,,Webster,NY,14580,US,https://www.endcbdsupply.com/,5854463200,,2021-01-01,2021-01-01,Yes,C,CBD,,,
Village Vape Or Smoke,5 W Main St #2,,Webster,NY,14580,US,http://villagevapeorsmoke.com/,5855454773,villagevapeorsmoke@gmail.com,2018-08-27,2019-10-10,Yes,V,CBD,Yes,,
Tobacco House,144 Ramapo Rd Ste 7,,West Haverstraw,NY,10923,US,,8452713860,,2018-09-28,2019-06-16,Yes,S,CBD,Yes,,
House of Glass,777 Udall Rd,,West Islip,NY,11795,US,https://house-of-glass-tobacco-shop.business.site/,6315392198,,2019-01-01,,Yes,H,CBD,,,
Palm Organix,1760 Palisades Center Dr,,West Nyack,NY,10994,US,https://www.palmorganix.com/,8557256223,info@palmorganix.com,2021-02-14,,Yes,C,CBD,,,
Smoke Buddies,979 Union Rd,,West Seneca,NY,14224,US,https://smoke-buddies.business.site/,7166715985,,2021-11-03,2021-11-03,Yes,S,CBD,Yes,,
Wet Vapes,1470 Orchard Park Rd #2,,West Seneca,NY,14224,US,https://www.wetvapes.com,7167711317,info@wetvapes.com,2018-08-27,2020-02-27,Yes,V,CBD,,,
7 Leaf Clover Hemp - Westbury,92 Old Country Rd,,Westbury,NY,11590,US,https://www.7leafcloverhemp.com/,5167806473,info@7leafcloverhemp.com,2020-11-15,,Yes,C,CBD,,,
Fortune Smoke Shop,527 Old Country Rd,,Westbury,NY,11590,US,,5169978109,,2019-11-07,2019-11-07,Yes,S,CBD,,,
Black Dirt CBD,543 County Rd 62,,Westtown,NY,10998,US,https://www.blackdirt-cbd.com/,8456974377,blackdirtcbd@gmail.com,2020-11-20,,Yes,C,CBD,,,
King Kong Vape,929 N Broadway,,White Plains,NY,10603,US,http://www.kingkongvape.com/,9143589177,info@kingkongvape.com,2018-08-08,2020-01-31,Yes,V,CBD,,,
Mamaroneck Smoke Shop,60 Mamaroneck Ave Ste B,,White Plains,NY,10601,US,https://www.smokeshopwhiteplainsny.com/,9147617072,,2018-10-06,,Yes,S,CBD,Yes,,
MK Smoke Shop,270 Main St,,White Plains,NY,10601,US,http://mk-smoke-shop.business.site/,9146077551,,2020-01-10,,Yes,S,CBD,Yes,,
Natural Releaf CBD,758 N Broadway,,White Plains,NY,10603,US,https://www.thenaturalreleaf.com/,9148819185,naturalreleafnyc@gmail.com,2021-03-05,2021-03-05,Yes,C,CBD,,,
George & Company,6850 Main Street,,Williamsville,NY,14221,US,http://www.georgeandcompany.co/,7166330711,georgeandco6850@gmail.com,2018-11-25,2018-11-25,,H,,,,
Wet Vapes,4545 Transit Rd,,Williamsville,NY,14221,US,http://wetvapes.com,7166354787,info@wetvapes.com,2018-08-27,2020-02-27,Yes,V,CBD,,,
"Your CBD Store - Williamsville, NY",8070 Transit Rd,,Williamsville,NY,14221,US,https://cbdrx4u.com/find-us/new-york/williamsville,7164580075,cbd3507@gmail.com,2019-09-14,2021-07-16,Yes,C,CBD,,,
Aces Up Vapor & Smoke Shop,235 Hillside Ave,,Williston Park,NY,11596,US,,5167472250,,2018-09-17,,,V,,,,
Hillside Cigar Shop,338 Hillside Ave,,Williston Park,NY,11596,US,,5168737905,,2018-08-08,2019-06-04,Yes,S,CBD,,,
Debonair Vapes And Smoke Shop,50-12 69th St,,Woodside,NY,11377,US,,7186061737,,2021-11-05,2021-11-05,,H,,,,
HappyLife Gallery,54 Tinker St,,Woodstock,NY,12498,US,https://happylifeproductions.com/,8456796689,kelly@happylifeproductions.com,2020-07-04,,Yes,O,CBD,,,
Headstock & Co.,71 Tinker St,,Woodstock,NY,12498,US,https://headstockandco.com/,8456840463,store@headstockandco.com,2021-01-22,,Yes,H,CBD,,,
Not Fade Away,40 Mill Hill Rd,,Woodstock,NY,12498,US,http://notfadeawaywoodstockny.com/,8456798663,linzy511@yahoo.com,2018-10-06,,Yes,H,CBD,,,
Celtic Smoke Shop,1568 Central Park Ave #B,,Yonkers,NY,10701,US,,9144207512,,2019-06-20,2020-09-20,Yes,S,CBD,Yes,,
Central Ave Smoke Shop,2217 Central Park Ave,,Yonkers,NY,10710,US,,9143611251,,2021-12-08,2021-12-08,Yes,S,CBD,Yes,,
Dan's Tobacco,797 Yonkers Ave,,Yonkers,NY,10704,US,,9144236009,,2022-04-07,2022-04-07,Yes,S,CBD,,,
Smokers World & VIP Exotics,403 McLean Ave #A,,Yonkers,NY,10705,US,,9142925462,,2021-09-11,,Yes,S,CBD,,,
Vapohm,1587 Central Park Ave,,Yonkers,NY,10710,US,https://vapohm.business.site/,9143611617,,2019-06-01,2019-06-01,Yes,V,CBD,Yes,,
Yonkers Smoke Shop,150 McLean Ave,,Yonkers,NY,10705,US,,9144570033,,2018-08-25,2020-02-25,Yes,S,CBD,,,
Rock's Smoke Shop,1925 Commerce St,,Yorktown Heights,NY,10598,US,,6465731030,,2022-04-11,2022-04-11,Yes,S,CBD,Yes,,
Smokers Choice,40 Main St,,Yorkville,NY,13495,US,http://www.smokerschoiceusa.com/,3157650635,,2018-09-28,2018-10-28,Yes,S,CBD,,,