Shop Name,Address 1,Address 2,City,State/Province,Zip/Postcode,Country,Website,Phone,Email,Added,Updated,CBD,Biz Type,MJ,Kratom,Buyer name ,Title 
DaggleBeez,167 Broadway Ave,,Alamosa,CO,81101,US,https://dagglebeez.com/,7192987093,,2020-12-04,,Yes,C,CBD,,,
Arvada Smoke Shop,5087 W 64th Ave,,Arvada,CO,80003,US,,3034238387,,2019-07-19,,,S,,,,
CBD American Shaman Arvada,6695 Wadsworth Blvd Ste C,,Arvada,CO,80003,US,https://cbdamericanshaman.com/,7205832793,arvada.americanshaman@gmail.com,2019-11-08,,Yes,C,CBD,,,
Cignot Arvada,6418 Ward Rd,,Arvada,CO,80004,US,http://www.cignotcolorado.com/,3034218273,info@cignotcolorado.com,2018-08-06,2020-01-12,,V,,,,
Colorado Vape And Toke,14705 W 64th Ave,,Arvada,CO,80004,US,,3034216891,,2022-01-02,2022-01-02,Yes,V,CBD,,,
Kratom Cafe USA,7701 Ralston Rd,,Arvada,CO,80002,US,https://kratomcafeusa.com/,8006170105,info@kratomcafeusa.com,2020-07-17,,Yes,O,CBD,,,
Smash Glass And Vape,6385 Wadsworth Blvd,,Arvada,CO,80003,US,http://smashglassandvape.com/,3034244040,,2019-05-07,2020-01-31,Yes,H,CBD,Yes,,
Smoker Friendly,7540 Sheridan Boulevard,,Arvada,CO,80003,US,http://smokerfriendly.com/,3036505008,,2020-01-13,2020-01-13,Yes,S,CBD,,,
Vapor Clouds,6470 Wadsworth Byp,,Arvada,CO,80003,US,,7206127833,vaporcloudsco@gmail.com,2018-08-25,2020-02-24,,V,,,,
Grassland Hemp Co.,213 US-85,,Ault,CO,80610,US,https://grasslandhc.com/,9705901921,grasslandhempco@gmail.com,2021-01-14,,Yes,C,CBD,,,
Aurora Head Shop - Colorado Kratom Supply,15102 E Hampden Ave Ste A,,Aurora,CO,80014,US,https://vapeglassparker.com/,3038154639,auroraheadshop@gmail.com,2018-12-23,2020-02-03,Yes,H,CBD,Yes,,
Aurora Vape & Glass,13980 E Mississippi Ave,,Aurora,CO,80012,US,,7203356934,goldexchangetamarac@yahoo.com,2020-07-07,2020-07-07,Yes,H,CBD,Yes,,
"Cloud 9 Vape, Glass and Tobacco",14655 E Arapahoe Rd,,Aurora,CO,80016,US,,3036802412,sean@smokingcave.com,2022-03-08,2022-03-08,Yes,S,CBD,,,
Denver Electronic Cigarettes,2300 S Chambers Rd Unit G,,Aurora,CO,80014,US,https://denverelectroniccigarettes.com/,7207487524,sales@denverelectroniccigarettes.com,2018-10-21,2019-03-25,Yes,V,CBD,,,
Evaporation Vape Shoppe,15224 E Hampden Ave,,Aurora,CO,80014,US,http://www.evaporationvapeshoppe.com/,7208087080,evaporationvapeshoppe@yahoo.com,2019-04-11,,,V,,,,
Flex Nutrition,6150 S Main St #102,,Aurora,CO,80016,US,,3039746420,flexnutritionhw@gmail.com,2019-12-07,,Yes,C,CBD,,,
Inno-Vapor Digital,3571 S Tower Rd Unit C,,Aurora,CO,80013,US,https://www.inno-vapor.com/,7205506609,vapeitcolorado@gmail.com,2014-10-05,2019-12-25,,V,,,,
Myxed Up Creations,1718 S Chambers Rd,,Aurora,CO,80017,US,https://www.myxedup.com/,3036959500,info@myxedup.com,2018-09-30,2018-11-12,,H,,,,
N2 Vapes,6180 S Gun Club Rd Unit L5,,Aurora,CO,80016,US,https://n2vapes.com/,3034003357,info@n2vapes.com,2018-09-30,,,V,,,,
Perfect Alternatives - Aurora,13760 E Quincy Ave Ste 8-B,,Aurora,CO,80015,US,https://www.perfectalternatives.com/,3036932578,perfectalternatives@mail.com,2019-05-07,,Yes,V,CBD,,,
Purple Haze,2629 S Parker Rd,,Aurora,CO,80014,US,https://www.shoppurplehaze.com/,3036954293,info@shoppurplehaze.com,2018-08-16,2020-02-12,,H,,Yes,,
Quick Clouds Vape Shop & Delivery,14401 E Bayaud Ave Ste F,,Aurora,CO,80012,US,https://vape2me.com/,7207010586,team@vape2me.com,2018-09-30,2021-12-21,,V,,,,
RiNo Vapes Aurora,12101 E Iliff Ave Ste C,,Aurora,CO,80014,US,http://rinovapes.com/,3037551479,info@rinovapes.com,2015-12-01,2019-10-07,,V,,,,
Smash Glass And Vapes,3124 S Parker Rd Unit C,,Aurora,CO,80014,US,,3035930231,,2018-08-16,2019-05-07,Yes,H,CBD,Yes,,
Smoke and Vapes,15270 E 6th Ave #1,,Aurora,CO,80011,US,http://smokeandvapes.com/,3033441095,,2018-08-16,2020-02-12,,S,,,,
Smoke N Glass,4266 S Chambers Rd,,Aurora,CO,80014,US,http://smokenglass.co/,7203285831,sanel@smokenglass.co,2018-12-31,,,H,,,,
Smoker Friendly,15037 E Colfax Ave,,Aurora,CO,80011,US,https://smokerfriendly.com/,3033605882,,2020-03-03,,,S,,Yes,,
Smoker Friendly,2698 S Parker Rd,,Aurora,CO,80014,US,http://www.smokerfriendly.com/,3036967037,,2020-03-04,2022-05-02,Yes,S,CBD,,,
Smokin' Rich's,16868 E Iliff Ave,,Aurora,CO,80013,US,,3036328537,richpropertymgmt@gmail.com,2019-10-17,2019-10-17,,S,,,,
Stone Fox Vape and Glass,13310 E Mississippi Ave,,Aurora,CO,80012,US,http://www.stonefoxvape.com,7205313701,cloudy@stonefoxvape.com,2018-04-30,2019-06-18,Yes,V,CBD,,,
The Bomb Head Shop,4343 S Buckley Rd Unit C,,Aurora,CO,80015,US,http://thebombheadshop.com,3032842518,,2018-12-03,,,H,,,,
The Bong Shop,9728 E Colfax Ave,,Aurora,CO,80010,US,,7209994873,,2018-10-28,2018-10-28,,H,,,,
Tokerz Head Shop,12101 Iliff Ave #D,,Aurora,CO,80014,US,,3037516516,tokerzheadshop@gmail.com,2019-10-07,2020-01-31,,H,,Yes,,
Tyson Tobacco,16631 E Smoky Hill Rd,,Aurora,CO,80015,US,,7204598317,,2019-10-31,,,S,,,,
Vape Pros,14200 E Alameda Ave,,Aurora,CO,80012,US,https://vape-pros.com/,5754051878,,2019-05-31,2021-12-12,Yes,V,CBD,Yes,,
Fast Vape,40815 US-6,,Avon,CO,81657,US,,9704718938,fastvapeusa@gmail.com,2018-08-06,2019-11-03,Yes,V,CBD,,,
Get Hi Gallery,41184 US-6 Ste 130,,Avon,CO,81620,US,http://www.gethigallery.com,9707489995,gethi@gethigallery.com,2018-08-06,2019-09-17,Yes,H,CBD,Yes,,
Vail's Exhale,40814 US-6,,Avon,CO,81620,US,,9709493366,vailsexhaleofcolorado@gmail.com,2018-08-25,2019-10-14,Yes,S,CBD,Yes,,
Boulder CBD,1750 30th St Ste 16,,Boulder,CO,80301,US,https://boulder-cbd.com/,7205313159,bouldercbd@gmail.com,2019-08-21,,Yes,C,CBD,,,
Crystal Dragon Boulder,3330 Arapahoe Ave,,Boulder,CO,80303,US,http://www.crystaldragonboulder.com/,3037868455,crystaldragon@crystaldragonboulder.com,2018-11-06,2018-11-06,Yes,H,CBD,Yes,,
Extract Labs Headquarters,3620 Walnut St,,Boulder,CO,80301,US,https://www.extractlabs.com/,3039276130,grant@extractlabs.com,2021-01-02,,Yes,C,CBD,,,
Green Piece Pipe and Hydro,2900 Valmont Rd Ste D2,,Boulder,CO,80301,US,http://greenpiecepipeandhydro.com,3034430790,,2019-01-14,2020-04-26,Yes,H,CBD,Yes,,
"Infused, A CBD Marketplace",1909 9th St Ste 130,,Boulder,CO,80302,US,https://infusedcbd.co/,7202955674,info@infusedcbd.co,2020-02-02,2020-02-02,Yes,C,CBD,,,
Lazy J's  Smoke Shop,1650 Broadway,,Boulder,CO,80302,US,,7207492707,,2022-01-13,2022-01-13,Yes,S,CBD,Yes,,
Mile High Pipe & Tobacco,1144 Pearl St,,Boulder,CO,80302,US,http://www.milehighpipeandtobacco.com/,3034437473,milehighpipe@gmail.com,2018-08-16,2020-02-12,,S,,Yes,,
Moon Mother Hemp Company,2425 Canyon Blvd Unit D,,Boulder,CO,80302,US,https://www.moonmotherhemp.com/,3034422983,info@moonmotherhemp.com,2019-08-17,,Yes,C,CBD,,,
Rocketman Boulder,4461 Broadway,,Boulder,CO,80304,US,https://rocketmanboulder.com/,3039529280,rocketman.boulder@yahoo.com,2018-08-16,2020-02-12,Yes,H,CBD,Yes,,
Smoker Friendly,1620 30th St,,Boulder,CO,80301,US,http://smokerfriendly.com/,3034497089,,2020-03-03,2020-03-03,,S,,Yes,,
The Fitter,1303 Broadway St,,Boulder,CO,80302,US,http://thefitterboulder.com,3034424200,pipefitter303@gmail.com,2018-12-31,,Yes,H,CBD,,,
The Root of the HIll,1121 Broadway Ste 101,,Boulder,CO,80302,US,http://www.therootofthehill.com/,3039390012,therootunderground@gmail.com,2018-08-25,2020-02-24,,H,,,,
Wild Side,1111 13th St,,Boulder,CO,80302,US,,3034490065,wildsideboulder@gmail.com,2018-08-25,2022-01-10,Yes,S,CBD,Yes,,
Pharmstrong,107 N Main St,,Breckenridge,CO,80424,US,https://pharmstrong.com/,3037201904,help@pharmstrong.com,2021-02-11,,Yes,C,CBD,,,
Taspen's Organics,301-1 N Main St,,Breckenridge,CO,80424,US,https://taspens.com/,9704236132,info@taspens.com,2020-12-23,,Yes,C,CBD,,,
The Breckenridge Hemp Co,226 S Main St #3,,Breckenridge,CO,80424,US,https://www.thebreckenridgehemp.com/,3035985991,tbhcolorado@gmail.com,2019-08-21,,Yes,C,CBD,,,
Vaportoke,500 S Main St Unit 1D,,Breckenridge,CO,80424,US,https://www.vaportokeco.com/,9704539196,,2018-08-25,2020-04-23,,V,,,,
AlphaStar Vapes,45 N Main St #2,,Brighton,CO,80601,US,http://www.astarvapes.com/,3034345676,astarvapes@gmail.com,2014-09-21,2019-02-03,,V,,,,
Blown Glass Gifts & Vapes,236 E Bridge St Unit A,,Brighton,CO,80601,US,https://www.blownglassbrighton.com/,3035580971,blowndenver420@gmail.com,2018-08-06,2019-07-26,Yes,H,CBD,Yes,,
Doobie's Smoke Shop,8 Great Western Rd,,Brighton,CO,80601,US,,3036540627,doobiessmokeshop@yahoo.com,2018-12-03,,,H,,,,
Game Trader Inc,2 S Main St,,Brighton,CO,80601,US,,3036377503,gametraderstore72@yahoo.com,2018-08-06,2019-12-22,,V,,,,
Smoker Friendly,1583 E Bridge St,,Brighton,CO,80601,US,http://smokerfriendly.com/,3036548561,,2020-03-03,,,S,,,,
Smoker Friendly,6650 W 120th Ave #A11,,Broomfield,CO,80020,US,http://www.smokerfriendly.com/,3036350608,,2020-01-13,,,S,,,,
The Little Dog Broomfield,1006 Depot Hill Rd #300,,Broomfield,CO,80020,US,,3034102765,,2019-10-31,,Yes,H,CBD,,,
Vape Pros,1 W Flatiron Crossing Dr Ste 2136,,Broomfield,CO,80021,US,https://vape-pros.com/,3034656434,,2021-12-12,2021-12-12,Yes,V,CBD,Yes,,
Vapergate,3700 W 144th Ave E1400,,Broomfield,CO,80023,US,https://vapergate.com/,3038686297,,2022-02-08,2022-02-08,,V,,,,
The Vape Lounge,1050 5th St #1,,Calhan,CO,60408,US,,7193473181,,2020-07-19,,Yes,V,CBD,,,
Atomic Vapor Vape Shop,612 Main St,,Canon City,CO,81212,US,http://atomicvaporco.com/,7193453581,atomicvaporco@gmail.com,2018-08-06,2020-01-11,,V,,,,
Mountain Wookies,1426 Royal Gorge Blvd,,Canon City,CO,81212,US,http://www.mountainwookies.com/,7193453500,303glass@gmail.com,2018-11-27,,,H,,,,
Pipes Peak Canon City,3055 US-50 Ste E,,Canon City,CO,81212,US,http://www.smokeshopcoloradosprings.com/,7193152362,admin@pipespeak.com,2018-12-14,2018-12-14,,H,,Yes,,
Smoker Friendly,1525 Greenwood Ave,,Canon City,CO,81212,US,http://smokerfriendly.com/,7192758297,,2020-03-03,2020-03-03,,S,,,,
Smoker Friendly,1709 Fremont Dr,,Canon City,CO,81212,US,http://smokerfriendly.com/,7192693945,,2020-03-03,,,S,,Yes,,
Tobacco Corner,2355 Fremont Dr,,Canon City,CO,81212,US,,7192752213,,2018-10-25,,,S,,,,
Vapor Source,421 1/2 Main St,,Canon City,CO,81212,US,https://vaporsource.com/,7192753541,support@vaporsource.com,2019-10-07,2019-10-07,,V,,,,
Goodfellas Smoke Shop,1007 Caprice Dr,,Castle Rock,CO,80109,US,https://goodfellascolorado.com/,3036609377,goodfellascolorado@gmail.com,2018-12-18,2018-12-18,Yes,S,CBD,Yes,,
Laughing Lion Herbs,4987 Factory Shops Blvd,,Castle Rock,CO,80108,US,https://laughinglionherbs.com/,7193096943,store@laughinglionherbs.com,2021-03-07,2021-03-07,Yes,C,CBD,Yes,,
Smoker Friendly,754 S Perry St Unit A,,Castle Rock,CO,80104,US,http://smokerfriendly.com/,3036636629,,2020-01-13,,Yes,S,CBD,,,
VAPEz Castle Rock,324 E Miller Ct,,Castle Rock,CO,80104,US,https://www.vapezco.com/,3038625679,vapezcr@gmail.com,2019-08-10,,Yes,V,CBD,,,
Centennial Vapor - East Arapahoe,8586 E Arapahoe Rd Ste 130,,Centennial,CO,80112,US,http://www.centennialvapor.com/,7205157432,info@centennialvapor.com,2014-09-14,2019-03-25,Yes,V,CBD,Yes,,
VapeWize,5210 E Arapahoe Rd Ste F2,,Centennial,CO,80122,US,,7203284353,vapewize@gmail.com,2018-10-11,,,V,,,,
A Perfect Vape,3033 Jet Wing Dr,,Colorado Springs,CO,80916,US,https://aperfectvape.com/,7193586641,chris@aperfectvape.com,2014-09-26,2019-03-12,,V,,,,
Absolute Vapor,5020 N Academy Blvd,,Colorado Springs,CO,80918,US,https://absolutevaper.com/,7193778817,absolutevaporlounge@gmail.com,2014-09-14,2021-12-10,Yes,V,CBD,,,
Absolute Vapor,308 S 8th St Ste J,,Colorado Springs,CO,80904,US,https://www.absolutevaporcs.com/,7193988273,,2021-12-10,2021-12-10,Yes,V,CBD,,,
Adventure CBD & Hemp,3404 W Colorado Ave,,Colorado Springs,CO,80904,US,https://adventurecbd.com,8443742223,info@adventurecbd.com,2019-08-13,2019-08-13,Yes,C,CBD,,,
American Vape & E-Cigs,1710 Briargate Blvd Ste 728,,Colorado Springs,CO,80920,US,http://www.americanvapecos.com/,7195981570,american.vape.colorado@gmail.com,2016-11-27,2019-12-23,Yes,V,CBD,,,
Blown Smoke Shop,424 W Fillmore St,,Colorado Springs,CO,80907,US,,7194735747,,2018-10-14,,,S,,,,
Buddhas Hookah and Glass,1833 Briargate Blvd,,Colorado Springs,CO,80920,US,,7193750625,,2019-12-03,2019-12-03,Yes,S,CBD,,,
CBD Life,826 E Fillmore St Ste B,,Colorado Springs,CO,80909,US,https://www.cbdlife.online/,7199007666,coloradosbigdiscovery@gmail.com,2020-02-04,,Yes,C,CBD,Yes,,
CBD Life,2929 Galley Rd,,Colorado Springs,CO,80909,US,http://coloradosbigdiscovery.com,7198964172,coloradosbigdiscovery@gmail.com,2020-02-04,,Yes,C,CBD,Yes,,
Chief Vapor,975 Academy Blvd N Ste B,,Colorado Springs,CO,80909,US,http://www.chiefvapor.biz/,7193751411,shop@chiefvapor.biz,2019-01-27,2019-01-27,Yes,V,CBD,,,
Chief Vapor,955 Garden Of The Gods Rd,,Colorado Springs,CO,80907,US,https://chiefvapor.com/,7194341547,,2021-12-16,2021-12-16,,V,,,,
Chief Vapor,3741 Bloomington St,,Colorado Springs,CO,80922,US,http://www.chiefvapor.biz,7194182462,shop@chiefvapor.biz,2018-06-17,2019-01-27,Yes,V,CBD,,,
DBK Glass Creations,2833 N El Paso St #120,,Colorado Springs,CO,80907,US,http://www.dbkglasscreations.com,7194424325,dbkglass.shop@gmail.com,2018-11-15,,,H,,,,
Discover CBD,3438 N Academy Blvd,,Colorado Springs,CO,80917,US,http://www.discovercbd.com,7193587553,,2019-03-24,,Yes,C,CBD,,,
Discover CBD,22 S Chestnut St Unit B,,Colorado Springs,CO,80905,US,https://discovercbd.com,7195994180,,2020-12-22,,Yes,C,CBD,,,
Docta Rasta CBD,2919 W Colorado Ave,,Colorado Springs,CO,80904,US,https://doctarasta.com/,7193586342,info@doctarasta.com,2020-11-12,,Yes,C,CBD,,,
Dragons Lair Vapors,2585 Airport Rd,,Colorado Springs,CO,80910,US,https://www.dragonslairvapors.com/,7194738648,dragonslairvape1@gmail.com,2015-02-04,2019-09-21,Yes,V,CBD,,,
Earth Pig Music,1953 W Uintah St,,Colorado Springs,CO,80904,US,,7195759847,,2018-10-27,,,H,,,,
Elev8 Glass Gallery,517 S Tejon St,,Colorado Springs,CO,80903,US,http://elev8glassgallery.com,7192978420,elev8glassgallery@gmail.com,2018-12-23,,Yes,H,CBD,,,
Extreme Vape Shop,6533 N Academy Blvd,,Colorado Springs,CO,80918,US,http://extremevapeshop.com/,7192651073,extremevapeshopinc@gmail.com,2018-08-06,2019-12-20,Yes,V,CBD,,,
Freakys,1714 Brookwood Dr,,Colorado Springs,CO,80918,US,http://www.freakys.com,7195750420,info@freakys.com,2018-12-28,2018-12-28,Yes,H,CBD,,,
Freakys,308 E Platte Ave,,Colorado Springs,CO,80903,US,http://www.freakys.com,7195360400,info@freakys.com,2018-12-28,2018-12-28,Yes,H,CBD,,,
Galaxy Glass Smoke Shop,578 S Academy Blvd,,Colorado Springs,CO,80910,US,,7194247043,,2022-03-30,2022-03-30,,H,,,,
Glass Act,4327 N Academy Blvd,,Colorado Springs,CO,80918,US,,9728977112,,2022-01-10,2022-01-10,Yes,H,CBD,Yes,,
Head Shop by Elev8 Glass Gallery (HEMP),1323 Paonia St,,Colorado Springs,CO,80915,US,http://higherelevations.net/,7196465352,higherelevationmp@gmail.com,2018-12-21,,,H,,,,
Hemp Depot,3147 N Century St,,Colorado Springs,CO,80907,US,https://hempdepotco.com/,8444367234,marketing@hempdepotco.com,2019-12-18,,,C,,,,
Hookah Emporium,805 W Garden of the Gods Rd,,Colorado Springs,CO,80907,US,,7193588607,hookahemporium@gmail.com,2019-12-03,2019-12-03,Yes,S,CBD,,,
Independent Records Main,3030 E Platte Ave,,Colorado Springs,CO,80909,US,https://www.beindependent.com,7194730882,independent@beindependent.com,2018-10-27,2019-06-15,,H,,,,
Jvapes Lounge,3924 N Academy Blvd,,Colorado Springs,CO,80917,US,https://www.jvapes.com/,7196948985,colorado@jvapes.com,2018-08-06,2019-12-27,,V,,,,
La Dulce Vapor Lab,1045 Garden Of The Gods Rd Ste B,,Colorado Springs,CO,80907,US,https://www.ladulcevapor.com/,7192034509,,2019-05-16,,,V,,,,
Laughing Lion Apothecary,5310 Montebello Ln,,Colorado Springs,CO,80918,US,https://www.laughinglionapothecary.com/,7193096943,store@laughinglionapothecary.com,2019-12-23,2019-12-23,Yes,C,CBD,Yes,,
Master Vapors,423 N Circle Dr,,Colorado Springs,CO,80909,US,http://master-vapors.com/,7197222869,mastervapors.co@gmail.com,2015-02-04,2019-01-27,Yes,V,CBD,,,
Myxed Up Creations,3945 N Academy Blvd,,Colorado Springs,CO,80917,US,https://www.myxedup.com/,7195760176,,2018-09-30,,Yes,H,CBD,,,
Oya Vape,722 Cheyenne Meadows Rd,,Colorado Springs,CO,80906,US,https://oyavape.com/,7193751258,oyavape@gmail.com,2018-08-16,2019-07-09,Yes,V,CBD,,,
Papa Legba's Gallery,3834 Maizeland Rd,,Colorado Springs,CO,80909,US,https://papa-legbas-gallery.business.site/,7199858139,,2022-03-22,2022-03-22,,H,,,,
Phenix CBD,1348 N Academy Blvd,,Colorado Springs,CO,80909,US,,7193445588,phenixcbd@gmail.com,2019-12-21,,Yes,C,CBD,,,
Pipes Peak,1204 W Colorado Ave,,Colorado Springs,CO,80904,US,http://www.smokeshopcoloradosprings.com/,7194653781,pipespete@yahoo.com,2018-12-14,,,H,,Yes,,
Puff the Magic Smoke Shop,3306 Austin Bluffs Pkwy,,Colorado Springs,CO,80919,US,,7192655133,,2018-12-31,,,H,,,,
Session Supply Co.,5664 Academy Blvd N,,Colorado Springs,CO,80918,US,,7193589734,info@sessionsupply.com,2018-08-25,2020-02-24,Yes,V,CBD,,,
Smoker City Emporium,3313 W Colorado Ave Ste A,,Colorado Springs,CO,80904,US,http://smokercitycs.wixsite.com/smokercity,7196357862,,2018-11-14,,,S,,,,
Smoker Friendly,1805 S Nevada Ave,,Colorado Springs,CO,80905,US,http://www.smokerfriendly.com,7194730446,,2018-10-24,2018-10-28,Yes,S,CBD,,,
Smoker Friendly,1437 N Circle Dr,,Colorado Springs,CO,80909,US,http://smokerfriendly.com/,7195785250,,2020-03-03,,,S,,Yes,,
Smoker Friendly,362 Main St,,Colorado Springs,CO,80911,US,http://www.smokerfriendly.com/,7193905996,,2020-03-04,,Yes,S,CBD,,,
Smoker King Tobacco and Liquor,1951 W Uintah St,,Colorado Springs,CO,80904,US,,7196336320,,2021-12-31,2021-12-31,,S,,,,
Smokers Emporium,5 S Circle Dr,,Colorado Springs,CO,80910,US,,7196331970,,2020-03-11,2020-03-11,Yes,S,CBD,,,
The Bomb Head Shop,2644 E Platte Ave,,Colorado Springs,CO,80909,US,http://thebombheadshop.com,7194731203,,2018-10-28,,,H,,Yes,,
The Smoke Academy,3051 S Academy Blvd,,Colorado Springs,CO,80916,US,,7194347420,,2018-10-28,2018-10-28,Yes,S,CBD,Yes,,
Third Coast Headies,1909 N Academy Blvd,,Colorado Springs,CO,80909,US,,7196661988,thirdcoastheadies@gmail.com,2020-08-24,,Yes,H,CBD,Yes,,
Tree Life,2523 S Chelton Rd,,Colorado Springs,CO,80916,US,https://tree-life-cigar-shop.business.site/,7193900420,,2020-08-01,,Yes,S,CBD,,,
Vapor Bay,4340 Austin Bluffs Pkwy,,Colorado Springs,CO,80918,US,,7193753592,vaporbay.co@gmail.com,2018-08-25,2020-02-24,,V,,,,
Vapor Source,217 Saint Elmo Ave,,Colorado Springs,CO,80905,US,,7196359122,,2022-04-14,2022-04-14,,V,,,,
Vapor Source,4339 N Academy Blvd,,Colorado Springs,CO,80918,US,https://vaporsource.com/,7196948008,support@vaporsource.com,2018-08-25,2020-02-25,,V,,,,
Vapor Source,2884 N Powers Blvd,,Colorado Springs,CO,80922,US,https://vaporsource.com/,7193587281,support@vaporsource.com,2018-08-25,2020-02-25,,V,,,,
Vapor Uprising,308 W Fillmore St,,Colorado Springs,CO,80907,US,http://www.vapor-up-rising.com/,7196332126,misstool@msn.com,2018-09-24,,,V,,,,
Zen Cigar & Pipe Lounge,4650 N Nevada Ave Ste B,,Colorado Springs,CO,80918,US,https://zen-cigar-lounge.business.site/,7196444072,,2021-12-12,2021-12-12,Yes,T,CBD,,,
Rusty's Vape & Smoke Shop,6089 Quebec St Ste C,,Commerce City,CO,80022,US,https://rustysvapeandsmokeshop.com/,3032874111,rustyssmokeshop@gmil.com,2018-08-16,2019-11-03,Yes,S,CBD,,,
Smoker Friendly,5896 E 72nd Ave,,Commerce City,CO,80022,US,http://smokerfriendly.com/,3032886931,,2020-03-06,2020-03-06,Yes,S,CBD,Yes,,
Conifer Vapor,25797 Conifer Rd Ste C-200,,Conifer,CO,80433,US,https://conifer-vapor.business.site/,3036696887,kedavis@hotmail.com,2019-08-08,2022-01-03,Yes,V,CBD,,,
Taspen's Healing Center,25797 Conifer Rd Unit C-130,,Conifer,CO,80433,US,https://www.taspenshealingcenter.com/,3038161246,info@taspenshealingcenter.com,2020-12-23,,Yes,C,CBD,,,
Cloud 970 Vapor & Glass,76 S Veach St,,Cortez,CO,81321,US,http://www.cloud970vapor.com/,9705651665,cloud970vapor@yahoo.com,2019-03-31,2019-03-31,,V,,,,
Elevated Smoke'N Vape,2236 E Main St,,Cortez,CO,81321,US,,9705649901,,2018-08-16,2020-02-12,,S,,Yes,,
Smoker Friendly,40 E Victory Way,,Craig,CO,81625,US,http://smokerfriendly.com/,9708262967,,2020-03-04,,,S,,,,
The Crested Butte Tobacconist,319 Elk Ave Ste 10,,Crested Butte,CO,81224,US,http://www.cbtobacconist.com,9703497041,cb_tobacconist@hotmail.com,2018-12-10,2018-12-10,Yes,S,CBD,Yes,,
U-Pump-It of Dacono,600 Glen Creighton Dr,,Dacono,CO,80514,US,,3038330176,,2022-01-25,2022-01-25,,O,,,,
Rocky Mountain Vape Shop,411 Main St,,Delta,CO,81416,US,https://rockymountainvapeshop.com/,9703993700,rockymountainvapeshop@gmail.com,2019-05-09,2019-05-09,Yes,V,CBD,Yes,,
710 Pipes,1711 E Evans Ave,,Denver,CO,80210,US,https://www.710pipes.com/,3033650710,710pipes@gmail.com,2018-07-02,2018-10-12,,S,,Yes,,
Aftermath Vapor and CBD,8601 W Cross Dr Ste F8,,Denver,CO,80123,US,http://aftermathvapor.com/,3039046932,info@aftermathvapor.com,2018-08-25,2021-06-13,Yes,V,CBD,Yes,,
Alpine E-Vapor,1412 S Parker Rd Unit A130,,Denver,CO,80231,US,http://www.alpineevapor.com,7205358323,info@alpineevapor.com,2018-06-08,2019-03-12,Yes,V,CBD,,,
Broadway Smoke Shop,108 S Broadway,,Denver,CO,80209,US,https://www.broadwaysmokeshop303.com/,3039454677,broadwaysmokeshop303@gmail.com,2018-12-03,2018-12-03,Yes,H,CBD,Yes,,
Centennial Vapor - DU,2323 E Evans Ave,,Denver,CO,80210,US,http://www.centennialvapor.com/,3035019922,info@centennialvapor.com,2016-09-03,2019-03-25,Yes,V,CBD,Yes,,
Cignot Denver,1412 W 38th Ave,,Denver,CO,80211,US,http://www.cignotcolorado.com/,3034778273,info@cignotcolorado.com,2018-10-18,2019-05-12,,V,,,,
Clouds Glass Vape Kratom CBD Hookah Shop,2238 S Colorado Blvd,,Denver,CO,80222,US,,3037564956,thecloudsvapeandhookah@gmail.com,2022-01-20,2022-01-20,Yes,H,CBD,Yes,,
CO Vape & Toke,4894 Chambers Rd,,Denver,CO,80239,US,,7205354097,,2021-12-13,2021-12-13,,V,,,,
Color Up Therapeutics,2191 S Broadway,,Denver,CO,80223,US,https://coloruptherapeutics.com/,7204201734,,2019-08-21,2019-08-21,Yes,C,CBD,,,
Colorado Vape & Glass Co.,1871 S Broadway,,Denver,CO,80210,US,https://coloradovapeandglass.com/,3037220673,info@coloradovapeandglass.com,2018-10-20,2019-11-03,Yes,S,CBD,,,
Daddy Danks II,2401 S Colorado Blvd,,Denver,CO,80222,US,http://daddydanks.com/,3037563670,,2019-01-17,,,S,,,,
Denver Electronic Cigarettes,4340 E Kentucky Ave Ste 140,,Denver,CO,80246,US,https://denverelectroniccigarettes.com/,7204312032,sales@denverelectroniccigarettes.com,2018-08-16,2020-02-12,Yes,V,CBD,,,
"Denver Vape, Pipe & Tobacco",1014 S Federal Blvd,,Denver,CO,80219,US,,3039228000,,2018-08-06,2019-09-16,,S,,,,
Denver Vapor,1501 Boulder St,,Denver,CO,80211,US,https://denver-vapor.com/,7204567387,,2018-08-25,2020-02-24,Yes,V,CBD,,,
Denver Vapor,550 E 13th Ave,,Denver,CO,80203,US,http://www.denver-vapor.com,7203286562,,2018-06-17,2019-08-12,Yes,V,CBD,,,
Dicronix,25 E Dakota Ave,,Denver,CO,80209,US,http://dicronixart.com,3035645156,dicronixart@gmail.com,2018-10-29,,,H,,,,
Explore Glass Gallery,209 Kalamath St Ste 16,,Denver,CO,80223,US,,7205027664,sales@exploreglassgallery.com,2018-12-10,,,H,,,,
Freakys,5136 W 41st Ave,,Denver,CO,80212,US,http://www.freakys.com,3034587326,info@freakys.com,2018-12-28,2018-12-28,Yes,H,CBD,,,
Freakys,5701 E Colfax Ave,,Denver,CO,80220,US,http://www.freakys.com,3037652628,info@freakys.com,2018-12-28,,Yes,H,CBD,,,
Going Vapes,1625 W 38th Ave,,Denver,CO,80211,US,,7205779663,goingvapes@gmail.com,2018-06-17,2019-06-27,,V,,,,
Good Vibe CBD,4956 E Colfax Ave,,Denver,CO,80220,US,https://goodvibecbd.com/,7205358284,info@goodvibemafia.com,2019-08-21,,Yes,C,CBD,,,
HeadQuarters Smoke & Vape,611 E 13th Ave,,Denver,CO,80203,US,,3038302444,info@420hqdenver.com,2018-10-22,2018-10-22,,S,,,,
Headrush Smoke Shop,606 E 13th Ave,,Denver,CO,80203,US,https://headrushsmokeshop.weebly.com/,3038611383,,2018-11-06,,,H,,,,
Heady Glass Emporium,20 E Colorado Ave,,Denver,CO,80210,US,http://headyglassemporium.com/,7202765956,purprt67@gmail.com,2019-11-28,2019-11-28,Yes,S,CBD,,,
Herbal Daze,4530 E Colfax Ave,,Denver,CO,80220,US,,3033331445,,2018-10-22,,,S,,Yes,,
Home Sweet Home,20 Sheridan Blvd,,Denver,CO,80226,US,,3039228777,,2018-10-27,2018-10-27,Yes,H,CBD,,,
House of Imports,1438 Tremont Pl,,Denver,CO,80202,US,,3036230866,,2019-06-15,,,S,,,,
Hush Vapor Lounge,1908 E Colfax Ave,,Denver,CO,80218,US,https://www.hushvaporlounge.com/,3032339300,info@hushvaporlounge.com,2018-08-06,2021-06-11,Yes,V,CBD,,,
Hush Vapor/CBD,1355 N Santa Fe Dr Unit E,,Denver,CO,80204,US,https://www.hushvaporlounge.com/,7206743892,info@hushvaporlounge.com,2021-06-11,,Yes,V,CBD,,,
I Got U Vape N Glass,4407 W 52nd Ave Ste A,,Denver,CO,80212,US,https://i-got-u-vape-n-glass.business.site/,3033596809,,2019-05-31,2019-05-31,,V,,,,
Illuzion Glass Galleries,238 Broadway St,,Denver,CO,80209,US,http://www.illuzionglassgalleries.com/,7204200021,denverglassgallery@gmail.com,2018-12-31,,,H,,,,
KRUSH CBD,2150 S Bellaire St Ste 106,,Denver,CO,80222,US,https://www.shopkrush.co/,3032145340,culturekrush@gmail.com,2021-05-13,,Yes,C,CBD,,,
Marley's Broadway,2574 S Broadway St,,Denver,CO,80210,US,http://www.marleysdenver.com/,3033799277,marleys11@gmail.com,2018-12-27,2018-12-27,,H,,,,
Meadowlark64,2701 Larimer St,,Denver,CO,80205,US,https://www.meadowlark64.com/,7204567028,meadowlark64@icloud.com,2018-08-16,2020-02-12,Yes,H,CBD,,,
Myxed Up Creations,5800 E Colfax Ave,,Denver,CO,80220,US,https://www.myxedup.com/,3033228200,info@myxedup.com,2018-09-30,,Yes,H,CBD,,,
Nick-Mart 2,109 S Federal Blvd,,Denver,CO,80219,US,,3039229597,,2022-01-27,2022-01-27,,S,,,,
Pachamama CBD,1288 S Broadway,,Denver,CO,80210,US,https://enjoypachamama.com/,7208287699,hello@enjoypachamama.com,2021-02-14,,Yes,C,CBD,,,
Purple Haze,1355 Santa Fe Dr Ste C,,Denver,CO,80204,US,http://shoppurplehaze.com/,3035774293,info@shoppurplehaze.com,2018-08-16,2018-11-23,,H,,Yes,,
Purple Haze,1951 S Broadway,,Denver,CO,80210,US,https://www.shoppurplehaze.com/,3037150055,info@shoppurplehaze.com,2018-08-16,2020-02-12,,H,,Yes,,
Purple Haze,2017 E Colfax Ave,,Denver,CO,80206,US,https://www.shoppurplehaze.com/,3033290055,info@shoppurplehaze.com,2018-08-16,2020-02-12,,H,,Yes,,
Rigs 4 Us,5912 E Colfax Ave,,Denver,CO,80220,US,https://rigs4us.shop/,7203906690,rigs4us@gmail.com,2018-11-01,2022-03-14,Yes,H,CBD,,,
Royal Pipes And Hookahs,10890 E Dartmouth Ave Unit 10,,Denver,CO,80014,US,,7207487735,,2018-12-31,2018-12-31,Yes,S,CBD,Yes,,
Rusty's Vape & Smoke Shop,4611 Peoria St Unit A1,,Denver,CO,80239,US,https://rustysvapeandsmokeshop.com/,3033078789,rustyssmokeshop@gmail.com,2018-08-16,2019-11-03,Yes,S,CBD,,,
Smoked Out,1311 W Alameda Ave,,Denver,CO,80223,US,,3032823883,,2019-09-23,,,S,,,,
Smoker Friendly,1410 S Sheridan Ave,,Denver,CO,80232,US,https://smokerfriendly.com/,3039363778,,2021-12-31,2021-12-31,Yes,S,CBD,Yes,,
Smoker Friendly,2223 S Monaco Pkwy Unit D-14,,Denver,CO,80222,US,http://smokerfriendly.com/,3033009845,,2020-03-04,,,S,,,,
Smokes And Vapes,4085 E Mississippi Ave Ste E,,Denver,CO,80246,US,https://smokesandvapes.business.site/,7203356487,,2019-01-01,,Yes,S,CBD,,,
Smokey Warez Smoke Shop,120 W 84th Ave,,Denver,CO,80260,US,https://smokeywarez.com/,7205921205,team@smokeywarez.com,2019-10-07,,Yes,S,CBD,,,
Smokey's Pipe & Tobacco,10019 E Hampden Ave,,Denver,CO,80231,US,,3036959747,,2018-11-06,,Yes,S,CBD,,,
Super Smoke Shop,7920 E Mississippi Ave #L,,Denver,CO,80247,US,,7205734803,,2019-07-07,,Yes,S,CBD,Yes,,
Super Smoke Shop,6487 Leetsdale Dr,,Denver,CO,80224,US,,7206394399,,2019-07-07,2019-07-07,Yes,S,CBD,Yes,,
Synergy's Cigarettes,2400 E 88th Ave Ste D,,Denver,CO,80229,US,,3039558046,,2018-10-24,,,S,,,,
The Bomb Head Shop,4815 E Colfax Ave,,Denver,CO,80220,US,https://www.thebombheadshop.com/,7203288006,,2018-09-29,,,H,,,,
The Bomb Head Shop,5042 Federal Blvd,,Denver,CO,80221,US,http://www.thebombheadshop.com/,7203796393,,2020-04-16,,Yes,H,CBD,Yes,,
The CBD Suite,1078 S Gaylord St,,Denver,CO,80209,US,http://www.thecbdsuite.com,3037771833,info@thecbdsuite.com,2020-04-06,,Yes,C,CBD,,,
The Coffee Joint by Yuma Way,1130 Yuma Ct,,Denver,CO,80204,US,https://thecoffeejointco.com/,17205834657,thecoffeejoint@yumaway.com,2021-06-01,,Yes,H,CBD,,,
The Glass Hut,1350 S Sheridan Blvd Ste 9,,Denver,CO,80232,US,,7203534295,jponcega@gmail.com,2018-12-31,,,H,,,,
Vaper Jungle,7033 E Colfax Ave,,Denver,CO,80220,US,https://www.vaperjungle.com/,3039756226,dwightvaperjungle@gmail.com,2022-04-04,2022-04-04,Yes,V,CBD,,,
Vapergate,1950 S Holly St Unit  6,,Denver,CO,80222,US,https://vapergate.com/,7204001393,retail@vapergate.com,2022-02-08,2022-02-08,,V,,,,
VaperTech,10101 E Hampden Ave Ste 105,,Denver,CO,80231,US,http://vapertech.com/,3033534063,info@vapertech.com,2018-08-25,2020-02-24,,V,,,,
Vapor Glass Smoke Shop,4309 S Lowell Blvd,,Denver,CO,80236,US,https://vaporglass.us/,7205101760,,2021-12-28,2021-12-28,Yes,V,CBD,,,
VaporCore,2120 S Broadway Unit G,,Denver,CO,80210,US,https://vaporcore.myshopify.com/,7202294612,vaporcore@gmail.com,2018-08-25,2020-02-25,,V,,Yes,,
3rd Eye Vapor,3102 Main Ave Ste 15,,Durango,CO,81301,US,,9707644202,,2018-07-02,2019-07-18,Yes,V,CBD,Yes,,
4 Corners Cannabis,72 Suttle St Ste J,,Durango,CO,81303,US,https://4cornerscannabis.com/,9703981649,info@4cornerscannabis.com,2020-11-15,,Yes,C,CBD,,,
43 CBD Solutions,194 Bodo Dr,,Durango,CO,81303,US,https://www.43cbd.com/,9703097890,dontje@43cbd.com,2020-11-15,,Yes,C,CBD,,,
CannaBuddies,72 Suttle St Ste J,,Durango,CO,81301,US,https://cannabuddies.com/,9704033385,info@cannabuddies.com,2020-11-22,,Yes,C,CBD,,,
CBD Superstore Durango,145 E College Dr #10,,Durango,CO,81301,US,https://cbdsuperstoredurango.com/,9704033990,cbdsuperstoredurango@gmail.com,2020-06-28,,Yes,C,CBD,,,
Cloud 9 Head Shop,600 Main Ave Ste 1,,Durango,CO,81301,US,,9708440712,cloudnineheadshop@gmail.com,2018-10-27,2021-12-30,,H,,Yes,,
Durango Smoke Shop,113 W College Dr,,Durango,CO,81301,US,http://durangosmokeshop.com,9702479115,info@durangosmokeshop.com,2018-10-21,2018-11-11,,S,,,,
Gandolf's Smoke Shop,2165 Main Ave,,Durango,CO,81301,US,,9703858477,,2018-08-06,2020-02-29,,S,,,,
Lee Hemp,278 Sawyer Dr Ste 4,,Durango,CO,81303,US,https://leehempcbd.com/,9703171257,info@leehemp.com,2021-03-08,,Yes,C,CBD,,,
Southwest Vapor,72 Suttle St Ste B,,Durango,CO,81303,US,http://swvapor.com/,9702471261,info@swvapor.com,2018-08-16,2020-02-12,Yes,V,CBD,,,
VAPE Durango,1019 Main Ave,,Durango,CO,81301,US,,9704401319,vapedurango@gmail.com,2018-08-25,2020-02-24,Yes,V,CBD,,,
DaBong Headshop,2556 Sheridan Blvd,,Edgewater,CO,80212,US,https://dabong.biz/,3034722640,dabong.biz@gmail.com,2022-02-11,2022-02-11,Yes,H,CBD,Yes,,
All Things CBD,188e Main St,,Edwards,CO,81632,US,http://www.allthingscbd.com,9704718513,allthingscbdvail@gmail.com,2019-12-23,,Yes,C,CBD,,,
VAPEz Elizabeth,133 Co Rd 17 Unit B #2431,,Elizabeth,CO,80107,US,https://www.vapezco.com,3036463834,,2019-08-11,,Yes,V,CBD,,,
Axis Labs,96 Inverness Dr E Ste H,,Englewood,CO,80112,US,https://axislabscbd.com/,8772947522,sales@axislabs.com,2020-11-18,,Yes,C,CBD,,,
Buzz Smoke Shop,3912 S Broadway,,Englewood,CO,80113,US,https://www.buzzsmokeshopco.com/,7202871156,,2021-12-11,2021-12-11,Yes,S,CBD,,,
Headed West,4811 S Broadway,,Englewood,CO,80113,US,http://www.theheadedwest.com,3034222120,theheadedwest@gmail.com,2018-08-06,2018-10-22,Yes,S,CBD,Yes,,
Inno-Vapor,332 W Hampden Ave,,Englewood,CO,80110,US,https://www.inno-vapor.com/,7203356743,vapeitcolorado@gmail.com,2018-08-06,2019-12-25,,V,,,,
Positive Vibes Smoke & Gifts Shop,3398 S Broadway,,Englewood,CO,80113,US,https://positivelyvibe.com/,3033864660,pvibes333@gmail.com,2018-08-16,2020-02-12,Yes,H,CBD,,,
Smoke Loud Gift Shop,4346 S Broadway,,Englewood,CO,80113,US,,3037615683,,2021-12-20,2021-12-20,Yes,S,CBD,,,
Smoker Friendly,5050 S Federal Blvd #29,,Englewood,CO,80110,US,http://smokerfriendly.com/,3037340689,,2020-03-05,2020-03-05,Yes,S,CBD,Yes,,
Wellicy CBD,14 Inverness Dr E Ste B132,,Englewood,CO,80112,US,https://wellicy.com/,8449355429,hello@wellicy.com,2020-01-31,2020-01-31,Yes,C,CBD,,,
Pure Spectrum,27905 Meadow Dr #11,,Evergreen,CO,80439,US,https://www.purespectrumcbd.com/,3036745759,support@purespectrumcbd.com,2021-02-08,,Yes,C,CBD,,,
Vapor Uprising,7663 McLaughlin Rd,,Falcon,CO,80831,US,http://www.vapor-up-rising.com/,7194652036,misstool@msn.com,2018-09-24,,,V,,,,
3OH3 Smokes and Vapes,10250 Federal Blvd Ste 500,,Federal Heights,CO,80260,US,https://3oh3smokesandvapes.com/,3039938445,3oh3snv@gmail.com,2021-12-10,2021-12-10,Yes,S,CBD,Yes,,
E-Cig of Denver,8868 Federal Blvd Ste 18A,,Federal Heights,CO,80260,US,http://www.ecigdenver.com,3038233244,info@ecigdenver.com,2018-10-21,,,V,,,,
Still Smoken,8411 N Pecos St Unit F,,Federal Heights,CO,80260,US,https://stillsmoken.mobi/,3034290486,,2019-06-24,,,S,,,,
Absolute Vapor Fort Collins,3307 S College Ave #109A,,Fort Collins,CO,80525,US,https://absolutevaper.com/,9703721118,absolutevaporlounge@gmail.com,2018-07-02,2021-12-10,Yes,V,CBD,,,
Cannaco CBD,3645 S College Ave #5,,Fort Collins,CO,80525,US,https://www.cannacocbd.com/,9702233177,info@cannacocbd.com,2020-11-22,,Yes,C,CBD,,,
Cannagea CBD,2716 S College Ave Ste D,,Fort Collins,CO,80525,US,https://cannagea.com/,9709995712,info@cannagea.com,2020-06-18,,Yes,C,CBD,,,
CBD Central,514 S College Ave Unit C,,Fort Collins,CO,80524,US,,9704130543,,2020-11-24,,Yes,C,CBD,,,
CBDepot - Fort Collins,6617 S College Dr Bldg B,,Fort Collins,CO,80525,US,,9705685440,,2019-08-14,,Yes,C,CBD,,,
Cigarette King,755 S Lemay Ave #D1,,Fort Collins,CO,80524,US,,9704071127,,2019-08-25,2019-08-25,,T,,,,
Farmhouse Hemp,1007 N College Ave,,Fort Collins,CO,80524,US,https://www.farmhousehemp.com/,9706164414,info@farmhousehemp.com,2021-01-04,,Yes,C,CBD,,,
Fort Collins Warehouse Liquors,4700 E Boardwalk Dr,,Fort Collins,CO,80525,US,http://www.fortcollinswarehouseliquors.com,9702251300,,2018-08-06,2019-12-22,,T,,,,
"Green Cherry Organics, LLC",900 N Taft Hill Rd,,Fort Collins,CO,80521,US,https://www.greencherryorganics.com/,9706319053,orders@greencherryorganics.com,2021-01-15,,Yes,C,CBD,,,
Kind Creations,828 S College Ave,,Fort Collins,CO,80524,US,https://www.kindcreationsfortcollins.com/,9702214990,kindcreationsglass@gmail.com,2018-08-16,2020-02-12,Yes,H,CBD,,,
One Love Smoke Shop,700 S College Ave Ste B,,Fort Collins,CO,80524,US,,9704842340,,2018-11-27,2020-04-16,Yes,H,CBD,Yes,,
Red Star Vapor,1015 S Taft Hill Rd #G-2,,Fort Collins,CO,80521,US,https://www.redstarvapor.com/,9704880311,feedback@redstarvapor.com,2018-08-06,2020-01-01,Yes,V,CBD,,,
Smoker Friendly,1054 W Vine Dr,,Fort Collins,CO,80521,US,http://www.smokerfriendly.com/,9704825810,,2020-03-03,2020-03-03,Yes,S,CBD,,,
Smokey Monkey Pipes & Tobacco,1232 W Elizabeth St Ste C-12,,Fort Collins,CO,80521,US,,9707972664,,2018-08-16,2020-02-12,,S,,,,
Smokey Monkey Pipes & Tobacco,1119 W Drake Rd Ste C42,,Fort Collins,CO,80526,US,,9703771115,,2019-06-24,,,S,,,,
The Joint Smoke Shop,2427 S College Ave #124B,,Fort Collins,CO,80525,US,,9704820441,thejoint_fortcollins@hotmail.com,2018-11-09,,Yes,H,CBD,,,
Up'n Smoke,514 S College Ave Unit B,,Fort Collins,CO,80524,US,,9704720025,upnsmokefoco@gmail.com,2018-08-25,2020-02-24,Yes,H,CBD,,,
Vape Colorado,2451 S College Ave Ste 1B,,Fort Collins,CO,80526,US,https://www.vapecolorado.co/,9704939862,vapetherockies@gmail.com,2018-09-30,,Yes,V,CBD,,,
VaporCore,1017 S Lemay Ave,,Fort Collins,CO,80524,US,,9703101659,,2018-08-25,2020-02-25,,V,,,,
Wild Side Smoke Shop,644 S College Ave,,Fort Collins,CO,80524,US,,9706893523,,2018-10-22,2021-01-05,Yes,S,CBD,,,
DaggleBeez,316 Miranda Ave Ste A,,Fort Garland,CO,81133,US,https://dagglebeez.com,7192987093,dagglebeez@gmail.com,2020-06-26,,Yes,C,CBD,,,
Blown Glass Gifts,300 E Platte Ave Ste 300,,Fort Morgan,CO,80601,US,,7209653874,fmblownglass@gmail.com,2019-06-16,,Yes,H,CBD,Yes,,
Fort Morgan E-Cig,835 E Platte Ave,,Fort Morgan,CO,80701,US,,9707687848,,2020-06-13,2020-06-13,,V,,,,
"G & L CBD Oils, LLC",830 Main St Ste A,,Fort Morgan,CO,80701,US,https://g-l-cbd-oils-llc.business.site/,9704278837,gandlcbdoils@gmail.com,2021-01-09,,Yes,C,CBD,,,
Smoker Friendly,6924 Mesa Ridge Pkwy,,Fountain,CO,80817,US,http://smokerfriendly.com/,7193910900,,2019-11-29,,,S,,Yes,,
Vapor Source,8027 Fountain Mesa Rd,,Fountain,CO,80817,US,https://vaporsource.com/,7193829223,support@vaporsource.com,2018-08-25,2020-02-25,,V,,,,
Reboot CBD Colorado,2041 N State Hwy 83 Unit C,,Franktown,CO,80116,US,https://rebootcbdco.com/,7206381498,info@cannabisbiosciencedevelopment.com,2020-11-24,,Yes,C,CBD,,,
Budz House Of Vape,842 Summit Blvd #33,,Frisco,CO,80443,US,http://www.budzhov.com,9704558596,budzhov@gmail.com,2019-06-27,,,V,,,,
High Altitude 2,842 Summit Blvd Ste 37,,Frisco,CO,80443,US,http://www.aheadhigher.com/,9706684420,,2018-12-10,,,H,,,,
Smok N' Bra,101 N 3rd Ave Unit A,,Frisco,CO,80443,US,http://www.smoknbra.com,9706689665,smoknbra@hotmail.com,2018-12-10,,Yes,H,CBD,Yes,,
Smoker Friendly,433 US-6,,Fruita,CO,81521,US,http://smokerfriendly.com/,9708586400,,2020-03-04,2020-03-04,Yes,S,CBD,Yes,,
Freakys,4521 Leetsdale Dr,,Glendale,CO,80246,US,http://www.freakys.com,3033290420,info@freakys.com,2018-10-28,2018-12-28,Yes,H,CBD,,,
Smoker Friendly,2902 S Glen Ave Ste C,,Glenwood Springs,CO,81601,US,https://smokerfriendly.com/,9709289950,,2019-11-23,2019-11-23,Yes,S,CBD,Yes,,
West Wind,51027 US-6,,Glenwood Springs,CO,81601,US,,9709456909,,2018-11-17,2019-09-20,,H,,,,
Taspen's CBD Golden,700 12th St Unit #140,,Golden,CO,80401,US,https://taspens.com/,3032845602,info@taspens.com,2020-12-23,,Yes,C,CBD,,,
Vaportoke,16950 W Colfax Ave Ste 102,,Golden,CO,80401,US,https://www.vaportokeco.com/,3032787645,vaportoke@gmail.com,2018-08-25,2020-04-23,,V,,,,
K & J Smoke Shop,24 E Agate Ave,,Granby,CO,80446,US,,9705311594,,2019-12-23,2019-12-23,Yes,S,CBD,,,
970 CBD & Aromatherapy,1119 N 1st St Ste C,,Grand Junction,CO,81501,US,https://970-vapors-cbd.business.site/,9704240441,cbd970@yahoo.com,2020-11-15,,Yes,C,CBD,,,
Discontent Grand Junction,102 North Ave,,Grand Junction,CO,81501,US,http://discontent-grand-junction.business.site/,9705494724,discontentgrandjunction@gmail.com,2018-08-06,2019-09-16,Yes,H,CBD,Yes,,
Discontent Outlet,2977 North Ave,,Grand Junction,CO,81504,US,,9702457013,discontentgrandjunction@gmail.com,2019-09-06,,Yes,H,CBD,,,
Grand Valley Hemp Infusions,558 Main St,,Grand Junction,CO,81501,US,https://grandvalleyhempinfusions.com/,9704330771,gvhinfusions@gmail.com,2021-01-14,,Yes,C,CBD,,,
Lit In GJC,3002 Interstate 70 Business Lp Unit 5,,Grand Junction,CO,81504,US,,9706284624,,2018-10-29,2018-10-29,Yes,S,CBD,,,
Lizard Lounge Vapor,1141 N 25th St Ste H,,Grand Junction,CO,81501,US,,9706971255,lizardloungevapor@gmail.com,2018-08-06,2019-12-28,Yes,V,CBD,,,
Mad Max Postapocalyptic Smokeshop & Armory,1600 North Ave,,Grand Junction,CO,81501,US,,9704240385,,2020-01-06,,Yes,H,CBD,Yes,,
Smoke Shop Etc,507 30th Rd #1C,,Grand Junction,CO,81504,US,http://www.smokeshopetc.com/,9702434022,,2018-08-16,2020-02-12,,H,,Yes,,
Smoke Shop Etc,1059 North Ave,,Grand Junction,CO,81501,US,http://www.smokeshopetc.com/,9702429898,,2018-08-16,2020-02-12,Yes,H,CBD,Yes,,
Smoker Friendly,569 32 Rd #9B,,Grand Junction,CO,81504,US,http://smokerfriendly.com/,9704348011,,2020-03-06,,Yes,S,CBD,,,
Smoker Friendly,825 North Ave,,Grand Junction,CO,81501,US,http://smokerfriendly.com/,9702639864,,2020-03-06,2020-03-06,Yes,S,CBD,Yes,,
Smoker Friendly,2692 US-50 Ste B,,Grand Junction,CO,81503,US,http://smokerfriendly.com/,9702417378,,2018-11-01,2020-03-06,Yes,S,CBD,,,
Still Smokin',337 North Ave,,Grand Junction,CO,81501,US,,9704337388,,2018-09-29,,,S,,,,
The Bee Dynasty,524 Colorado Ave,,Grand Junction,CO,81501,US,,9709854201,thebeedynasty@gmail.com,2018-11-01,2019-06-21,Yes,H,CBD,Yes,,
420 Friendlys,6628 W 10th St Ste 101,,Greeley,CO,80634,US,https://420-friendlys.business.site/,9704515004,420friendlysglass@gmail.com,2018-10-23,,Yes,H,CBD,Yes,,
Bear Necessities,1506 8th Ave,,Greeley,CO,80631,US,http://bearnecessitiessmokeshop.com,9703510049,info@bearnecessitiessmokeshop.com,2018-08-06,2019-08-16,Yes,H,CBD,,,
CBDDY,2124 35th Ave,,Greeley,CO,80634,US,https://www.cbddy.com,9705735724,chris@cbddy.com,2020-07-31,2021-08-10,Yes,C,CBD,,,
Gold Care CBD,2015 9th St,,Greeley,CO,80634,US,https://goldcarecbd.com/,9707860900,goldcare7@gmail.com,2019-08-21,,Yes,C,CBD,,,
Highlander Smoke Shop,802 16th St,,Greeley,CO,80631,US,,9705155126,,2018-10-22,2019-03-26,Yes,S,CBD,,,
Natural Wellness CBD,5750 W 10th St,,Greeley,CO,80634,US,https://www.naturalwellness.care/,9706738619,naturalwellnessllc@outlook.com,2021-03-03,,Yes,C,CBD,,,
Nigel's Hotbox,2627 W 10th St Ste 5,,Greeley,CO,80634,US,,9707022582,we.are@nigelshotbox.com,2018-08-16,2019-08-20,,H,,Yes,,
One Love,1002 31st Ave,,Greeley,CO,80634,US,,9706998670,,2018-10-30,2018-10-30,Yes,H,CBD,Yes,,
Red Star Vapor,2132 35th Ave,,Greeley,CO,80634,US,https://www.redstarvapor.com/,9708880874,feedback@redstarvapor.com,2018-08-06,2020-01-01,Yes,V,CBD,,,
Sav On Cigarettes,2644 11th Ave Ste C,,Greeley,CO,80631,US,,9703566661,,2020-02-14,2020-02-14,Yes,S,CBD,,,
Smoker Friendly,332 18th St,,Greeley,CO,80631,US,http://www.smokerfriendly.com/,9703564539,,2020-03-04,,,T,,,,
The CBD Store - Greeley,3810 W 10th St Ste A4,,Greeley,CO,80634,US,http://thecbdstorecompany.com,9704515734,cbdstoretracy@gmail.com,2020-01-05,,Yes,C,CBD,,,
Things That Bubble,5415 W 11th St Ste A,,Greeley,CO,80634,US,,9703532281,,2019-05-22,,Yes,H,CBD,,,
VaporCore,3820 W 10th St Ste 8B,,Greeley,CO,80634,US,https://vaporcore.myshopify.com/,9705159382,vaporcore@gmail.com,2018-08-25,2020-02-25,Yes,V,CBD,,,
Wild Side Smoke Shop,2519 11th Ave Unit A,,Greeley,CO,80631,US,,9705156225,,2022-01-10,2022-01-10,Yes,S,CBD,Yes,,
Mile High Pipe & Tobacco,7130 E County Line Rd,,Highlands Ranch,CO,80126,US,http://www.milehighpipeandtobacco.com/,3037405713,milehighpipe@gmail.com,2018-08-16,2020-02-12,,S,,Yes,,
Happy Buddha Hemp,112 W Bridge St,,Hotchkiss,CO,81419,US,https://www.happybuddhahemp.com/,19707256888,buddha@happybuddhahemp.com,2021-01-20,,Yes,C,CBD,,,
The Goldmine Smoke Shop & Gifts,1800 Colorado Blvd Ste 3,,Idaho Springs,CO,80452,US,http://thegoldminesmokeshop.com/,3035672514,goldminesmokeshop@gmail.com,2019-06-14,,Yes,S,CBD,Yes,,
Wild West Weed and Seed,15276 US-385,,Julesburg,CO,80737,US,http://www.wildwestweedandseed.com,9704743529,wildwestweedandseed3ws@gmail.com,2018-10-28,,Yes,H,CBD,,,
Ambary Gardens,26479 CO-74,,Kittredge,CO,80457,US,https://ambarygardens.com/,7203281514,sarah.cohen@ambarygardens.com,2020-06-18,,Yes,C,CBD,,,
The Halloween Shop,713 W 3rd St,,La Junta,CO,81050,US,,7193833897,,2018-12-20,2021-12-06,Yes,H,CBD,,,
Smoker Friendly,179 W South Boulder Rd,,Lafayette,CO,80026,US,https://smokerfriendly.com/,3036657870,,2021-12-31,2021-12-31,Yes,S,CBD,Yes,,
The Vapor Shop 2,489 US-287 Ste 180,,Lafayette,CO,80026,US,http://www.thevapor-shop.com/,3034305940,thevaporshop@yahoo.com,2018-08-25,2020-02-24,,V,,,,
Budz House Of Vape,11970 W Colfax Ave,,Lakewood,CO,80215,US,http://www.budzhov.com,7204855960,budzhov@gmail.com,2018-06-17,2019-06-27,,V,,,,
Canna World Market,1420 S Wadsworth Blvd,,Lakewood,CO,80232,US,http://cannaworldmarket.com,8773527853,support@dev.cannaworldmarket.com,2019-08-21,2019-08-21,Yes,C,CBD,,,
Canna World Market - Applewood,2030 Youngfield St,,Lakewood,CO,80215,US,http://cannaworldmarket.com,7205429750,support@dev.cannaworldmarket.com,2019-08-21,2019-08-21,Yes,C,CBD,,,
DaBong Headshop,305 S Kipling St Ste C,,Lakewood,CO,80226,US,https://dabong.biz/,3034375814,dabong.biz@gmail.com,2022-02-11,2022-02-11,Yes,H,CBD,Yes,,
Daddy Danks,6401 W Alameda Ave,,Lakewood,CO,80226,US,http://daddydanks.com/,3039342400,,2019-01-17,2019-01-17,,S,,,,
Discover CBD,1490 S Sheridan Blvd Ste 106,,Lakewood,CO,80232,US,http://www.discovercbd.com,7206394973,levi@discovercbd.com,2019-03-24,2019-03-24,Yes,C,CBD,,,
E-Cig of Denver,7101 W Colfax Ave,,Lakewood,CO,80214,US,https://ecigdenver.com/,7208811610,info@ecigdenver.com,2018-10-21,2018-10-21,,V,,,,
Freakys,155 N Wadsworth Blvd,,Lakewood,CO,80226,US,http://www.freakys.com,3032370420,info@freakys.com,2018-12-28,,Yes,H,CBD,,,
Freakys,3355 S Wadsworth Blvd Ste H-101,,Lakewood,CO,80903,US,http://www.freakys.com,3037362130,info@freakys.com,2018-10-22,2018-12-28,Yes,H,CBD,,,
High Roller Smoke,2049 Wadsworth Blvd Ste C,,Lakewood,CO,80214,US,https://highrollersmoke.com/,7204659690,info@highrollersmoke.com,2019-06-15,2019-06-15,Yes,H,CBD,,,
Infinite CBD,12364 W Alameda Pkwy #115,,Lakewood,CO,80228,US,https://infinitecbd.com/,3035621645,info@infinitecbd.com,2021-02-11,,Yes,C,CBD,,,
Inno-Vapor,7205 W Colfax Ave Ste 101A,,Lakewood,CO,80214,US,https://www.inno-vapor.com/,3032330233,vapeitcolorado@gmail.com,2014-09-07,2019-01-26,,V,,,,
Lazy J's,10652 W Alameda Ave,,Lakewood,CO,80226,US,,3039852113,lazyjssmokeshop@gmail.com,2018-12-10,,,H,,Yes,,
Puff N Stuff,8460 W Colfax Ave,,Lakewood,CO,80215,US,,3032381909,puffnstuffofdenver@gmail.com,2018-08-16,2020-02-12,Yes,H,CBD,,,
Rocky Mountain Ecigs,1990 Wadsworth Blvd #6,,Lakewood,CO,80214,US,http://www.rockymountainecigs.com/,3039558601,rockymountainecigs@gmail.com,2018-08-16,2021-12-28,,V,,Yes,,
Rocky Mountain Pipe Dreams,11716 W Colfax Ave,,Lakewood,CO,80215,US,http://www.rockymountainpipedreams.com,3032337473,,2018-12-08,,,S,,,,
Super Smoke Shop,1890 S Wadsworth Blvd,,Lakewood,CO,80232,US,,7206385570,,2020-07-17,,Yes,S,CBD,Yes,,
Vape Plus,9804 W Girton Dr,,Lakewood,CO,80227,US,,3037477025,vapeplusco@gmail.com,2021-12-12,2021-12-12,,V,,,,
Vapergate,3355 S Wadsworth Blvd Unit H119,,Lakewood,CO,80227,US,https://vapergate.com/new/,7209388608,retail@vapergate.com,2018-08-25,2022-02-08,,V,,,,
VapeWize,10815 W Jewell Ave Ste K,,Lakewood,CO,80232,US,,3039539757,,2018-10-11,,,V,,,,
FogTown Ltd.,222 S Main St,,Lamar,CO,81052,US,https://fogtown-ltd.business.site/,7196912299,fogtownltd@gmail.com,2021-01-06,,,V,,,,
Marias Happy Place Headshop,308 6th St,,Las Animas,CO,81054,US,,7192310161,richardd3369@gmail.com,2021-05-22,2021-11-03,,H,,,,
CBD American Shaman of Jeffco,9878 W Belleview Ave,,Littleton,CO,80123,US,https://cbdamericanshaman.com/,7208669833,cbdamericanshaman.jeff@gmail.com,2019-11-11,,Yes,C,CBD,,,
CBD On Broadway,5809 S Broadway Ste C,,Littleton,CO,80123,US,https://cbdonbroadway.com/,7209993989,cbdbroadway@gmail.com,2022-04-20,2022-04-20,Yes,C,CBD,,,
Cloud City Smoke Shop,11757 W Ken Caryl Ave Unit K,,Littleton,CO,80127,US,,7207264492,cloudcityvsllc@gmail.com,2021-12-30,2021-12-30,,S,,,,
Gekko Vapes,1500 W Littleton Blvd,,Littleton,CO,80120,US,,3039552140,orders@gekkovapes.com,2018-08-06,2019-12-22,,V,,,,
Hype Vapes,151 W Mineral Ave Ste 111,,Littleton,CO,80120,US,,3039556624,info@hypevapes.com,2018-08-06,2019-12-25,,V,,,,
Inno-Vapor,8086 W Bowels Ave,,Littleton,CO,80123,US,https://www.inno-vapor.com/home,7204567185,vapeitcolorado@gmail.com,2018-09-24,,,V,,,,
Kraken Abyss Vapor,8176 S Wadsworth Blvd Ste E,,Littleton,CO,80128,US,http://krakenabyss.com/,3039327256,,2019-04-30,2019-12-26,,V,,,,
Mountain View Vapes,6221 S Santa Fe Dr #C,,Littleton,CO,80120,US,http://mountainviewvapes.com/,7205858111,,2018-08-16,2020-02-12,,V,,Yes,,
Natures Best CBD,135 W County Line Rd,,Littleton,CO,80129,US,https://naturesbestcbd.com,7204456254,support@naturesbestcbd.com,2020-07-14,,Yes,C,CBD,,,
Smoker Friendly,6762 W Coal Mine Ave,,Littleton,CO,80123,US,http://www.smokerfriendly.com/,3039781283,,2020-01-13,,Yes,S,CBD,,,
Strange Clouds Vape Pipe and Tobacco,5005 S Kipling Pkwy Unit A7,,Littleton,CO,80127,US,,7203988204,,2021-12-11,2021-12-11,,S,,,,
Taspen's Organics,7301 S Santa Fe Dr Unit 522,,Littleton,CO,80120,US,https://taspens.com/,3035017720,info@taspens.com,2020-12-23,2020-12-23,Yes,C,CBD,,,
The Pipe Joint,8280 W Coal Mine Ave Ste 15,,Littleton,CO,80123,US,http://www.thepipejointt.com,7209817473,thepipejointt@yahoo.com,2018-12-10,,Yes,H,CBD,Yes,,
Inno-Vapor Digital,8375 Willow St,,Lone Tree,CO,80124,US,https://www.inno-vapor.com/home,3037922589,vapeitcolorado@gmail.com,2018-08-06,2019-12-25,,V,,,,
303 Vape Clouds,3600 Stagecoach Rd N #D,,Longmont,CO,80504,US,,7208151120,sales@303vapeclouds.com,2021-06-16,2021-06-16,,V,,,,
Baba Pipes & Tobacco Inc,613 Ken Pratt Blvd,,Longmont,CO,80501,US,,3038349608,,2019-06-11,2019-06-11,,S,,,,
High Society,608 9th Ave,,Longmont,CO,80501,US,,3036828876,highsociety303@gmail.com,2018-10-10,2018-10-10,,S,,,,
Nature's Root,1242 Bramwood Pl Ste 3,,Longmont,CO,80501,US,https://naturesroot.com/,7206006948,info@naturesroot.com,2020-07-13,,Yes,C,CBD,,,
Public Smoke Shop,341 Main St,,Longmont,CO,80501,US,,3032873181,publicsmokeshop@gmail.com,2018-12-27,,,S,,Yes,,
Red Star Vapor,1108 Main St,,Longmont,CO,80501,US,https://www.redstarvapor.com/,7204122939,feedback@redstarvapor.com,2018-08-06,2020-01-01,Yes,V,CBD,,,
The Little Dog,622 Main St,,Longmont,CO,80501,US,http://littledogcolorado.com,3036787792,info@thelittldog.net,2018-10-26,2021-06-18,,S,,,,
The Vape Vault,2330 N Main St Ste C,,Longmont,CO,80501,US,https://vape-vault.com/,7202046878,vapevault1@gmail.com,2015-12-17,2022-02-07,,V,,,,
Tobacco King,2255 Main St #112,,Longmont,CO,80501,US,https://tobacco-king.business.site/,3037021066,,2019-05-23,,,S,,,,
Bluebird Botanicals,410 S Arthur Ave,,Louisville,CO,80027,US,https://bluebirdbotanicals.com/,7207265132,info@bluebirdbotanicals.com,2020-11-21,,Yes,C,CBD,,,
Elite Vapes,1156 W Dillon Rd #2,,Louisville,CO,80027,US,https://www.elitevapescolorado.com/,7205429617,elitevapescolorado@gmail.com,2015-09-21,2019-03-25,,V,,,,
Taz Vapor,547 E South Boulder Rd,,Louisville,CO,80027,US,http://tazvapor.com,7205359675,web@tazvapor.com,2018-09-29,,,V,,,,
Bear Necessities,1554 W Eisenhower Blvd,,Loveland,CO,80538,US,http://bearnecessitiessmokeshop.com,9706671766,info@bearnecessitiessmokeshop.com,2018-08-06,2019-08-16,Yes,H,CBD,,,
Canna World Market Loveland CBD,270 E 29th Street,,Loveland,CO,80538,US,https://www.cbdloveland.com,9706172996,rockyoursoul82@gmail.com,2022-01-28,2022-01-28,Yes,C,CBD,,,
Good Vibes Glass Art,1421 Cleveland Ave,,Loveland,CO,80538,US,https://goodvibesglassart.com/,9706198002,goodvibesglassart@gmail.com,2018-08-06,2019-09-21,Yes,H,CBD,Yes,,
One Love,2818 W Eisenhower Blvd,,Loveland,CO,80513,US,,9706693905,,2018-11-26,,Yes,H,CBD,Yes,,
Red Star Vape Smoke & CBD,402 E Eisenhower Blvd,,Loveland,CO,80538,US,https://www.redstarvapor.com/,9707140711,feedback@redstarvapor.com,2018-08-06,2021-02-01,Yes,S,CBD,,,
Selah Organics Natural Healing and Wellness,526 S Cleveland Ave,,Loveland,CO,80537,US,https://selahorganics.com/,7206097105,jason@selahorganics.com,2021-01-13,,Yes,C,CBD,,,
Smoker Friendly,257 E 29th St,,Loveland,CO,80538,US,http://smokerfriendly.com/,9706696197,,2020-03-04,2020-05-29,,S,,,,
Smokey Monkey,1705 W Eisenhower Blvd,,Loveland,CO,80537,US,,9706198906,,2018-08-16,2019-06-24,,S,,,,
The CBD Store,1528 N Lincoln Ave Unit 6,,Loveland,CO,80538,US,http://thecbdstorecompany.com,9709667939,cbdstoreryan@gmail.com,2020-01-05,,Yes,C,CBD,,,
The Down Low,109 E 37th St Ste A,,Loveland,CO,80537,US,,9706677948,,2018-10-26,2018-10-26,Yes,H,CBD,,,
The Hemp Store,2 Ruxton Ave,,Manitou Springs,CO,80829,US,http://www.toddshempstore.com/,7196851189,,2019-09-29,,Yes,C,CBD,,,
The Smoking Gift Headquarters,918 Manitou Ave,,Manitou Springs,CO,80829,US,,7193687276,,2018-10-28,2018-11-13,Yes,H,CBD,,,
Hempvada,229 Adams St,,Monte Vista,CO,81144,US,https://hempvada.com,7194808818,support@hempvada.com,2022-02-27,2022-02-27,Yes,C,CBD,,,
Buddy Guy's Smoke Supplies,130 N Townsend Ave,,Montrose,CO,81401,US,,9709644202,,2019-03-25,2019-03-25,Yes,S,CBD,,,
Rocky Mountain Vape Shop,200 S Townsend Ave Ste D,,Montrose,CO,81401,US,https://rockymountainvapeshop.com/,9705969512,rockymountainvapeshop@gmail.com,2019-05-09,2019-05-09,Yes,V,CBD,Yes,,
Stash Box,28 S Grand Ave,,Montrose,CO,81401,US,https://coloradostashbox.com/,9706157130,contact@coloradostashbox.com,2020-07-17,2020-07-17,Yes,H,CBD,,,
Alpinery CBD Co,465 CO-105,,Monument,CO,80132,US,,7194182633,info@alpineryco.com,2020-11-17,,Yes,C,CBD,,,
Chief Vapor,481 W Hwy 105 Unit C,,Monument,CO,80132,US,http://www.chiefvapor.biz/,7193096540,shop@chiefvapor.biz,2018-08-06,2019-01-27,Yes,V,CBD,,,
Morrison Glass,111 Bear Creek Ave,,Morrison,CO,80465,US,,7204040158,,2022-01-05,2022-01-05,Yes,H,CBD,,,
710 Pipes,930 W 104th Ave,,Northglenn,CO,80234,US,http://www.710pipes.com/,3035689755,710pipes@gmail.com,2019-01-03,,,H,,Yes,,
Deja Vu Vapes,420 E 120th Ave #B-2,,Northglenn,CO,80233,US,,3035621624,dejavuvapes@gmail.com,2022-04-18,2022-04-18,,V,,,,
Smoker's World,552 Malley Dr,,Northglenn,CO,80233,US,,3034572637,,2018-10-28,2018-10-28,,S,,,,
Hyzenbergs CBD,315 Main St,,Ordway,CO,81063,US,,8664996223,support@hyzenbergscbd.com,2020-07-08,,Yes,C,CBD,,,
Coyote Janes Trading Post,420 Pagosa St,,Pagosa Springs,CO,81147,US,,9702649269,coyotejanes@aol.com,2018-11-14,,Yes,H,CBD,Yes,,
Elevation Head Shop,510 San Juan St Ste 2,,Pagosa Springs,CO,81147,US,https://elevationheadshop.com/,9704623387,,2018-12-10,2019-10-24,Yes,H,CBD,Yes,,
Stars CBD & Wellness Shop,150 Pagosa St,,Pagosa Springs,CO,81147,US,http://starscbdshop.com,9705078714,star@starscbdshop.com,2020-02-25,,Yes,C,CBD,,,
The Vape & Custom Prints,301 N Pagosa Blvd #B5,,Pagosa Springs,CO,81147,US,,9709038287,admin@thevapeshopco.com,2018-08-25,2019-11-02,Yes,V,CBD,,,
Perfect Alternatives - Parker,18671 Mainstreet Ste B,,Parker,CO,80134,US,https://www.perfectalternatives.com/,3038414362,perfectalternatives@mail.com,2019-05-07,2019-05-07,Yes,V,CBD,,,
Smoker Friendly,12543 N Hwy 83 Ste 208,,Parker,CO,80134,US,,3038412189,,2021-12-31,2021-12-31,Yes,S,CBD,Yes,,
The Smoking Buddha,19511 E Parker Square Dr,,Parker,CO,80134,US,http://thesmokingbuddha.org/,3038404388,thesmokingbuddha@hotmail.com,2018-12-11,,,S,,Yes,,
VAPEz Parker,18260 Lincoln Ave Ste 103,,Parker,CO,80134,US,https://www.vapezco.com/,3038059411,vapezcr@gmail.com,2021-12-28,2021-12-28,Yes,V,CBD,,,
CBD Body Blends,129 E Abriendo Ave,,Pueblo,CO,81004,US,https://cbdbodyblends.com/,7195424223,hello@cbdbodyblends.com,2020-11-23,,Yes,C,CBD,,,
Independent Records Pueblo,420 W 4th St,,Pueblo,CO,81003,US,https://www.beindependent.com,7195439501,independent@beindependent.com,2019-06-15,2019-06-15,,H,,,,
Mary Jane's Glass Haberdasher,1626 W US-50,,Pueblo,CO,81008,US,https://www.maryjanesglasshaberdasher.com/,7196968391,,2018-11-19,,Yes,H,CBD,,,
Mary Jane's Glass Haberdasher,1857 S Pueblo Blvd,,Pueblo,CO,81005,US,https://www.maryjanesglasshaberdasher.com/,7196968667,service@maryjanesglasshaberdasher.com,2019-01-17,2019-01-17,Yes,H,CBD,,,
Myxed Up Creations,217 W Northern Ave,,Pueblo,CO,81004,US,https://www.myxedup.com/,7194043030,,2018-09-30,,Yes,H,CBD,,,
Shaman Labs Smoke Shop,4027 Club Manor Dr,,Pueblo,CO,81008,US,http://www.shamanlabsvapors.com/,7196968692,,2019-08-25,2019-08-25,Yes,S,CBD,Yes,,
Smoke Shop,1723 S Prairie Ave,,Pueblo,CO,81005,US,,7194068111,,2020-02-24,,,S,,,,
Smoker Friendly,1026 Constitution Rd,,Pueblo,CO,81001,US,http://smokerfriendly.com/,7195429315,,2020-03-03,,,S,,,,
Smoker Friendly,1043 S Pueblo Blvd,,Pueblo,CO,81005,US,http://smokerfriendly.com/,7195661760,,2020-03-03,2020-03-03,,S,,,,
Smoker Friendly,1000 W 6th St,,Pueblo,CO,81003,US,http://www.smokerfriendly.com/,7195436846,,2019-11-29,,,S,,,,
Ultimate Smoking Accessories,627 E 4th St,,Pueblo,CO,81001,US,,7195452879,,2019-09-09,2020-01-09,,H,,,,
Vape Cave,945 US-50,,Pueblo,CO,81008,US,,7196969131,doubledsvapor@gmail.com,2018-08-25,2020-02-24,,V,,,,
Vapor Source,1214 S Prairie Ave,,Pueblo,CO,81005,US,,7192258549,,2018-08-25,2022-04-14,,V,,,,
Vapor Source,618 W 29th St,,Pueblo,CO,81008,US,https://vaporsource.com/,7196968726,support@vaporsource.com,2018-08-25,2020-02-25,,V,,,,
Inhale Vapor Shop,198 S Purcell Blvd Ste 130,,Pueblo West,CO,81007,US,http://inhale.pw/,7195058273,joe@inhale.pw,2014-10-04,2019-01-27,,V,,,,
Steel City Vapor,446 S McCulloch Blvd Ste C,,Pueblo West,CO,81007,US,,7192480342,katiew21@yahoo.com,2018-09-29,,Yes,V,CBD,,,
Crazy B's Smoke Shop,140 Palomino Trail,,Ridgway,CO,81432,US,,9706269888,crazybssmokeshop@gmail.com,2018-08-06,2019-09-08,Yes,H,CBD,,,
Smoke Shop Etc,401 Railroad Ave,,Rifle,CO,81650,US,http://www.smokeshopetc.com/,9702434022,,2018-08-16,2020-02-12,,H,,Yes,,
Chili Heads Glass & Vape,112 W Rainbow Blvd Unit A,,Salida,CO,81201,US,https://www.chiliheads.biz/,7192079700,joe@chiliheads.biz,2018-10-16,,Yes,S,CBD,,,
Salida Cutlery and Smoke Shop,132 W Rainbow Blvd,,Salida,CO,81201,US,http://salidacutlery.com/,7195392884,salidacutlery@yahoo.com,2018-09-30,2018-10-10,,S,,,,
The Bomb Head Shop,3431 S Federal Blvd E,,Sheridan,CO,80110,US,http://www.thebombheadshop.com/,7207879938,,2020-04-16,,,H,,,,
Active Botanical Co.,286 Annie Rd,,Silverthorne,CO,80498,US,https://activebotanicalco.com/,9704558715,landon@activebotanicalco.com,2020-11-16,,Yes,C,CBD,,,
Vaportoke,286 Summit Pl Unit 2,,Silverthorne,CO,80498,US,https://www.vaportokeco.com/,9704688653,vaportoke@gmail.com,2018-08-25,2019-05-17,,V,,,,
Smoker Friendly,1815 Central Park Dr,,Steamboat Springs,CO,80487,US,http://smokerfriendly.com/,9708710554,,2020-03-04,2020-03-04,Yes,S,CBD,,,
Steamboat Smoke Shop Go Ask Alice,130 9th St Ste E,,Steamboat Springs,CO,80487,US,http://steamboat-smoke-shop.business.site/,9708719630,,2018-09-29,,Yes,S,CBD,,,
Taspen's Steamboat Spring,703 Lincoln Ave Unit B104,,Steamboat Springs,CO,80487,US,https://taspens.com/,3038160429,info@taspens.com,2020-12-23,,Yes,C,CBD,,,
The Y-Not Shop,2730 Downhill Plaza #105,,Steamboat Springs,CO,80487,US,http://theynotshop.com/,9708709668,ericliss79@gmail.com,2018-08-25,2020-02-24,Yes,H,CBD,,,
Forgotten Souls,212 Main St,,Sterling,CO,80751,US,,9705266011,,2021-01-06,,Yes,H,CBD,,,
5280 Smoke Shop,12720 N Colorado Blvd #D1,,Thornton,CO,80241,US,,3032849253,smokeshop5280@yahoo.com,2018-12-31,,Yes,H,CBD,,,
84th Smoke Shop,481 W 84th Ave Ste 101,,Thornton,CO,80260,US,https://84th-smoke-shop.business.site/,7206384355,,2021-12-10,2021-12-10,Yes,S,CBD,Yes,,
C-Vape & Smoke,13691 Colorado Blvd Ste 105,,Thornton,CO,80602,US,https://c-vape.business.site/,7203795288,,2021-12-11,2021-12-11,Yes,V,CBD,Yes,,
CBD American Shaman Thornton,3915 E 120h Ave Ste A,,Thornton,CO,80233,US,https://cbdamericanshaman.com/,7204767123,americanshaman80233@gmail.com,2020-01-17,2020-02-03,Yes,C,CBD,,,
Elite Vapes,3943 E 120th Ave Ste A,,Thornton,CO,80233,US,https://www.elitevapescolorado.com/,3032544044,elitevapescolorado@gmail.com,2015-02-04,2019-03-25,,V,,,,
Freakys,9205 Washington St,,Thornton,CO,80229,US,http://www.freakys.com,3032271535,info@freakys.com,2018-12-28,,Yes,H,CBD,,,
Hashtag Vape & Tobacco,9071 N Washington St #A,,Thornton,CO,80229,US,,3032276796,,2018-07-24,2019-05-17,,S,,Yes,,
I Got U Vape,8947 Washington St,,Thornton,CO,80229,US,http://www.igotuvape.com/,7206457818,igotuvape@igotuvape.com,2018-08-06,2019-05-31,,V,,,,
Inno-Vapor Digital,9678 Washington St,,Thornton,CO,80229,US,http://inno-vapor.com/,3032546554,,2019-12-10,,,V,,,,
Smoker Friendly,3925 E 120th Ave,,Thornton,CO,80233,US,http://smokerfriendly.com/,3034531707,,2020-03-03,,,T,,,,
The Vapor Shop 3,3976 E 104th Ave,,Thornton,CO,80233,US,http://thevapor-shop.com/thornton.htm,3034980408,thevaporshop@yahoo.com,2022-02-07,2022-02-07,,V,,,,
Smoker Friendly,401 N Commercial St,,Trinidad,CO,81082,US,http://smokerfriendly.com/,7198467512,,2020-03-04,2021-12-31,Yes,S,CBD,Yes,,
Trinidad's Higher CBD & Oxygen Bar,500 W Main St,,Trinidad,CO,81082,US,,7194228310,kimberlyschultz108@gmail.com,2019-03-03,2019-03-03,Yes,H,CBD,,,
The Breckenridge Hemp Co,164 Gore Creek Dr #138,,Vail,CO,81657,US,https://www.thebreckenridgehemp.com/,3035985991,tbhcolorado@gmail.com,2019-08-21,,Yes,C,CBD,,,
Urban Smoken,973 US 85-87,,Walsenburg,CO,81089,US,,7197386420,urbansmoke4u@gmail.com,2018-12-31,2018-12-31,,S,,Yes,,
101 CBD,7713 W 92nd Ave,,Westminster,CO,80021,US,https://101cbd.org,3034230900,info@101cbd.org,2020-11-14,,Yes,C,CBD,,,
Colorado Vape And Toke,7580 Sheridan Blvd,,Westminster,CO,80003,US,,7206394927,,2022-01-02,2022-01-02,Yes,V,CBD,Yes,,
Elemental Vapor Bar,8821 Harlan St,,Westminster,CO,80031,US,http://e-vaporbar.com/,7205508278,sales@e-vaporbar.com,2014-09-14,2019-03-25,,V,,,,
Mile High Pipe & Tobacco,3001 W 74th Ave,,Westminster,CO,80030,US,http://www.milehighpipeandtobacco.com/,3034266343,milehighpipe@gmail.com,2018-08-16,2020-02-12,,S,,,,
Puffs Smoke & Vape,7731 W 92nd Ave,,Westminster,CO,80021,US,https://www.puffssmokeandvape.com/,7202428217,puffsvape@gmail.com,2021-12-15,2021-12-15,Yes,S,CBD,Yes,,
Red Star Vapor,7236 Federal Blvd Ste 800,,Westminster,CO,80030,US,https://www.redstarvapor.com/,7209008779,feedback@redstarvapor.com,2018-08-06,2020-01-01,Yes,V,CBD,,,
Taz Vapor Too,9975 Wadsworth Pkwy Unit B,,Westminster,CO,80021,US,http://tazvapor.com,7205359179,tanner@tazvapor.com,2018-06-09,2019-06-21,Yes,V,CBD,,,
The Pipe Shop Glass and Vape,7530 Sheridan Blvd,,Westminster,CO,80003,US,,7203989111,,2018-08-25,2022-05-12,Yes,H,CBD,,,
The Vapor Shop,730 W 120th Ave,,Westminster,CO,80234,US,http://www.thevapor-shop.com/,3034510218,thevaporshop@yahoo.com,2018-09-30,,,V,,,,
Westbrook Pipe & Tobacco,9100 W 100th Ave Unit B3,,Westminster,CO,80021,US,https://westbrook-vape-pipe-tobacco.business.site/,3034206986,,2022-02-24,2022-02-24,Yes,S,CBD,Yes,,
Epic Smoke Shop,7777 W 38th Ave Ste A104,,Wheat Ridge,CO,80033,US,http://epic-smoke-shop-tobacco-shop.business.site/,3034241179,,2019-10-07,2019-10-07,,H,,,,
Hi Up Glass Pipes & Cigarettes,5020 Kipling St,,Wheat Ridge,CO,80033,US,,3032840604,,2019-11-25,,,S,,,,
Purple Haze,4345 Wadsworth Blvd,,Wheat Ridge,CO,80033,US,http://shoppurplehaze.com,7204659819,info@shoppurplehaze.com,2018-12-31,,,H,,,,
Smoker Friendly,3294 Youngfield St Ste D,,Wheat Ridge,CO,80033,US,http://smokerfriendly.com/,3032383424,,2020-03-04,2020-03-04,,S,,Yes,,
Smoker's In & Out,3875 Wadsworth Blvd,,Wheat Ridge,CO,80033,US,https://smokeinandout.wixsite.com/smoke,7205357718,smoke.in.and.out@gmail.com,2019-05-16,2021-12-20,,S,,Yes,,
Ignite Smoke & Vapor,1215 Main St Ste J,,Windsor,CO,80550,US,http://ignitesmokeshops.com/,9704609433,,2019-12-13,,Yes,S,CBD,,,
Mountain Vapor Lounge,104 E Midland Ave,,Woodland Park,CO,80863,US,http://mountainvaporlounge.com/,7198889523,mountainvaporlounge@gmail.com,2019-12-23,2020-11-03,Yes,V,CBD,,,
Smoker Friendly,1083 US-24,,Woodland Park,CO,80863,US,http://smokerfriendly.com/,7196879890,,2020-03-03,,,S,,,,