Shop Name,Address 1,Address 2,City,State/Province,Zip/Postcode,Country,Website,Phone,Email,Added,Updated,CBD,Biz Type,MJ,Kratom,Buyer name ,Title 
Pippi's Purpose,110 Broadmoore Blvd,,Abbeville,LA,70510,US,https://www.pippispurpose.com/,3372830092,cwhite@pippispurpose.com,2022-03-24,2022-03-24,Yes,C,CBD,,,
Smoke N Go,201 S State St,,Abbeville,LA,70510,US,http://www.mysmokengo.com/,3378934428,,2019-08-02,2019-08-02,Yes,S,CBD,,,
Smoker Friendly,1101 Charity St,,Abbeville,LA,70510,US,http://smokerfriendly.com/,3378930342,,2020-03-03,,,T,,,,
Smoke Shop,729 MacArthur Dr,,Alexandria,LA,71303,US,,3184456558,,2020-02-25,,,T,,,,
Smoker's Heaven,3339 Jackson St,,Alexandria,LA,71301,US,http://www.smokersheaven.biz/,3184426134,smokersheavenalexandria@gmail.com,2019-05-16,,,V,,,,
The e-Spot Vape Shop - Alexandria,2102 MacArthur Dr Ste E,,Alexandria,LA,71301,US,https://espotvapeshop.com/,3187046212,sales@espotvapeshop.com,2018-09-18,,Yes,V,CBD,,,
Tobacco Plus,2140 N Mall Dr,,Alexandria,LA,71301,US,,3184849107,,2020-05-23,,,S,,,,
Cannaleaf Hemp Company,6027 Monroe Hwy Ste A,,Ball,LA,71405,US,https://cannaleaf.com/,8887154367,cannaleaf@yahoo.com,2019-12-20,2022-02-13,Yes,C,CBD,,,
Aurora CBD & Hemp,19970 Highland Rd,,Baton Rouge,LA,70809,US,https://www.auroracbdhemp.com/,2252186062,aurora985@outlook.com,2020-11-18,,Yes,C,CBD,,,
Bella Sunrise Tobacco LLC,6010 Jones Creek Rd Ste D,,Baton Rouge,LA,70817,US,,2253027950,bellasunrisetobacco@gmail.com,2019-01-11,,Yes,S,CBD,,,
Bobs Smoke Shop,990 W Lee Dr Ste 3,,Baton Rouge,LA,70820,US,http://sasprospect.com/,2258319054,,2022-01-20,2022-01-20,Yes,S,CBD,,,
Cali Smoke Shop,4225 Nicholson Dr Ste 103,,Baton Rouge,LA,70808,US,,2252560230,,2020-11-21,,Yes,S,CBD,Yes,,
Cali Smoke Shop,13188 Perkins Rd,,Baton Rouge,LA,70810,US,,2259602504,,2022-01-11,2022-01-11,Yes,S,CBD,Yes,,
Cypress Hemp: Hemp & CBD Dispensary,10771 Perkins Rd Suite A,,Baton Rouge,LA,70810,US,https://www.cypresshemp.com/,2259631631,sustainability@cypresshemp.com,2020-12-19,2020-12-19,Yes,C,CBD,,,
Go Vapor - Baton Rouge,8841 Highland Rd,,Baton Rouge,LA,70808,US,https://www.govaporgo.com/,2253028710,govapor@govaporgo.com,2014-08-29,2019-11-12,Yes,V,CBD,,,
Hashtags Smoke Shop,12524 Jefferson Hwy Ste A,,Baton Rouge,LA,70816,US,https://www.hashtags.glass/,2259538191,smokinmirrorsgg@gmail.com,2018-08-06,2019-09-22,Yes,S,CBD,Yes,,
HealthyU CBD & Hemp Oil,5703 Essen Ln Ste 5,,Baton Rouge,LA,70810,US,https://healthyu-cbd.com/,2254215920,healthyulouisiana@gmail.com,2021-01-23,,Yes,C,CBD,,,
Hi Life Wonderland,159 W State St,,Baton Rouge,LA,70802,US,,2253889199,,2018-08-06,2018-12-03,Yes,H,CBD,,,
Kalian CBD Vape & Hookah,6755 Airline Hwy Ste A-2,,Baton Rouge,LA,70805,US,https://www.kalianofla.com,2252567110,sales@kalianofla.com,2021-02-02,2021-08-14,Yes,S,CBD,Yes,,
La Vape & Beyond,4433 Perkins Rd Ste 105,,Baton Rouge,LA,70808,US,,2253671126,lavapeandbeyond@gmail.com,2014-10-08,2019-05-05,Yes,V,CBD,,,
Ra Shop,3275 Highland Rd,,Baton Rouge,LA,70802,US,http://www.rashop.us/,2253380081,,2018-08-14,2020-02-10,Yes,S,CBD,Yes,,
Ra Shop,5201 Nicholson Dr,,Baton Rouge,LA,70820,US,http://www.rashop.us/,2257639091,,2018-08-14,2020-02-10,Yes,S,CBD,Yes,,
Releaf Therapy CBD,14790 Wax Rd Ste 105,,Baton Rouge,LA,70818,US,http://www.releaftherapy.co,2252841936,william@releaftherapy.co,2020-10-11,2020-10-11,Yes,C,CBD,,,
Smokecignals,13247 Perkins Rd.,,Baton Rouge,LA,70810,US,http://www.smokecignals.com/,2254565252,info@smokecignals.com,2018-08-14,2020-02-10,Yes,V,CBD,,,
Tobacco Zone,11901 Plank Rd #A,,Baton Rouge,LA,70811,US,,2257758487,,2020-02-06,2020-02-06,,T,,,,
Up In Smoke Glass Galleria,1750 Brightside Dr Ste E,,Baton Rouge,LA,70820,US,,2253643746,,2019-10-17,2019-10-17,Yes,H,CBD,,,
VapingCraze,6031 Siegen Ln Ste K,,Baton Rouge,LA,70809,US,http://vapingcraze.business.site/,2254219999,support@vapingcraze.com,2017-10-17,2019-01-19,,V,,,,
Your CBD Store,10241 Coursey Blvd Ste D,,Baton Rouge,LA,70816,US,https://cbdrx4u.com,2252563303,batonrouge496@cbdrx4u.com,2020-12-07,,Yes,C,CBD,,,
Bayou Queen Vape,693 Corporate Dr Ste 102,,Bayou Cane,LA,70360,US,,9852624197,,2018-06-13,2019-06-25,Yes,V,CBD,,,
Bogalusa Tobacco Discount,444 Memphis St,,Bogalusa,LA,70427,US,,9852415433,,2020-04-29,,,S,,,,
318 Cloudz Smoke & Vape Shop,2307 E Texas St Ste 200,,Bossier City,LA,71111,US,https://318cloudz.com/,3185885333,solo@318cloudz.com,2021-10-23,2021-10-23,Yes,S,CBD,Yes,,
Bossier CBD and Wellness by 5 Star Nutrition,2650 Airline Dr Ste 200,,Bossier City,LA,71111,US,https://5starnutritionusa.com/,3183174151,,2020-11-21,,Yes,C,CBD,,,
Cloud 9,2060 E Texas St,,Bossier City,LA,71111,US,http://www.cloud9vapory.com/,3185846969,cjwgrant@yahoo.com,2019-08-28,,,V,,,,
Discount Tobacco Outlet,1201 Shady Grove Dr #A,,Bossier City,LA,71112,US,,3187477959,,2019-11-06,,,T,,,,
Elite Vape Room,2501 Beene Blvd Ste 500,,Bossier City,LA,71111,US,http://elitevaperoom.com/,3185183478,elitevaperoom@gmail.com,2016-06-26,2019-03-27,,V,,,,
Great American Vapes,4726 E Texas St #200,,Bossier City,LA,71111,US,http://greatamericanvapes.com/,3185847230,,2018-08-06,2020-01-14,Yes,V,CBD,,,
Odditeaze,2914 Barksdale Blvd,,Bossier City,LA,71112,US,,3187524400,loricollier1@yahoo.com,2021-10-23,2021-10-23,Yes,H,CBD,Yes,,
The Lotus,2001 E Texas St Ste 3,,Bossier City,LA,71111,US,,3187738091,,2019-01-10,,,H,,Yes,,
Tobacco House #2,3055 E Texas St,,Bossier City,LA,71111,US,http://www.tobaccohouse.us,3187467700,tobaccohousemarketingdept@gmail.com,2020-07-07,,,T,,,,
"Your CBD Store - Bossier City, LA",2716 Plantation Dr,,Bossier City,LA,71111,US,https://cbdrx4u.com/,3185623588,bossiercityla@cbdrx4u.com,2019-09-13,2019-09-13,Yes,C,CBD,,,
Smokers Hut,13491 US-90,,Boutte,LA,70039,US,,9857854186,,2020-03-10,,,T,,,,
Smoke N Go,1777 Rees St,,Breaux Bridge,LA,70517,US,http://www.mysmokengo.com/,3373322200,,2019-08-02,2019-08-02,Yes,S,CBD,,,
Green Time Wellness,3711 W Pinhook Rd,,Broussard,LA,70518,US,https://greentimewellness.com/,3378894367,info@greentimewellness.com,2021-01-17,,Yes,C,CBD,,,
PuffZone SmokeShop,4016 Hwy 90 E Ste 111,,Broussard,LA,70518,US,https://puffzone-smokeshop.business.site/,3373302072,puffzone4016@gmail.com,2021-12-22,2021-12-22,Yes,V,CBD,,,
Smoke N Go,2005 E Main St,,Broussard,LA,70518,US,http://www.mysmokengo.com/,3378391210,,2019-08-02,2019-08-02,Yes,S,CBD,,,
Vibes Vape & Cannabis,730 Albertson Pkwy Ste C,,Broussard,LA,70518,US,https://vibesvapecbd.com/,3372527364,michael.courrege@gmail.com,2020-12-12,,Yes,V,CBD,Yes,,
Smoke N Go,4029 N University Ave,,Carencro,LA,70520,US,http://www.mysmokengo.com/,3375655023,,2019-08-02,2019-08-02,Yes,S,CBD,,,
Big Chief Vapor Products LLC,135 W Genie St,,Chalmette,LA,70043,US,http://www.bigchiefvapors.com/,5044071881,bigchiefvapors@yahoo.com,2018-09-30,,Yes,V,CBD,,,
Big Easy CBD,310 W Judge Perez Dr,,Chalmette,LA,70043,US,https://bigeasycbd.com/,5045102676,amber@bigeasycbd.net,2020-11-19,,Yes,C,CBD,,,
Chalmette Cigarette Outlet Inc,1016 W Judge Perez Dr,,Chalmette,LA,70043,US,,5046763370,,2019-08-01,,,S,,,,
Organic CBD Garden,1800 E Judge Perez Dr Ste E,,Chalmette,LA,70043,US,https://www.organiccbdgarden.com/s/shop,5049318700,organiccbdgarden@gmail.com,2021-05-05,,Yes,C,CBD,,,
Pure Vapor,316 W Judge Perez Dr,,Chalmette,LA,70043,US,,5049099456,,2018-08-14,2020-02-09,,V,,,,
Smoke N Go,217 S Main St,,Church Point,LA,70525,US,http://www.mysmokengo.com/,3376841012,,2019-08-02,2019-08-02,Yes,S,CBD,,,
Candy & Tobacco Discounts,100 S Tyler St,,Covington,LA,70433,US,,9858710038,,2019-07-31,,,T,,,,
E-Cigmart Vapor Outlet,2600 N Hwy 190 Ste 1,,Covington,LA,70433,US,,9852764802,e_cigmart@yahoo.com,2014-09-29,2019-03-27,Yes,S,CBD,Yes,,
Esmoke Vapors,70380 LA-21,,Covington,LA,70433,US,,9858881203,ecig985@yahoo.com,2018-10-22,2019-03-28,,V,,,,
Loula's CBD Boutique,2000 W 21st Ave,,Covington,LA,70433,US,https://www.loulascbd.com/,9858881848,loulas2019@gmail.com,2020-07-09,,Yes,C,CBD,,,
Ra Shop,2900 N Hwy 190,,Covington,LA,70433,US,http://www.rashop.us/,9858932748,,2018-08-14,2020-02-10,Yes,S,CBD,Yes,,
U Vape,360 Emerald Forest Blvd Ste A,,Covington,LA,70433,US,,9854005089,,2018-09-08,2020-03-18,,V,,,,
"Your CBD Store - Covington, LA",73009 LA-25 Ste A,,Covington,LA,70435,US,https://cbdrx4u.com/,9854005784,covingtonla@cbdrx4u.com,2019-09-13,2019-09-13,Yes,C,CBD,,,
Smoke N Go,13032 E Main St,,Cut Off,LA,70373,US,http://www.mysmokengo.com/,3378937665,,2019-08-02,2019-08-02,Yes,S,CBD,,,
Epic E-Cigs & More,30614 LA-16,,Denham Springs,LA,70726,US,https://simplyepicsmokes.com/,2252437796,,2018-08-06,2019-09-17,,S,,,,
Go Vapor - Denham Springs,2626 S Range Ave Ste 500,,Denham Springs,LA,70726,US,http://govaporgo.com/,2253805737,govaporgo@gmail.com,2019-11-12,2019-11-12,Yes,V,CBD,,,
Hot Box,7755 Magnolia Beach Rd Ste C,,Denham Springs,LA,70726,US,https://hotbox225.com/,2256678374,info@hotbox225.com,2019-01-11,2022-04-26,Yes,S,CBD,Yes,,
Stop N Geaux Express,34899 LA-1019,,Denham Springs,LA,70706,US,,2256679389,sngestore@att.net,2019-12-04,2019-12-04,,T,,,,
The CBD Shop - Denham Springs,419 S Range Ave Ste D,,Denham Springs,LA,70726,US,https://www.thecannabidiolshop.com/,2256648008,denham@thecannabidiolshop.com,2020-06-24,,Yes,C,CBD,,,
Renegade Vapes DeRidder,1118 N Pine St Ste O,,DeRidder,LA,70634,US,https://www.renegadevapes1.com/,3372213049,adam@renegadevapes.com,2019-11-04,,,V,,,,
985 Vapors,121 Ormond Center Ct Ste N,,Destrehan,LA,70047,US,http://985vapors.com/,9853071027,985rpvapors@gmail.com,2018-06-04,2019-02-25,,V,,,,
Smoker's Haven,13592 River Rd #4,,Destrehan,LA,70047,US,http://www.smokershaven3.com/,9853070479,willhammoudeh@yahoo.com,2020-03-09,2020-03-09,,T,,,,
One Love Smoke Shop,1021 E Laurel Ave,,Eunice,LA,70535,US,,3374663256,,2019-08-07,,,S,,,,
Smoker Friendly,1712 Main St,,Franklin,LA,70538,US,http://smokerfriendly.com/,3378284533,,2020-03-04,,,T,,,,
Cigs-N-Suds Inc,109 W Cornerview St,,Gonzales,LA,70737,US,,2256478267,,2019-08-28,,,T,,,,
Overcast Vapor Lounge,14505 LA-44 Ste 105,,Gonzales,LA,70737,US,http://www.overcastvaporlounge.com/,2252894116,rivetinvestments@gmail.com,2019-09-14,,Yes,V,CBD,,,
Da Wave Smoke/Gift Shop,538 Lapalco Blvd Ste B,,Gretna,LA,70056,US,https://dawave-smokegift-shop.business.site/,5045584131,,2019-09-07,2019-09-07,Yes,H,CBD,Yes,,
Discount Depot,520 Westbank Expy Trail,,Gretna,LA,70053,US,,5043689888,,2019-09-20,,,T,,,,
Smoke R Us,93 Terry Pkwy,,Gretna,LA,70056,US,https://smokerusnola.com/,5047028178,info@smokerusnola.com,2021-01-05,2021-03-05,Yes,S,CBD,Yes,,
Create A Cig,14203 University Ave Ste 6,,Hammond,LA,70401,US,https://www.createacig.com/,9857783755,hammond@createacig.com,2018-10-18,2018-10-18,Yes,V,CBD,,,
Go Vapor - Hammond,2108 W Thomas St Ste 3,,Hammond,LA,70401,US,https://www.govaporgo.com/,9856625008,govapor@govaporgo.com,2019-11-12,2019-11-12,Yes,V,CBD,,,
Ra Shop,1000 N Oak St #2,,Hammond,LA,70401,US,http://www.rashop.us/,9859028380,,2018-08-14,2020-02-10,Yes,S,CBD,Yes,,
Southern Tropics Kratom and CBD,1500 W Thomas St,,Hammond,LA,70401,US,,9853484988,southerntropicsherbal@gmail.com,2021-01-05,2022-04-13,Yes,C,CBD,Yes,,
The Vape Shop,1103 W Morris Ave Ste B,,Hammond,LA,70403,US,https://www.thevapeshopdistro.com/,9856625941,anthony@thevapeshopdistro.com,2020-12-08,,,V,,,,
Mo' For Less Tobacco Shoppe,7123 Jefferson Hwy,,Harahan,LA,70123,US,,5043051642,,2020-01-10,,,T,,,,
Sweet Southern Vapes Harahan,6861 Jefferson Hwy,,Harahan,LA,70123,US,http://sweetsouthernvapes.com/,5042528737,ssvriverridge@gmail.com,2019-12-11,,Yes,V,CBD,Yes,,
504 Vapers,1708 Manhattan Blvd Ste B,,Harvey,LA,70058,US,,5043013901,504vapers@gmail.com,2014-08-26,2018-11-11,Yes,V,CBD,,,
Create A Cig,1950 Manhattan Blvd #110,,Harvey,LA,70058,US,http://www.createacig.com,5045097557,harvey@createacig.com,2018-10-20,,,V,,,,
Tobacco City,2630 Manhattan Blvd Ste B,,Harvey,LA,70058,US,,5043649278,,2019-11-05,2019-11-05,Yes,S,CBD,Yes,,
Tobacco Station,2755 Manhattan Blvd,,Harvey,LA,70058,US,https://tobaccostationinc.business.site/,5043667045,,2020-03-14,,,S,,,,
"Your CBD Store - West Bank, LA",1818 Manhattan Blvd #4,,Harvey,LA,70058,US,https://cbdrx4u.com/,5043541600,nola@cbdrx4u.com,2019-09-13,2019-09-13,Yes,C,CBD,,,
Alternative Vapors,279 Enterprise Dr Ste 101,,Houma,LA,70360,US,,9852620912,,2015-01-28,2019-02-25,,V,,,,
Aurora CBD & Hemp,613 Barrow St,,Houma,LA,70360,US,https://aurora-cbd-hemp.business.site/,9857465464,aurora985@outlook.com,2019-06-10,2021-06-23,Yes,C,CBD,,,
Cheap Smokes Inc,5709 W Main St,,Houma,LA,70360,US,,9858794410,,2019-08-02,,,T,,,,
Ecstatic Shack,6788 W Park Ave,,Houma,LA,70364,US,,9858766677,,2019-10-01,,Yes,S,CBD,,,
King City Smoke Shop,5580 W Main St,,Houma,LA,70360,US,,9852620482,,2019-04-29,2019-12-26,Yes,S,CBD,Yes,,
Smoke N Go,1633 Grand Caillou Rd,,Houma,LA,70360,US,http://www.mysmokengo.com/,3378767625,,2019-08-02,2019-08-02,Yes,S,CBD,,,
Smoke N Go,1048 W Tunnel Blvd,,Houma,LA,70360,US,http://www.mysmokengo.com/,3378936796,,2019-08-02,2019-08-02,Yes,S,CBD,,,
Vapor Solutions Houma,6656 W Main St,,Houma,LA,70364,US,,9853603155,vaporsolutionshoumallc@gmail.com,2018-09-30,,Yes,V,CBD,,,
Smoke N Go,2421 W Main St,,Jeanerette,LA,70544,US,http://www.mysmokengo.com/,3372769355,,2019-08-02,2019-08-02,Yes,S,CBD,,,
InoVapes,1822 N 1st St,,Jena,LA,71342,US,http://www.inovapes.com/,3189923960,info@inovapes.com,2019-12-10,,Yes,V,CBD,,,
Bottom Boot Vapes,723 N Lake Arthur Ave,,Jennings,LA,70546,US,,3372467000,bottombootvapesllc@yahoo.com,2022-01-21,2022-01-21,,V,,,,
Cupped Up Vapes,115 E Shankland Ave Ste D,,Jennings,LA,70546,US,http://cuppedupvapes.com/,3372463634,cuppedupvapes@gmail.com,2017-03-07,2019-01-16,,V,,,,
Smoke N Go,1123 N Lake Arthur Ave,,Jennings,LA,70546,US,http://www.mysmokengo.com/,3378242328,,2019-08-02,2019-08-02,Yes,S,CBD,,,
420 Vape & Smoke Shop,4345 Williams Blvd,,Kenner,LA,70065,US,https://420-vapesmoke-shop.business.site/,5042874474,420vapeandsmoke@gmail.com,2020-11-15,,Yes,S,CBD,Yes,,
Create A Cig - Kenner,3405 Williams Blvd Ste 1,,Kenner,LA,70065,US,https://www.createacig.com,5043056550,kenner@createacig.com,2018-10-18,2019-03-27,Yes,V,CBD,,,
Payless Tobacco Outlet,381 W Esplanade Ave,,Kenner,LA,70065,US,,5044692911,payless@tobaccooutlet.org,2020-02-03,,Yes,T,CBD,Yes,,
Sweet Southern Vapes,3600 Williams Blvd Ste 8,,Kenner,LA,70065,US,https://sweetsouthernvapes.com/,5042528738,,2018-08-14,2020-02-10,Yes,V,CBD,Yes,,
Vape On,2505 Williams Blvd Ste B,,Kenner,LA,70062,US,https://vapeon.business.site/,5042874240,vapeon@att.net,2020-07-20,,Yes,V,CBD,,,
Burnt,4807 Johnston St,,Lafayette,LA,70503,US,,3375344831,,2019-07-29,,,H,,,,
Cajun Smoke,200 Youngsville Hwy,,Lafayette,LA,70508,US,https://cajunsmokeshop.com/,3374514108,cajunsmoke81@yahoo.com,2019-09-02,2019-09-02,Yes,S,CBD,Yes,,
Hippietown USA,3212 Johnston St,,Lafayette,LA,70503,US,http://hippietownusa.com/,3374088528,,2019-12-01,,Yes,H,CBD,,,
Lit Smoke Shop,105 Louisiana Ave Ste B,,Lafayette,LA,70501,US,https://lit-smoke-shop.business.site/,3372105826,,2019-01-27,,Yes,S,CBD,Yes,,
Mad Hatter's Tea & Gifts,2952 Johnston St,,Lafayette,LA,70503,US,https://madhatterswonderland.com/,3375047945,hatterms@madhattersus.com,2020-01-13,2020-01-13,Yes,C,CBD,Yes,,
Ra Shop,1905 NW Evangeline Throughway,,Lafayette,LA,70501,US,http://www.rashop.us/,3372320000,,2018-08-14,2020-02-10,Yes,S,CBD,Yes,,
Ragin' Vapes,4416 Johnston St Ste 6,,Lafayette,LA,70503,US,,3373089280,raginvapes@gmail.com,2018-08-14,2020-02-10,,V,,,,
Smoke N Go,300 E Simcoe St,,Lafayette,LA,70501,US,http://www.mysmokengo.com/,3372691888,,2019-08-02,,Yes,S,CBD,,,
Smoke N Go,4500 Ambassador Caffery Pkwy,,Lafayette,LA,70508,US,http://www.mysmokengo.com/,3375237008,,2019-08-02,2019-08-02,Yes,S,CBD,,,
Smoke N Go,4490 Moss St Ste D,,Lafayette,LA,70507,US,http://www.mysmokengo.com/,3372310027,,2019-08-02,2019-08-02,Yes,S,CBD,,,
Swamp Vapor,1501 Kaliste Saloom Rd Ste C,,Lafayette,LA,70508,US,http://swampvapor.com/,3374565644,swampvapor@gmail.com,2018-08-14,2020-02-10,Yes,V,CBD,,,
Troposphere Vapors,3524 Kaliste Saloom Rd Ste 303,,Lafayette,LA,70508,US,https://www.troposphere-vapors.com/,3374083322,info@troposphere-vapors.com,2018-09-18,,Yes,V,CBD,,,
Vapor Viper Vapes,3207 Johnston St,,Lafayette,LA,70503,US,https://www.vaporvipervapeecighookahlafayette.com,3377896258,vaporvipervapes@yahoo.com,2018-09-09,2020-03-21,,V,,,,
"Your CBD Store - Lafayette, LA",600 Guilbeau Rd Ste C,,Lafayette,LA,70506,US,https://cbdrx4u.com/,3372105254,cbd3507@gmail.com,2019-09-13,2019-09-13,Yes,C,CBD,,,
491 CBD,3819 Ryan St,,Lake Charles,LA,70605,US,https://www.491cbd.com/,3374295047,ellen.guilbeaux@gmail.com,2020-11-15,2020-12-26,Yes,C,CBD,,,
Blaze Smoke Shop,3427 Ryan St,,Lake Charles,LA,70605,US,,3374191822,blazesmoke3@gmail.com,2018-08-14,2020-02-09,Yes,S,CBD,Yes,,
C.C. Vapor,1700 E Prien Lake Rd Ste 5,,Lake Charles,LA,70601,US,,3375628889,lacigarclub@yahoo.com,2018-08-14,2020-11-21,Yes,V,CBD,,,
Elite Vapors,154 W McNeese St Ste A,,Lake Charles,LA,70605,US,,3374191852,tracy@elitevaporslc.com,2014-10-08,2019-03-27,,V,,,,
High Roller Vape N Smoke,3417 Ryan St,,Lake Charles,LA,70605,US,,3374295127,,2021-02-03,,,S,,,,
Lake Charles CBD and Wellness by 5 Star Nutrition,3465 Nelson Rd,,Lake Charles,LA,70605,US,https://5starnutritionusa.com/,3379905574,,2021-03-04,,Yes,O,CBD,,,
Lake Charles Vapor,1413 W Prien Lake Rd,,Lake Charles,LA,70601,US,,3375646895,,2015-02-27,2018-12-26,,V,,,,
Lit  Vape and Smoke Shop,2902 Lake St,,Lake Charles,LA,70601,US,,3375082436,,2022-04-04,2022-04-04,Yes,S,CBD,Yes,,
Smok'N Hot Vape Shop,729 E School St,,Lake Charles,LA,70607,US,https://smokn-hot-vape-shop.business.site/,3375646099,,2019-07-14,2019-07-14,Yes,S,CBD,Yes,,
Smoke Shop Kwik Stop,4305 Lake St,,Lake Charles,LA,70605,US,,3375629955,,2020-02-27,,,T,,,,
The Vapor Stop +Drive Thru,271 US-171,,Lake Charles,LA,70611,US,https://thevaporstop1.myshopify.com/,3375635217,thevaporstop@yahoo.com,2018-09-18,2019-11-03,,V,,,,
DTM Vapors,1003 W Airline Hwy,,Laplace,LA,70068,US,http://dtm-vapors.business.site/,5046068664,dtmvape@gmail.com,2019-09-19,,Yes,V,CBD,,,
One Stop Smoke & Vape,1628 S 5th St,,Leesville,LA,71446,US,http://www.leesvillevapeshop.com/,3374664795,,2020-02-01,2020-02-01,,S,,,,
Renegade Vapes Fort Polk,1271 Entrance Rd Ste A,,Leesville,LA,71459,US,https://www.renegadevapes1.com/,3374235322,adam@renegadevapes.com,2019-11-04,2019-11-04,,V,,,,
Renegade Vapes Leesville,1804 S 5th St Ste C,,Leesville,LA,71446,US,https://www.renegadevapes1.com/,3374235144,adam@renegadevapes.com,2019-11-04,,,V,,,,
Kaya's CBD Retreat,12715 US-90 Ste 210,,Luling,LA,70070,US,,9853080071,cbdretreatluling@gmail.com,2020-11-29,,Yes,C,CBD,,,
Vape Escape,12715 US-90 Ste `125,,Luling,LA,70070,US,,9853315051,,2014-09-26,2019-03-28,,V,,,,
Birdies Wholesale Tobacco,2014 W Main St,,Lutcher,LA,70071,US,,2258698787,,2019-07-25,,,T,,,,
Create A Cig,2981 US-190 Ste B,,Mandeville,LA,70471,US,https://www.createacig.com,9859519451,info@createacig.com,2018-08-14,2020-02-09,Yes,V,CBD,Yes,,
Discount Tobacco,1848 Florida St,,Mandeville,LA,70448,US,,9856264245,,2019-09-09,,,T,,Yes,,
Legacy Vapor Co.,2040 LA-59 Ste K,,Mandeville,LA,70448,US,http://www.legacyvapor.co,9856294430,legacyvaporco@gmail.com,2018-01-21,2019-02-02,,V,,,,
Ra Shop,2198 Florida St,,Mandeville,LA,70448,US,http://www.rashop.us/,9856741644,,2018-08-14,2020-02-10,Yes,S,CBD,Yes,,
The CBD Shop,4958 LA-22,,Mandeville,LA,70471,US,https://www.thecannabidiolshop.com/,9852065092,info@thecannabidiolshop.com,2020-06-24,2021-05-29,Yes,C,CBD,,,
Zita's Gift Shop,1807 N Causeway Blvd,,Mandeville,LA,70471,US,http://www.zitazone.com/,9856266222,,2019-08-20,,Yes,H,CBD,,,
Smoke Corner,100 Edwards St #A,,Mansfield,LA,71052,US,,3188722791,,2020-02-18,2020-02-18,,T,,,,
CBD Hemp To Go,20 Memory Lane,,Many,LA,71449,US,,3183084446,,2020-11-25,,Yes,C,CBD,,,
Red Dog Vape Shop and Collectibles,330 Tunica Dr W,,Marksville,LA,71351,US,http://red-dog-vape-shop-and-collectibles.business.site/,3185972365,,2020-02-08,2020-02-08,Yes,V,CBD,,,
CBD Wellness LLC,2551 Ames Blvd #B,,Marrero,LA,70072,US,https://cbdwellnessnola.com/,5043549672,cbdwellnessllc@yahoo.com,2020-12-04,,Yes,C,CBD,Yes,,
Vape & More,1855 Barataria Blvd,,Marrero,LA,70072,US,,5046169547,,2022-01-19,2022-01-19,Yes,V,CBD,Yes,,
Vapor Life,1670 Barataria Blvd Ste B2,,Marrero,LA,70072,US,https://www.vapor4life.com/,5043416455,support@vapor4life.com,2019-08-27,,,V,,,,
David Drive Discount,2309 David Dr #C,,Metairie,LA,70003,US,,5048835510,,2019-09-05,,,S,,Yes,,
Esmoke Vapors,3841 Veterans Blvd,,Metairie,LA,70002,US,https://esmokevapors.com,5043094544,ecig504@yahoo.com,2018-10-22,,Yes,V,CBD,,,
Good Habit Cigar and Liquor,3323 Severn Ave,,Metairie,LA,70002,US,,5043433460,,2019-04-18,,,T,,,,
Health 4 Nola,3200 Severn Ave Ste 116,,Metairie,LA,70002,US,https://cbdoilsrus.net,5048419145,,2020-11-28,,Yes,C,CBD,,,
Ra Shop,3828 Veterans Memorial Blvd Ste D,,Metairie,LA,70002,US,http://www.rashop.us/,5048898436,,2018-08-14,2020-02-10,Yes,S,CBD,Yes,,
The Vaping Tiger,2812 Athania Pkwy,,Metairie,LA,70002,US,https://www.vapingtiger.com/,5042184400,victoria@vapingtiger.com,2018-09-18,,,V,,,,
"Your CBD Store - Metairie, LA",6824 Veterans Blvd Ste 100C,,Metairie,LA,70003,US,https://cbdrx4u.com/,5045339990,cbd3507@gmail.com,2019-09-13,2019-09-13,Yes,C,CBD,,,
2 Lucky Vapor Store,615 Main St,,Minden,LA,71055,US,,3186399639,,2018-06-04,2019-06-19,,V,,,,
Herbals 4 Play,504 Louisville Ave,,Monroe,LA,71201,US,,3187340942,herbals4play@att.net,2018-11-06,2021-07-19,Yes,H,CBD,Yes,,
Smokers Paradise & Daiquiris,7830 Desiard St,,Monroe,LA,71203,US,,3185825552,,2020-03-10,2020-03-10,,T,,,,
Smokers Paradise & Spirits,3412 Desiard St,,Monroe,LA,71203,US,,3183453944,,2019-10-03,,,T,,,,
The e-Spot Vape Shop,3201 Louisville Ave Ste 1,,Monroe,LA,71201,US,https://espotvapeshop.com/,3183484860,sales@espotvapeshop.com,2018-09-18,,Yes,V,CBD,,,
The Retro Shop,4002 Desiard St,,Monroe,LA,71203,US,http://www.theretroshop.net/,3183455353,,2019-01-11,2019-01-11,Yes,H,CBD,,,
Tobacco Stop,1915 US-165,,Monroe,LA,71202,US,,3184101218,,2020-02-28,,,S,,,,
Innovative Vape,501 1/2 Southeast Blvd,,Morgan City,LA,70380,US,,9854126207,,2019-04-26,,,V,,,,
Smoke N Go,7521 LA-182,,Morgan City,LA,70380,US,http://www.mysmokengo.com/,9853292522,,2019-08-02,2019-08-02,Yes,S,CBD,,,
Cajun Vapes,869 Sam Houston Jones Pkwy,,Moss Bluff,LA,70611,US,https://www.bayouswampjuice.com/,3379058273,cajunvapes@gmail.com,2014-09-03,2019-03-27,Yes,V,CBD,,,
Natural Mystic Tattoo And Piercing,132 South Dr,,Natchitoches,LA,71457,US,,3183540089,,2018-11-20,,Yes,H,CBD,,,
One Stop Smoke & Vape Natchitoches,235 Keyser Ave,,Natchitoches,LA,71457,US,,3185218073,,2021-02-20,,Yes,S,CBD,,,
The Trippy Hippie,140 South Dr,,Natchitoches,LA,71457,US,,3182288767,,2019-11-18,,Yes,H,CBD,Yes,,
Tobacco Warehouse,834 Keyser Ave,,Natchitoches,LA,71457,US,,3183547208,tobwarehouse2@bellsouth.net,2020-02-19,,,T,,,,
City Vapes,820 E Admiral Doyle Dr,,New Iberia,LA,70560,US,,3372774370,,2018-08-14,2020-02-09,Yes,V,CBD,,,
Swamp Vapor,616 S Lewis St Ste I,,New Iberia,LA,70560,US,http://swampvapor.com/,3373216350,swampvapor@gmail.com,2018-08-14,2020-02-10,Yes,V,CBD,,,
Adolph's,100 Vernon St,,New Llano,LA,71461,US,,3372399549,,2020-11-16,,Yes,O,CBD,Yes,,
Calhoun Vapor,3137 Calhoun St,,New Orleans,LA,70125,US,http://calhounvapor.com/,5043094717,info@calhounvapor.com,2014-09-13,2019-05-05,,V,,,,
Crescent City Vape Marigny,2268 St. Claude Ave,,New Orleans,LA,70119,US,https://www.crescentcityvape.com/,5042333934,info@crescentcityvape.com,2019-03-27,,Yes,V,CBD,,,
Crescent City Vape Uptown,4507 Magazine St,,New Orleans,LA,70115,US,https://www.crescentcityvape.com/,5043098134,info@crescentcityvape.com,2014-09-26,2019-03-27,Yes,V,CBD,,,
Herb's High Ground Dispensary,4901 Canal St Ste A,,New Orleans,LA,70119,US,https://www.herbimport.com/hgd,5044888884,,2022-03-11,2022-03-11,Yes,C,CBD,Yes,,
La Habana Hemingway Cigars,522 1/2 Bourbon St,,New Orleans,LA,70130,US,,,,2022-04-28,2022-04-28,Yes,T,CBD,,,
Mary Jane's Emporium,1229 Decatur St,,New Orleans,LA,70116,US,http://maryjanesemporium.com/,5045258004,info@maryjanesemporium.com,2019-01-11,,Yes,H,CBD,Yes,,
Mushroom New Orleans,1037 Broadway St,,New Orleans,LA,70118,US,http://www.mushroomneworleans.com/,5048666065,themushroomneworleans@gmail.com,2018-10-26,2018-10-26,Yes,S,CBD,Yes,,
Ra Shop,8128 Oak St,,New Orleans,LA,70118,US,http://www.rashop.us/,5048648288,,2018-08-14,2020-02-10,Yes,S,CBD,Yes,,
Ra Shop,733 Toulouse St,,New Orleans,LA,70130,US,http://www.rashop.us/,5048753067,,2018-08-14,2020-02-10,Yes,S,CBD,Yes,,
Simply CBD - Marigny,2268 St. Claude Ave Ste B,,New Orleans,LA,70119,US,https://www.simplycbdshop.com/,5046566361,info@simplycbdshop.com,2019-08-18,,Yes,C,CBD,,,
Simply CBD - Uptown,4507 Magazine St Ste A,,New Orleans,LA,70115,US,https://www.simplycbdshop.com/,5048143175,info@simplycbdshop.com,2019-08-18,,Yes,C,CBD,,,
Smoke Sum,926 Canal St,,New Orleans,LA,70112,US,https://smokesum.shopping/,5045100051,,2020-02-03,2020-02-03,Yes,S,CBD,Yes,,
Smokecignals,8135 Oleander St,,New Orleans,LA,70118,US,http://www.smokecignals.com/,5042983142,info@smokecignals.com,2018-08-14,2020-02-10,,V,,,,
The Herb Import Co.,5055 Canal St,,New Orleans,LA,70119,US,http://www.herbimport.com,5044884889,herbimport@gmail.com,2018-11-23,,Yes,H,CBD,Yes,,
The Herb Import Co.,712 Adams St,,New Orleans,LA,70118,US,http://www.herbimport.com,5048614644,herbimport@gmail.com,2018-10-28,2018-11-13,Yes,H,CBD,Yes,,
The Herb Import Comany,711 Saint Peter St,,New Orleans,LA,70116,US,http://www.herbimport.com,5045254372,herbimport@gmail.com,2018-11-15,,Yes,H,CBD,Yes,,
Up In Smoke HQ,2101 Magazine St,,New Orleans,LA,70130,US,,5048990005,upinsmokehq@gmail.com,2019-01-11,,Yes,S,CBD,Yes,,
Uptown Hemp,7979 Earhart Blvd,,New Orleans,LA,70125,US,https://theuptownhemp.com/,15047666493,theuptownhemp@gmail.com,2020-12-11,,Yes,C,CBD,,,
Urban Tree CBD,2130 Magazine St,,New Orleans,LA,70130,US,https://neworleanscbdtopicals.com/,5047666407,utcbdstore@gmail.com,2020-12-11,,Yes,C,CBD,,,
Vape On - Magazine,3326 Magazine St,,New Orleans,LA,70115,US,,5045339600,,2020-03-14,2020-03-14,Yes,S,CBD,,,
Weed World Candies,829 Canal St,,New Orleans,LA,70130,US,,,,2022-03-25,2022-03-25,Yes,C,CBD,,,
"Your CBD Store - New Orleans, LA",3613 Magazine St Ste E,,New Orleans,LA,70115,US,https://cbdrx4u.com/,5047028989,nola@cbdrx4u.com,2019-09-13,2019-09-13,Yes,C,CBD,,,
KC Vapes,659 W Main St,,New Roads,LA,70760,US,,2257135034,,2019-12-24,,Yes,V,CBD,,,
Lagniappe Vape Shop LLC,104 E Landry St,,Opelousas,LA,70570,US,https://lagniappe-vape-shop-llc.business.site/,3376781211,lagniappevape@gmail.com,2021-03-04,,Yes,V,CBD,,,
Replay Smoke Shop,1310 Edith St,,Opelousas,LA,70570,US,,3376781999,,2018-08-14,2020-02-10,Yes,S,CBD,Yes,,
Tobacco Plus,210 E Vine St,,Opelousas,LA,70570,US,https://www.shopritela.com/,3379421499,,2018-09-18,,,T,,,,
Smoke N Go,620 US-90,,Patterson,LA,70392,US,http://www.mysmokengo.com/,9853999299,,2019-08-02,2019-08-02,Yes,S,CBD,,,
Smokey's Discount Tobacco,64228 LA-41,,Pearl River,LA,70452,US,,9858636004,,2020-03-19,,,T,,,,
One Stop Smoke & Vape Pineville,3402 LA-28,,Pineville,LA,71360,US,,3187046570,,2019-06-02,2019-06-02,Yes,V,CBD,Yes,,
TJ's Tobacco Shop,1545 US-51 BUS #5,,Ponchatoula,LA,70454,US,,,,2020-04-17,2020-04-17,,T,,,,
Smoke N Go,17492 US-190,,Port Barre,LA,70577,US,http://www.mysmokengo.com/,3375851890,,2019-08-02,2019-08-02,Yes,S,CBD,,,
Lit Smoke Shop,17316 Airline Hwy Ste D,,Prairieville,LA,70769,US,https://litsmokeshops.com/,2253133228,,2019-01-27,2019-01-27,Yes,S,CBD,Yes,,
Smokey's,17424 Airline Hwy #3,,Prairieville,LA,70769,US,,2256736322,,2020-03-18,,,S,,Yes,,
VapingCraze,17540 Airline Hwy Ste E,,Prairieville,LA,70769,US,http://vapingcraze.business.site/,2253130059,support@vapingcraze.com,2015-10-28,2019-01-27,Yes,V,CBD,,,
Vapor Solutions Mathews,4889 LA-1 Ste C,,Raceland,LA,70394,US,,9852423022,,2019-10-07,,,V,,,,
Smoke N Go,1108 The Blvd,,Rayne,LA,70578,US,http://www.mysmokengo.com/,3373340669,,2019-08-02,2019-08-02,Yes,S,CBD,,,
Altitude Vapor Lounge,975 Tech Dr Ste 4,,Ruston,LA,71270,US,https://altitudevapor.weebly.com/,3182023890,bkhmarketing1@gmail.com,2014-09-21,2019-02-02,,V,,,,
Legends Cigar & Vape E Shop,2000 E Kentucky Ave,,Ruston,LA,71270,US,http://legendsvape.com/,3182247205,legends.cigar.vape@gmail.com,2021-10-23,,Yes,T,CBD,,,
The Vape Escape,1015 Farmerville Hwy,,Ruston,LA,71270,US,http://thevapeescapela.com,3182249077,,2018-09-03,2020-03-04,Yes,V,CBD,,,
Smoke N Go,325 Apollo Rd,,Scott,LA,70583,US,http://www.mysmokengo.com/,3372640350,,2019-08-02,2019-08-02,Yes,S,CBD,,,
Swamp Vapor,5545 Cameron St Ste G,,Scott,LA,70583,US,http://swampvapor.com/,3377087818,swampvapor@gmail.com,2018-08-14,2020-02-10,Yes,V,CBD,,,
Troposphere Vapors,806 I-10 S Frontage Rd Ste B,,Scott,LA,70583,US,https://www.troposphere-vapors.com/,3374083322,info@troposphere-vapors.com,2018-09-18,,Yes,V,CBD,,,
318 Cloudz Smoke & Vape Shop,8714 Youree Dr Ste E,,Shreveport,LA,71115,US,https://318cloudz.com/,3187544102,solo@318cloudz.com,2021-10-23,,Yes,S,CBD,Yes,,
318 Cloudz Smoke & Vape Shop,6205 Westport Ave #150,,Shreveport,LA,71129,US,https://318cloudz.com/,3186708840,solo@318cloudz.com,2021-10-23,,Yes,S,CBD,Yes,,
Cannabis With Love,3772 Youree Dr,,Shreveport,LA,71105,US,,3183103700,,2020-11-22,,Yes,C,CBD,,,
CBD American Shaman Shreveport,1226 Shreveport Barksdale Hwy,,Shreveport,LA,71105,US,http://cbdoilshreveport.com/,3188282499,wellnessjourney2019@gmail.com,2019-11-08,,Yes,C,CBD,,,
Fun Shop Too,9434 Mansfield Rd,,Shreveport,LA,71118,US,http://www.funshop2.com,3186882482,,2018-08-06,2020-01-13,,O,,,,
Great American Vapes,934 E 70th St,,Shreveport,LA,71106,US,http://greatamericanvapes.com/,3182165841,,2018-08-06,2020-01-14,Yes,V,CBD,,,
Pipes Emporium,1304 Centenary Blvd,,Shreveport,LA,71101,US,http://pipesemporium.com/,3184242820,,2018-08-14,2020-02-09,Yes,S,CBD,Yes,,
Shreveport CBD & Wellness by 5 Star Nutrition,7030 Youree Dr,,Shreveport,LA,71105,US,https://5starnutritionusa.com/,3184503222,info@5starnutritionusa.com,2021-01-10,,Yes,O,CBD,,,
Smokers City,502 Texas St,,Shreveport,LA,71101,US,https://smokers-city.business.site/,3189468417,,2019-11-10,,,S,,,,
Tiger Vapes,1106 Shreveport Barksdale Hwy Ste 104,,Shreveport,LA,71105,US,http://tigervapes.com/,3186703808,tigervapes.shrev@gmail.com,2018-09-18,2019-05-05,,V,,,,
Tobacco House #1,4422 Youree Dr,,Shreveport,LA,71105,US,http://www.tobaccohouse.us/,3188612243,tobaccohousemarketingdept@gmail.com,2020-07-07,,,T,,,,
Tobacco House #3,9464 Mansfield Rd,,Shreveport,LA,71118,US,http://www.tobaccohouse.us/,3186865991,tobaccohousemarketingdept@gmail.com,2020-07-07,,,T,,,,
Tobacco House #6,6730 Pines Rd #206,,Shreveport,LA,71129,US,http://www.tobaccohouse.us/,3186830069,tobaccohousemarketingdept@gmail.com,2020-07-07,,,T,,,,
Twin City Smokeshop,4001 Jewella Ave Ste A,,Shreveport,LA,71109,US,,3186356888,,2019-11-19,,,S,,Yes,,
Unlimited Vapor,758 Shreveport Barksdale Hwy Ste A,,Shreveport,LA,71105,US,,3188282915,,2019-02-07,,,V,,,,
Unlimited Vapor,9447 Mansfield Rd #5,,Shreveport,LA,71118,US,,318828282767,selena.skyles@hotmail.com,2017-08-07,2019-02-07,Yes,V,CBD,,,
Up In Smoke,500 Texas St,,Shreveport,LA,71101,US,,3186748778,,2021-10-23,,,S,,,,
"Your CBD Store - Shreveport, LA",3702 Youree Dr,,Shreveport,LA,71105,US,https://cbdrx4u.com/,3183440682,cbd3507@gmail.com,2019-09-13,2019-09-13,Yes,C,CBD,,,
Esmoke Vapors,1207 Eastridge Dr,,Slidell,LA,70458,US,https://esmokevapors.com,9853268500,ecig985@yahoo.com,2018-10-22,,,V,,,,
Geaux CBD,1327 Englewood Dr,,Slidell,LA,70458,US,https://www.geauxcbdslidell.com/,9856413138,geauxcbdslidell@gmail.com,2021-01-11,,Yes,C,CBD,,,
LA Harvest Company,1030 Gause Blvd W,,Slidell,LA,70460,US,https://laharvestco.com/,9852017720,laharvestcompany@gmail.com,2022-04-28,2022-04-29,Yes,C,CBD,,,
Ra Shop,758 E I-10 Service Rd Ste M,,Slidell,LA,70461,US,http://www.rashop.us/,9856497262,,2018-08-14,2020-01-18,Yes,S,CBD,Yes,,
Smokelocker,1290 Front St Ste 2,,Slidell,LA,70458,US,https://smokelocker.business.site/,9852884906,,2020-03-19,2020-03-19,,S,,Yes,,
Xhale Vapes,1541 Gause Blvd W Ste B,,Slidell,LA,70460,US,,9853263117,xhalevapes3@gmail.com,2015-02-03,2019-03-28,Yes,V,CBD,,,
"Your CBD Store - Slidell, LA",1736 Gause Blvd E #16,,Slidell,LA,70461,US,https://cbdrx4u.com/,9853263686,cbd3507@gmail.com,2019-09-13,2019-09-13,Yes,C,CBD,,,
Smoke N Go,2233 N Main St,,St. Martinville,LA,70582,US,http://www.mysmokengo.com/,3373941164,,2019-08-02,,Yes,S,CBD,,,
A & B Tobacco,2410 E Napoleon St,,Sulphur,LA,70663,US,,3375338500,,2019-07-14,,,T,,,,
High Volt Vapor,190 N Cities Service Hwy #1,,Sulphur,LA,70663,US,http://highvoltvapor.net/,3378883004,,2018-08-06,2020-01-14,Yes,V,CBD,,,
The Vapor Stop,111 Landry St,,Sulphur,LA,70663,US,https://thevaporstop1.myshopify.com/,3375635217,thevaporstop@yahoo.com,2018-09-30,,,V,,,,
Tobacco Plus,200 Darbonne St,,Sulphur,LA,70663,US,,3375275025,,2020-05-23,,Yes,T,CBD,,,
Smoke Shop,410 E Bayou Dr,,Tallulah,LA,71282,US,,3185742224,,2020-02-25,,,S,,,,
Sweet Southern Vapes Terrytown,2785 Belle Chasse Hwy,,Terrytown,LA,70056,US,https://sweetsouthernvapes.com/,5043120893,ordersssv@yahoo.com,2020-12-25,,Yes,V,CBD,,,
Terrytown Cigarette Outlet Inc,638 Terry Pkwy,,Terrytown,LA,70056,US,,5043613099,,2019-12-17,,,T,,,,
Up In Smoke,651 Terry Pkwy #106,,Terrytown,LA,70056,US,,5043099089,,2019-11-10,,Yes,S,CBD,,,
Alternative Vapors AV,1113 Audubon Ave,,Thibodaux,LA,70301,US,,9852277008,,2018-06-04,2019-06-19,Yes,V,CBD,,,
Bayou Queen Vape 2,147 Laura Dr Ste F,,Thibodaux,LA,70301,US,,9853871556,,2018-08-06,2020-01-11,Yes,V,CBD,,,
Smoke N Go,1307 Canal Blvd,,Thibodaux,LA,70301,US,http://www.mysmokengo.com/,9854467665,,2019-08-02,2019-08-02,Yes,S,CBD,,,
Tobacco Mart,1642 Carter St #2,,Vidalia,LA,71373,US,,3183368074,,2020-01-16,,,T,,,,
Tobacco House #4,707 S Pine St,,Vivian,LA,71082,US,http://www.tobaccohouse.us,3183752969,tobaccohousemarketingdept@gmail.com,2020-07-07,,,T,,,,
CBD & Wellness West Monroe by 5 Star Nutrition,205 Constitution Dr,,West Monroe,LA,71292,US,https://5starnutritionusa.com/,3186052088,westmonroe@5starnutritionusa.com,2020-11-23,,Yes,C,CBD,,,
Cloud Nine,117 Cotton St,,West Monroe,LA,71291,US,http://cloud9vapory.com/,3186510069,cloud9wm@yahoo.com,2018-10-19,,Yes,S,CBD,,,
Cool Vape And Gift Shop,3103 Cypress St #1,,West Monroe,LA,71291,US,,3188168144,,2022-01-14,2022-01-14,Yes,S,CBD,Yes,,
Elevate Vape Shop and Botanical Bar,3603 Cypress St Ste 2,,West Monroe,LA,71291,US,https://www.elevatevapeshop.com/,3185702852,elevatevapeshop@gmail.com,2020-12-31,,Yes,V,CBD,,,
Smokers Paradise,3214 Cypress St,,West Monroe,LA,71291,US,,3183241746,,2020-03-14,,,T,,,,
The e-Spot Vape Shop,207 Blanchard St Ste 4,,West Monroe,LA,71291,US,https://espotvapeshop.com/,3183484860,sales@espotvapeshop.com,2018-09-18,,Yes,V,CBD,,,
The Vape Escape,2519 N 7th St Ste 5,,West Monroe,LA,71291,US,http://thevapeescapela.com,3186004391,,2018-09-03,2020-03-04,Yes,V,CBD,,,
337 VAPOR,2761 E Milton Ave Ste A2,,Youngsville,LA,70592,US,,3374514150,,2022-01-06,2022-01-06,,V,,,,
Aurora CBD & Hemp,209 Centre Sarcelle Blvd #105,,Youngsville,LA,70592,US,https://www.auroracbdhemp.com/,3374518223,aurora985@outlook.com,2020-11-18,,Yes,C,CBD,,,
Blue Line Vape,4908 Main St Ste A,,Zachary,LA,70791,US,,2252865521,bluelinevape@yahoo.com,2019-07-26,,Yes,V,CBD,,,