Shop Name,Address 1,Address 2,City,State/Province,Zip/Postcode,Country,Website,Phone,Email,Added,Updated,CBD,Biz Type,MJ,Kratom,Buyer name ,Title 
The Blessing Flower - 3 Tall Pines,N2497 US-45,,Antigo,WI,54409,US,,7153504485,gthran712@gmail.com,2021-07-31,2021-07-31,Yes,C,CBD,,,
Xtreme Vape LLC,2242 Neva Rd,,Antigo,WI,54409,US,http://www.xtremevapeshops.com/,7156106594,xtremevapeshop@yahoo.com,2018-09-30,,Yes,V,CBD,,,
A&G's CBD Dispensary,1104 W Wisconsin Ave,,Appleton,WI,54914,US,https://agscbddispensary.com/,9205743689,ashleywhitetdt@gmail.com,2020-11-15,,Yes,C,CBD,,,
AZ Tobacco And Vapor,3470 W College Ave,,Appleton,WI,54914,US,,9209971899,,2018-10-09,2019-04-10,Yes,S,CBD,,,
E-Cig Store LLC,2575 S Memorial Dr #101,,Appleton,WI,54915,US,http://www.e-cigstorellc.com/,9208308273,e_cigstorellc@yahoo.com,2018-08-06,2019-12-16,Yes,V,CBD,,,
Eldorado's Adult Party Store,2545 S Memorial Dr,,Appleton,WI,54915,US,,9208300042,buck1151@yahoo.com,2019-01-09,,,H,,,,
Elf's Gifts,2700 W College Ave #11,,Appleton,WI,54914,US,https://www.facebook.com/elfsgifts.appleton,9203804420,elfsgifts@gmail.com,2018-12-19,2020-01-30,Yes,H,CBD,,,
EVapor of Appleton,1725 S Oneida St,,Appleton,WI,54915,US,,9207397783,evaporofappleton@gmail.com,2014-09-04,2019-02-27,Yes,V,CBD,,,
Fox Valley Vapor,N474 Eisenhower Dr Ste I,,Appleton,WI,54915,US,,9203640201,foxvalleyvapor@gmail.com,2018-09-30,2019-11-07,Yes,V,CBD,,,
Good Nature Evapor,420 E Northland Ave Ste E,,Appleton,WI,54911,US,http://www.goodnatureevapor.com,9205742235,info@goodnatureevapor.com,2018-09-30,,,V,,,,
Happy Trails CBD,3416 W College Ave,,Appleton,WI,54914,US,https://happytrailscbd.com/,9202023180,hello@happytrailscbd.com,2020-07-03,,Yes,C,CBD,,,
Marley's Smoke Shop,530 W College Ave,,Appleton,WI,54911,US,https://marleyswisconsin.com/,9207335700,marleyswisconsin@gmail.com,2018-08-11,2020-07-12,Yes,S,CBD,,,
Smokin Glass,1107 W Wisconsin Ave,,Appleton,WI,54914,US,https://www.smokinglass2.com/,9209031986,smokinglassappleton@gmail.com,2018-08-23,2020-02-23,Yes,H,CBD,,,
THE Dispensary - Appleton East,3020 E College Ave Ste N,,Appleton,WI,54915,US,https://www.thed8dispensary.com/appleton,9209038705,,2021-10-19,2021-10-19,Yes,C,CBD,,,
Vapin USA,1025 Mutual Way,,Appleton,WI,54913,US,https://www.vapinusa.com/,9208153749,info@vapinusa.com,2018-08-23,2020-02-22,,V,,,,
"Your CBD Store - Appleton, WI",3402 N Richmond St Unit B,,Appleton,WI,54911,US,https://cbdrx4u.com,9209687223,naturesnectar2019@gmail.com,2020-07-22,,Yes,C,CBD,,,
"Your CBD Store - Ashwaubenon, WI",2901 Ramada Way #103,,Ashwaubenon,WI,54304,US,https://sunflora.org/,9203931070,ashwaubenonwi@cbdrx4u.com,2020-07-22,,Yes,C,CBD,,,
Discount Smokes,305 South Blvd,,Baraboo,WI,53913,US,,6083551300,,2019-10-23,,,S,,,,
Fat's Tats,413 Oak St,,Baraboo,WI,53913,US,,6084484515,fatstats53913@gmail.com,2021-03-20,,Yes,S,CBD,,,
M of N Vapors & CBD,830 WI-136,,Baraboo,WI,53913,US,http://www.mofnvapors2.com/,6086782321,,2018-08-11,2022-04-21,Yes,V,CBD,,,
Green Acres CBD,820 Park Ave,,Beaver Dam,WI,53916,US,https://greenacres-cbd.com/,9203565152,beaverdamcbd@gmail.com,2021-01-14,,Yes,C,CBD,,,
Life Herb,112 Front St,,Beaver Dam,WI,53916,US,https://www.lifeherbbd.com/,9203192021,lifeherb.contactus@gmail.com,2021-03-13,,Yes,C,CBD,,,
Sensations Lingerie,8089 State Hwy 33 Trunk,,Beaver Dam,WI,53916,US,,9203569952,,2020-02-15,,,O,,,,
Smokes On The Water,135 Front St,,Beaver Dam,WI,53916,US,,9202194186,smokesonthewater.bd@gmail.com,2018-08-23,2020-02-23,Yes,S,CBD,,,
The Lunar Station,319 Madison St,,Beaver Dam,WI,53916,US,,9202184776,lunarglass2018@gmail.com,2018-11-02,2019-02-07,Yes,H,CBD,,,
Johnny Vapes,1681 Lime Kiln Rd,,Bellevue,WI,54311,US,http://www.johnnyvapes.com/,9203939305,info@johnnyvapes.com,2018-08-11,2020-02-06,,V,,,,
Tobacco Shack Liquor,1212 Cranston Rd,,Beloit,WI,53511,US,,6083630577,,2020-04-29,2020-04-29,,T,,,,
X-Treme Smoke & Vapor,2600 Branigan Rd Ste E,,Beloit,WI,53511,US,https://www.janesvillesmokeshop.com/,6083687474,xtremeinfo11@gmail.com,2020-10-22,,Yes,S,CBD,,,
PriceLand Hemp,118 Main St,,Black River Falls,WI,54615,US,https://wiscbdoil.com/,7152995200,pricelandhemp@gmail.com,2021-02-09,,Yes,C,CBD,,,
Azara Smoke N Vape,17110 W Greenfield Ste 5,,Brookfield,WI,53005,US,https://azaravape.com/,2624398437,azara.brookfield@gmail.com,2022-01-12,2022-01-12,Yes,S,CBD,,,
CBD American Shaman - Brookfield Brownstones,17550 W Bluemound Rd Ste 200,,Brookfield,WI,53045,US,https://cbdamericanshaman.com/,2695998020,cbdamericanshamanwi@gmail.com,2019-11-11,,Yes,C,CBD,,,
Let's Roll Tobacco & Vape of Brookfield,19035 W Bluemound Rd,,Brookfield,WI,53045,US,http://www.letsrollonbluemound.com/,2627842735,contact@letsrollonbluemound.com,2020-01-01,,Yes,S,CBD,,,
Smoke World Vape,17115 W Bluemound Rd Ste B,,Brookfield,WI,53005,US,http://smokeworldvape.com/,2625056500,hello@smokeworldvape.com,2018-08-23,2020-10-26,Yes,S,CBD,,,
E-Smoke & Tobacco,416 Milwaukee Ave,,Burlington,WI,53105,US,,2627639300,,2020-10-22,,,S,,,,
Up in Smoke,248 N Pine St,,Burlington,WI,53105,US,,2627678685,,2019-11-10,,Yes,S,CBD,,,
That's No Smoke,12526 W Hampton Ave,,Butler,WI,53007,US,https://www.thatsnosmoke.com/,2629553593,info@thatsnosmoke.com,2018-08-23,2020-02-22,Yes,V,CBD,,,
"Zero.3, LLC",4701 N 124th St,,Butler,WI,53007,US,https://zero3cbd.com/,2627811986,,2020-12-02,,Yes,C,CBD,,,
MadTown Vapor And Bar,111 Jefferson St,,Cambridge,WI,53523,US,https://www.madtownvap.com/,6082852006,dino@madtownvap.com,2018-08-06,2019-12-29,Yes,V,CBD,,,
Vapor Haven,122 W Main St,,Campbellsport,WI,53010,US,,9209042924,adischer@kmoraine.com,2018-09-23,,,V,,,,
The E Spot,539 Madison St,,Chilton,WI,53014,US,https://theespot.business.site/,9204641337,,2020-07-18,,Yes,V,CBD,,,
Azara Smoke N Vape - Chippewa Falls,2751 Commercial Blvd,,Chippewa Falls,WI,54729,US,http://www.azaravapecf.com/,7158617122,,2018-10-14,2019-04-16,Yes,S,CBD,,,
Thundercat Fireworks & Smoke Shop,2771 County Hwy N,,Cottage Grove,WI,53527,US,https://thundercatsjackedupjava.com,6087198222,,2020-12-08,,Yes,O,CBD,,,
Still Smoking,207 N Lake Ave,,Crandon,WI,54520,US,,7154784059,,2018-08-23,2020-02-23,Yes,S,CBD,,,
Charlie's Liquor & Tobacco Mart,6143 S Packard Ave,,Cudahy,WI,53110,US,http://charliesliquor-tobacco.com/,4147689249,charlies5@att.net,2019-08-02,,Yes,T,CBD,,,
Smokin Deals,5656 S Packard Ave,,Cudahy,WI,53110,US,,4144822222,,2020-03-21,,Yes,S,CBD,,,
Hemp Haven Farms,1506 Co Rd BB,,Deerfield,WI,53531,US,https://www.hemphavenfarms.com/,6087642757,info@hemphavenfarms.com,2021-01-25,,Yes,C,CBD,,,
RV Mart,1333 Racine St,,Delavan,WI,53115,US,,2627257550,racinevarietymart@gmail.com,2020-02-28,,,S,,,,
X-Treme Smoke & Vapor,1440 E Geneva St,,Delavan,WI,53115,US,https://www.janesvillesmokeshop.com/,2627257200,xtremeinfo11@gmail.com,2018-08-23,2020-02-22,Yes,S,CBD,,,
Sunny Skies CBD,100 W Main St,,Durand,WI,54736,US,https://sunnyskiescbd.com/,7156728760,info@sunnyskiescbd.com,2020-12-27,,Yes,C,CBD,,,
Azara Eau Claire,624 Water St,,Eau Claire,WI,54703,US,http://www.azaravapeec.com/,7155145485,azara.eauclaire@gmail.com,2018-10-14,2018-10-14,Yes,S,CBD,,,
Azara Vape Bar,2510 London Rd,,Eau Claire,WI,54701,US,http://azaravapebar.com/,7155143300,azaravapebar@gmail.com,2018-08-11,2018-10-14,Yes,V,CBD,,,
Eau Claire Tobacco,3577 Gateway Dr,,Eau Claire,WI,54701,US,,7155523473,,2018-10-21,2018-11-11,Yes,S,CBD,,,
Evolution Health and Wellness + CBD,2600 London Rd,,Eau Claire,WI,54701,US,https://evolutionhw.com/,7155140666,evolutionhempco@gmail.com,2021-01-02,,Yes,C,CBD,,,
Heady Hut,930 Galloway St Ste 27,,Eau Claire,WI,54703,US,https://www.heady-hut.com,7155140172,cooper@headyhut.us,2021-10-29,2021-10-29,,H,,,,
Iconic Vapers,2751 London Rd,,Eau Claire,WI,54701,US,https://iconic-vapers.business.site/,7155143643,iconic.vapers@gmail.com,2017-07-28,2019-01-18,,V,,,,
Truckers Union,413 Water St,,Eau Claire,WI,54703,US,http://www.truckersunionec.com/,7158346885,truckersunion@att.net,2019-01-09,,Yes,H,CBD,,,
Wonders of Nature,416 S Barstow St,,Eau Claire,WI,54701,US,https://www.wondersofnatureonline.com/,7154978740,wondersofnaturehemp@gmail.com,2020-12-07,,Yes,C,CBD,,,
Your CBD Store,1418 S Hastings Way,,Eau Claire,WI,54701,US,https://cbdrx4u.com,7158958042,eauclairewi@cbdrx4u.com,2020-07-21,2020-07-21,Yes,C,CBD,,,
Hemp 1848,2 E Fulton St,,Edgerton,WI,53534,US,https://hemp1848.com/,6085616563,hemp1848@gmail.com,2019-08-30,,Yes,C,CBD,,,
SpeakEazy Vapor Shop & Lounge,N5698 850th St,,Elk Mound,WI,54739,US,,7153087995,garrettrotten1977@gmail.com,2019-10-16,,,V,,,,
The Opti-Mystic,18 W Main St,,Evansville,WI,53536,US,https://www.facebook.com/optimysticllc/,6086651543,opti-mysticllc@outlook.com,2020-12-08,,Yes,O,CBD,,,
Cheapo Depot & Fireworks Outlet,181 Main St,,Ferryville,WI,54628,US,https://shopcheapodepot.com/,6087343064,,2020-12-02,,Yes,O,CBD,,,
A Z Vapor,187 N Pioneer Rd Ste 102,,Fond du Lac,WI,54935,US,,9202668085,,2018-07-01,2019-05-06,Yes,V,CBD,,,
Big Jays Smoke Shop,111 S Main St,,Fond Du Lac,WI,54935,US,,9202668622,,2018-09-15,,Yes,S,CBD,,,
HempWorks Wisconsin,188 N Main St,,Fond du Lac,WI,54935,US,https://hempworkswisconsin.com/,9209333464,hempworkswisconsin@gmail.com,2021-01-29,,Yes,C,CBD,,,
Lakeside Smokes and Vapes,770 S Main St Ste 21,,Fond du Lac,WI,54935,US,http://www.lakesidevapes.com/,9209333740,staff@lakesidesmokesllc.com,2018-08-11,2020-02-06,Yes,S,CBD,,,
LuZa CBD Wellness Center,14 N Main St,,Fond du Lac,WI,54935,US,https://www.luzacbd.com/,9209231991,luzaf2b@gmail.com,2021-03-17,,Yes,C,CBD,,,
Mad Hatteur Music,231 S Main St,,Fond du Lac,WI,54935,US,http://www.madhatteur.com,9209213720,emphatteur@ameritech.net,2018-12-08,,,H,,,,
Secrets III Adult Party Store,161 N Rolling Meadows Dr,,Fond du Lac,WI,54937,US,,9209212929,secrets3inc@yahoo.com,2020-02-15,2020-02-15,,S,,,,
Smokes,85 N Pioneer Rd,,Fond du Lac,WI,54935,US,http://www.smokesonmain.com/,9209070660,,2018-08-23,2019-06-16,Yes,T,CBD,,,
THE Dispensary - Fond Du Lac,113 N Main St,,Fond Du Lac,WI,54935,US,https://www.thed8dispensary.com/fonddulac,9202389389,,2021-10-19,,Yes,C,CBD,,,
Torched Glass,173 S Main St,,Fond du Lac,WI,54935,US,https://www.torchedglasswi.com/,9202389303,torchedglassfonddulac@gmail.com,2019-01-09,,Yes,H,CBD,,,
Vapor Station FDL,577 W Johnson St,,Fond du Lac,WI,54935,US,,9209335005,,2018-09-30,2019-11-03,Yes,V,CBD,,,
RockRiver Wellness,41 Sherman Ave W,,Fort Atkinson,WI,53538,US,https://rockriver-wellness.com/,9203977895,info@rockriver-wellness.com,2021-07-24,,Yes,C,CBD,,,
Tobacco Land,211 Washington St,,Fort Atkinson,WI,53538,US,http://www.tobaccolandfortatkinson.com/,9205421053,tobaccoland2015@gmail.com,2020-07-12,,,S,,,,
Vapor 101 Fort Atkinson,1309 Madison Ave,,Fort Atkinson,WI,53538,US,,9206916920,info@101vapeshop.com,2019-09-28,,,V,,,,
CBD American Shaman Franklin,7249 S 76th St,,Franklin,WI,53132,US,http://cbdamericanshaman.com,4142358767,info@cbdfranklin.com,2020-05-13,,Yes,C,CBD,,,
Smokin' Glass,6963 S 27th St,,Franklin,WI,53132,US,,4145740178,,2018-12-19,,Yes,H,CBD,,,
Wi Vape,7001 S 27th St,,Franklin,WI,53132,US,,4143672116,,2018-08-23,2020-02-22,Yes,V,CBD,,,
Discount Smoke,306 Main St,,Friendship,WI,53934,US,,6083398808,,2019-09-22,,Yes,S,CBD,,,
Germantown Smokes,N112w16560 Mequon Rd #C,,Germantown,WI,53022,US,,2622501275,,2019-11-10,,,T,,,,
Germantown Vapor,N112 W15800 Mequon Rd,,Germantown,WI,53022,US,https://germantownvapor.com/,4142462116,germantownvaporwi@gmail.com,2022-05-02,2022-05-02,Yes,V,CBD,,,
Everything Hemp LLC,N5496 Co Rd B,,Glen Flora,WI,54526,US,https://www.everythinghempllc.com/,7152100988,everythinghempllc@gmail.com,2021-01-02,,Yes,C,CBD,,,
Balanced By Earth,348 N Military Ave,,Green Bay,WI,54303,US,https://www.balancedbyearth.com/,9204550541,,2020-11-19,,Yes,C,CBD,,,
Elf's Gifts,1981 E Mason St Unit 107,,Green Bay,WI,54302,US,https://elfsgifts.com/,9204689420,elfsgifts@gmail.com,2018-12-19,2020-01-30,Yes,H,CBD,,,
Elf's Gifts,1132 S Military Ave,,Green Bay,WI,54304,US,https://elfsgifts.com/,9204979750,elfsgifts@gmail.com,2018-12-19,2020-01-30,Yes,H,CBD,,,
Fantasies Lingerie and Smoke Shop,1845 Velp Ave,,Green Bay,WI,54303,US,,9204059418,fantasieslingerie@gmail.com,2019-11-24,,Yes,H,CBD,,,
Glass Monkey Smoke Shop,1697 Main St,,Green Bay,WI,54302,US,,9204373116,,2021-01-12,,Yes,S,CBD,,,
Glass Monkey Smoke Shop,406 S Military Ave,,Green Bay,WI,54303,US,,9204944527,,2018-09-17,2021-01-12,Yes,S,CBD,,,
Happy Trails CBD,2202 S Ridge Rd Ste B,,Green Bay,WI,54304,US,https://happytrailscbd.com/,9203915697,hello@happytrailscbd.com,2020-07-03,2020-07-03,Yes,C,CBD,,,
Hawkeye's Trading Post,1532 Shawano Ave,,Green Bay,WI,54303,US,,9202465592,,2019-11-27,,Yes,H,CBD,,,
Holy Smokes,1296 Velp Ave,,Green Bay,WI,54303,US,,9204970869,,2018-09-17,,,S,,,,
Jacob's Ladder CBD Boutique,2445 Lineville Rd Ste B,,Green Bay,WI,54313,US,https://www.jacobsladdercbd.com/,9208572026,jacob.trone@yahoo.com,2021-02-12,,Yes,C,CBD,,,
Jacob's Ladder CBD Boutique,2545 Steffens Ct Ste B,,Green Bay,WI,54311,US,https://www.jacobsladdercbd.com/,9208572023,jacob.trone@yahoo.com,2021-02-12,2021-02-12,Yes,C,CBD,,,
Johnny Vapes,2652 N Packerland Dr,,Green Bay,WI,54303,US,http://www.johnnyvapes.com/,9204710595,support@johnnyvapes.com,2018-09-30,,,V,,,,
Marley's Smoke Shop,1119 W Mason St,,Green Bay,WI,54911,US,,9205440055,athornell@hotmail.com,2022-02-11,2022-02-11,Yes,H,CBD,,,
Smokin Glass,109 S Military Ave,,Green Bay,WI,54303,US,https://www.smokinglasswi.com/,9204050331,smokinglass109s@live.com,2019-01-09,2019-01-09,Yes,H,CBD,,,
THE Dispensary - Green Bay East,2246 University Ave,,Green Bay,WI,54302,US,https://www.thed8dispensary.com/greenbay-east,9205445051,,2021-10-19,,Yes,C,CBD,,,
Tundra Smoke Shop,2719 S Oneida St,,Green Bay,WI,54304,US,https://www.tundrasmokeshopwi.com/,9207705570,info@trundasmokeshopwi.com,2019-10-04,,Yes,S,CBD,,,
Vapin USA,1960 Main St Ste 1,,Green Bay,WI,54302,US,https://www.vapinusa.com/,9205440397,info@vapinusa.com,2018-09-30,,Yes,V,CBD,,,
Vapin USA,2255 S Oneida St,,Green Bay,WI,54304,US,https://www.vapinusa.com/,9204050505,info@vapinusa.com,2018-09-30,,,V,,,,
WI Roots Dispensary,2475 University Ave Ste M,,Green Bay,WI,54302,US,https://www.wi-roots.com/,9207704005,,2021-12-14,2021-12-14,Yes,C,CBD,,,
Milwaukee CBD Reserve,5405 S 76th St,,Greendale,WI,53129,US,,4143779000,mkecbdreserve@gmail.com,2021-03-13,,Yes,C,CBD,,,
The Village CBD Shoppe,5632 Parking St,,Greendale,WI,53129,US,https://thecbdcellar.net/,4144210200,thevillagecbdshoppe@gmail.com,2020-12-08,,Yes,C,CBD,,,
102 CBD Vape Smoke,6403 W Forest Home Ave,,Greenfield,WI,53220,US,https://102-cbd-vape-smoke.business.site/,2628754980,,2022-01-07,2022-01-07,Yes,S,CBD,,,
Smoke World Vape,4267 W Layton Ave,,Greenfield,WI,53221,US,http://smokeworldvape.com/,4142319221,hello@smokeworldvape.com,2020-03-15,2020-03-15,Yes,S,CBD,,,
"Canna Bloom Farmacy CBD, Vape and Tobacco",2770 E Sumner St,,Hartford,WI,53027,US,https://www.cannabloomfarmacy.com/,2622971692,cannabloomfarmacy@gmail.com,2020-10-30,,Yes,C,CBD,,,
Naturally Inspired,756 Grand Ave,,Hartford,WI,53027,US,https://naturallyinspiredcbd.com,2624572027,naturallyinspiredcbd@gmail.com,2021-03-03,,Yes,C,CBD,,,
Ignite Dispensary,15234 W County Rd B,,Hayward,WI,54843,US,http://www.ignitevaporandtobacco.com/,7156991230,ignitevandthayward@gmail.com,2019-12-13,2021-09-02,Yes,S,CBD,,,
Northwoods Vape Escape,10544 S Main St,,Hayward,WI,54843,US,https://www.northwoodsvape.com/,7159348383,,2014-10-11,2018-12-24,Yes,S,CBD,,,
Darling Gifts,7015 US-51,,Hazelhurst,WI,54531,US,http://www.darlingsgifts.com/,7153585683,,2019-09-04,2019-09-04,Yes,H,CBD,,,
Hideaway,2117 Coulee Rd,,Hudson,WI,54016,US,https://thehideawayonline.com/,7158080491,hudson@thehideawayonline.com,2018-08-06,2019-09-24,Yes,S,CBD,Yes,,
Smokedale Tobacco,1525 Coulee Rd,,Hudson,WI,54016,US,http://www.smokedaletobacco.com,7158088165,info@smokedaletobacco.com,2018-11-25,2019-01-27,,S,,,,
Vape Pro's & CBD,1801 Ward Ave Ste 214,,Hudson,WI,54016,US,https://www.vapepros.net/,7153180049,vapeproswi@gmail.com,2018-08-06,2020-01-05,Yes,V,CBD,,,
Carnival Novelty Company,12 Silver St,,Hurley,WI,54534,US,http://carnivalnovelty.com,7155613338,thecarnivalnoveltycompany@gmail.com,2019-01-09,2020-01-31,Yes,H,CBD,,,
Cigarette Depot Drive Through,1527 Milton Ave,,Janesville,WI,53545,US,,6087582226,,2019-08-22,,Yes,S,CBD,,,
Hemp 1848,111 E Milwaukee St,,Janesville,WI,53545,US,https://hemp1848.ecwid.com,6086070014,hemp1848@gmail.com,2021-01-24,2021-01-24,Yes,C,CBD,,,
Shockwave Video,1700 Center Ave,,Janesville,WI,53546,US,https://www.shockwavetoys.com/,6087416016,shockwavetoys@gmail.com,2021-01-12,,Yes,O,CBD,,,
Smokers World,2622 E Milwaukee St,,Janesville,WI,53545,US,,6087585641,,2018-08-23,2020-02-23,Yes,S,CBD,,,
The Mark,27 W Milwaukee St,,Janesville,WI,53548,US,http://www.themarkshop.com,6087523507,contact@themarkshop.com,2018-12-23,,,H,,,,
Vape-N-Juice,1820 Center Ave Ste 160,,Janesville,WI,53546,US,https://www.vpnjuice.com,6083527213,vpnjuice@gmail.com,2018-09-17,,Yes,V,CBD,,,
X-Treme Smoke & Vapor,1822 W Court St,,Janesville,WI,53548,US,https://www.janesvillesmokeshop.com/,6085634860,xtremeinfo11@gmail.com,2018-08-23,2020-02-22,Yes,S,CBD,,,
X-Treme Smoke & Vapor,2811 Milton Ave,,Janesville,WI,53545,US,https://www.janesvillesmokeshop.com/,6085634702,xtremeinfo11@gmail.com,2018-08-23,2020-02-22,Yes,S,CBD,Yes,,
X-Treme Smoke and Vapor,1905 Center Ave,,Janesville,WI,53548,US,https://www.janesvillesmokeshop.com/,6085634860,xtremeinfo11@gmail.com,2018-08-23,2020-02-22,Yes,S,CBD,,,
Azara Smoke N Vape,5506 75th St #105,,Kenosha,WI,53142,US,https://azaravape.com/,2624557001,azara.kenosha@gmail.com,2020-10-22,,Yes,S,CBD,,,
Bono,1401 75th St,,Kenosha,WI,53143,US,,2628420050,,2022-01-21,2022-01-21,Yes,O,CBD,,,
Corner Vapery,3002 75th St,,Kenosha,WI,53142,US,http://www.cornervapery.shop/,2626539939,cornervapery@gmail.com,2018-08-06,2019-12-15,Yes,V,CBD,,,
Lambeau Tobacco,6430 Green Bay Rd #102,,Kenosha,WI,53142,US,,2626053282,lambeautobacco@gmail.com,2019-04-30,,Yes,S,CBD,,,
Midwest CBD,7616 38th St,,Kenosha,WI,53144,US,https://www.mwcbdkenosha.com/,2626542224,midwestcbd420@gmail.com,2021-03-15,,Yes,C,CBD,,,
Pipes R Us,2637 Roosevelt Rd,,Kenosha,WI,53143,US,,2627643994,,2020-01-12,2020-01-12,,H,,,,
Smoque Vapours,5700 6th Ave,,Kenosha,WI,53140,US,https://cheapjuice.com/,2627649649,support@smoque.net,2018-09-30,,,V,,,,
Superb Video,6005 120th Ave,,Kenosha,WI,53142,US,http://www.shopoftemptations.com/,2628579922,,2019-12-11,,,H,,,,
Tobacco Barn,5608 75th St,,Kenosha,WI,53142,US,,2626944000,,2020-10-16,,,S,,,,
Tobacco Hut,8046 22nd Ave,,Kenosha,WI,53143,US,,2626054005,,2020-10-30,,,S,,,,
Tobacco Outlet Plus,2111 22nd Ave,,Kenosha,WI,53140,US,,2626525781,,2022-02-14,2022-02-14,,T,,,,
Vapor Company,5737 75th St,,Kenosha,WI,53142,US,,2623591130,info@vaporcompany.com,2018-08-23,2020-02-22,Yes,V,CBD,,,
Azara - La Crosse,410 Main St,,La Crosse,WI,54601,US,https://www.azaravape.com/,6085193060,410main@azaravape.com,2018-10-14,2019-04-16,Yes,S,CBD,,,
Cannabiz Depot,200 4th St S,,La Crosse,WI,68669,US,http://mycannabizdepot.com,6085193910,info@mycannabizdepot.com,2020-06-23,,Yes,C,CBD,,,
Deaf Ear Record Exchange,112 4th St S,,La Crosse,WI,54601,US,http://www.deafear.net,6087827829,frontdesk@deafear.net,2018-11-30,,Yes,S,CBD,,,
E-Cig Warehouse,70 Copeland Ave,,La Crosse,WI,54603,US,,6087821380,,2019-04-07,,Yes,V,CBD,,,
Holy Smokes,1103 Rose St,,La Crosse,WI,54603,US,http://holysmokeslax.com/,6087892447,holysmokeslax@gmail.com,2018-09-17,,,S,,,,
Rolling Trees LLC,1910 Campbell Rd,,La Crosse,WI,54601,US,https://www.rolling-trees.com/,6085195770,myrollingtrees@gmail.com,2021-01-20,,Yes,C,CBD,,,
Smokes 4 Less - La Crosse,4300 Mormon Coolee Rd,,La Crosse,WI,54601,US,,6085195959,s4lmankato@hotmail.com,2018-11-01,2018-11-01,Yes,S,CBD,,,
Tobacco Outlet Plus,3525 WI-157,,La Crosse,WI,54601,US,,6087794433,,2022-02-14,2022-02-14,,T,,,,
Tree Huggers Co-op,312 4th St S,,La Crosse,WI,54601,US,https://www.treehuggersco-op.com/,6087828733,info@treehuggersco-op.com,2020-07-20,,Yes,O,CBD,,,
Discover CBD,152 Center St Ste 1,,Lake Geneva,WI,53147,US,https://discovercbd.com/,2628128314,info@discovercbd.com,2020-12-22,,Yes,C,CBD,,,
Urban Cloud Factory,772 W Main St Ste 102,,Lake Geneva,WI,53147,US,,2628068273,ronnie@urbancloudfactory.com,2019-05-28,2019-05-28,Yes,V,CBD,,,
M of N Vapors,103 Lodi St,,Lodi,WI,53555,US,http://www.mofnvapors.com/,6085920700,dave@mofnvapors.com,2018-09-30,,Yes,V,CBD,,,
Shockwave Video,626 County Rd N,,Lyndon Station,WI,53944,US,https://www.shockwavetoys.com/,6086662362,shockwavetoys@gmail.com,2021-01-12,,Yes,O,CBD,,,
Azara - Madison,429 State St,,Madison,WI,53703,US,https://www.azaravape.com/,6086308618,429state@azaravape.com,2018-10-14,2019-04-16,Yes,S,CBD,,,
"Classy Glass, Inc.",438 N Frances St,,Madison,WI,53704,US,https://www.madisonglassacademy.com/,6084225033,classyglassinc@gmail.com,2019-08-25,,Yes,H,CBD,,,
Cosmic Delights,2717 E Washington Ave,,Madison,WI,53704,US,http://www.cosmicdelights.com,6084715214,cosmicobject@gmail.com,2020-06-25,,Yes,C,CBD,,,
Green Rx,4261 Lien Rd Ste R,,Madison,WI,53704,US,https://greenrxmadison.com/,6086309580,support@greenrxmadison.com,2020-07-03,,Yes,C,CBD,,,
Herb Rx,1821 Monroe St,,Madison,WI,53711,US,,6086308872,herbrxmonroe@gmail.com,2021-01-30,,Yes,C,CBD,,,
Herbal Aspect,3547 University Ave,,Madison,WI,53705,US,https://herbalaspect.com/,6084242069,support@herbalaspect.com,2021-10-19,,Yes,C,CBD,,,
Ignite Glass And Gifts,951 Williamson St,,Madison,WI,53703,US,https://www.igniteglassandgifts.com/,6082550922,,2021-03-20,,Yes,H,CBD,,,
Ignite Glass And Gifts,6717 Odana Rd Ste 6,,Madison,WI,53719,US,https://www.igniteglassandgifts.com/,6088293770,,2019-01-09,2019-01-09,Yes,H,CBD,,,
Infinite Vapor Madison East,2045 Atwood Ave Ste 113B,,Madison,WI,53704,US,http://www.infinitevapor.com/,6086309071,madison@infinitevapor.com,2018-08-06,2019-12-25,Yes,V,CBD,,,
Infinite Vapor Madison West,2701 University Ave Ste I,,Madison,WI,53705,US,http://www.infinitevapor.com/,6086653777,madisonwest@infinitevapor.com,2018-08-06,2019-12-25,Yes,V,CBD,,,
Jacob's Ladder CBD Boutique,128 State St,,Madison,WI,53703,US,https://www.jacobsladdercbd.com/,6088196328,jacob.trone@yahoo.com,2021-02-12,2021-02-12,Yes,C,CBD,,,
Knuckleheads Tobacco & Vapes,550 State St,,Madison,WI,53703,US,http://knuckleheadstobacco.com/,6082840151,info@knuckleheadstobacco.com,2018-08-11,2019-06-11,Yes,S,CBD,,,
Mad Vapor,6525 Grand Teton Plaza #B,,Madison,WI,53719,US,,6082038890,madvaporllc@gmail.com,2018-08-06,2022-04-21,,V,,,,
Paradise Plus,6642 Mineral Point Rd,,Madison,WI,53705,US,https://www.paradiseplus.net/,6088210123,john@nanohealth.us,2021-02-11,,Yes,C,CBD,,,
Puff Vapor,2609 E Johnson St,,Madison,WI,53704,US,https://www.puffvaporstore.com/,6082400556,puffvaporsales@gmail.com,2014-10-11,2018-12-24,Yes,V,CBD,,,
Quality CBD,1222 Williamson St,,Madison,WI,53703,US,https://qualitycbd.org/,9203515052,info@qualitycbd.org,2021-02-04,,Yes,C,CBD,,,
Selective Video 2,3220 Commercial Ave,,Madison,WI,53714,US,http://www.shopoftemptations.com/,6082499361,,2018-11-24,2018-11-24,,H,,,,
Sunshine Daydream,619 State St,,Madison,WI,53703,US,https://sunshinedaydream.com,6082516450,619ssdd@gmail.com,2018-12-24,2018-12-24,Yes,H,CBD,,,
Tobacco Mart,103 State St,,Madison,WI,53703,US,http://www.tobaccomart.co/,6088198895,tobacco_mart@hotmail.com,2018-11-30,,Yes,S,CBD,,,
Up In Smoke,1935 Monroe St,,Madison,WI,53711,US,,6082552209,,2018-12-25,,Yes,S,CBD,,,
920 CBD,2033 S 30th St,,Manitowoc,WI,54220,US,https://www.920cbd.com/,9206458859,920cbdsales@gmail.com,2020-06-17,2021-11-06,Yes,C,CBD,,,
Big Jay's Smoke Shop,815 Jay St,,Manitowoc,WI,54220,US,,9206860109,,2018-09-14,,Yes,S,CBD,,,
Johnny Vapes,3949 Calumet Ave,,Manitowoc,WI,54220,US,http://www.johnnyvapes.com/,9207170465,support@johnnyvapes.com,2018-08-06,2019-12-26,,V,,,,
Luvz Green,1302 Washington St,,Manitowoc,WI,54220,US,,9203744731,,2021-06-29,,Yes,C,CBD,,,
Tobacco Outlet Plus,2102 Washington St,,Manitowoc,WI,54220,US,,9206837960,,2022-02-14,2022-02-14,,T,,,,
Vap,1001 Washington St,,Manitowoc,WI,54220,US,,9207170374,,2018-08-23,2020-02-22,Yes,V,CBD,,,
Vapin USA,2003 Marinette Ave,,Marinette,WI,54143,US,https://www.vapinusa.com/,7153305538,media@vapinusa.com,2018-08-23,2020-02-22,,V,,,,
Central City Vapors,817 S Central Ave Ste A,,Marshfield,WI,54449,US,http://www.marshfieldvapors.com/,7158981444,,2015-11-07,2019-02-27,Yes,V,CBD,,,
Jacob's Ladder CBD Boutique,1619 N Central Ave,,Marshfield,WI,54449,US,https://www.jacobsladdercbd.com/,7158981089,jacob.trone@yahoo.com,2021-02-12,,Yes,C,CBD,,,
Vapors Vision,1303 S Central Ave,,Marshfield,WI,54449,US,,7158982400,vaporsvisionllc@gmail.com,2019-10-01,,Yes,S,CBD,,,
Smokes On State II,333 E State St,,Mauston,WI,53948,US,https://smokesonstate.com/,6083500533,smokesonstate1@gmail.com,2018-08-23,2020-02-23,Yes,S,CBD,,,
The Vapor Stop of Mayville,2 N Main St,,Mayville,WI,53050,US,,9206442225,thevaporstop@charter.net,2019-05-22,,Yes,V,CBD,,,
Natural Remedies,127 W Commercial St,,Mazomanie,WI,53560,US,https://naturalremedies-us.com/,6084440048,contact@naturalremedies-us.com,2021-03-05,,Yes,C,CBD,,,
Black River Hemp Co.,206 S Main St,,Medford,WI,54451,US,,7155601236,support@blackriverhemp.com,2020-11-20,,Yes,C,CBD,,,
Medford Vapor,107 W State St,,Medford,WI,54451,US,,7157855201,,2020-01-08,,Yes,V,CBD,,,
Infused Organics Hemp Dispensary/CBD,430 3rd St Ste C,,Menasha,WI,54952,US,https://www.infusedorganicsllc.com/,9202156318,infusedorganicsllc@gmail.com,2021-02-11,,Yes,C,CBD,,,
CBD American Shaman Menomonee Falls,N56 W 14108 Silver Spring Dr Ste 111,,Menomonee Falls,WI,53051,US,https://cbdamericanshaman.com/,2625055695,cs@americanshamanfalls.com,2019-11-11,,Yes,C,CBD,,,
Superstar Buds,N88W16733 Main St Ste 1E,,Menomonee Falls,WI,53051,US,https://starbuds-medical-hemp.business.site/,4145537003,,2020-12-26,,Yes,C,CBD,,,
TerraSol CBD,N88W15517 Main St,,Menomonee Falls,WI,53051,US,https://www.terrasolbrands.com/,2623468100,info@terrasolbrands.com,2020-10-13,,Yes,C,CBD,,,
The Vapor Stop USA,N88W16593 Main St,,Menomonee Falls,WI,53051,US,,2625188273,,2018-08-23,2019-11-03,,V,,,,
CBD Menomonie,1320 Broadway St N Ste 3,,Menomonie,WI,54751,US,https://cbd-menomonie.business.site/,7153092223,cbdmenomonie@yahoo.com,2020-11-27,,Yes,C,CBD,,,
Hugh G. Vapes,6619 W Mequon Rd,,Mequon,WI,53092,US,,2626434297,hughgvapes@yahoo.com,2015-07-11,2019-03-01,Yes,V,CBD,,,
THE Dispensary - Middleton,2831 Parmenter St,,Middleton,WI,54220,US,https://www.thed8dispensary.com/middleton,,,2021-10-19,,Yes,C,CBD,,,
Tobacco N Stuff,6621 University Ave,,Middleton,WI,53562,US,,6088240593,tobacconstuff@gmail.com,2018-11-20,,,T,,,,
102 CBD Vape Smoke,5268 S 27th St,,Milwaukee,WI,53221,US,,4142828007,mayurvagadia@rocketmail.com,2020-11-14,2022-05-12,Yes,S,CBD,,,
102 CBD Vape Smoke,3167 S 92nd St,,Milwaukee,WI,53227,US,https://102-cbd-vape-smoke.business.site/,4147636526,,2022-01-07,2022-01-07,Yes,S,CBD,,,
27 Vape & Smoke,5268 S 27th St,,Milwaukee,WI,53221,US,,4142828007,,2017-10-11,2018-11-11,,V,,,,
A-Z Cell & Tobacco,5903 N 76th St,,Milwaukee,WI,53218,US,,4143933350,,2019-07-15,,Yes,S,CBD,,,
Bay View Clubhouse CBD Shop,2481 S Kinnickinnic Ave,,Milwaukee,WI,53207,US,https://www.bayviewcbd.com/,4146907060,bvclubhouse.social@gmail.com,2020-11-19,,Yes,C,CBD,,,
Bay View Quick Mart,2690 S Kinnickinnic Ave,,Milwaukee,WI,53207,US,https://bayviewquickmart.com/,4144810933,,2022-01-13,2022-01-13,Yes,O,CBD,,,
Blue Dream Vape & Smoke,3473 N Oakland Ave #101,,Milwaukee,WI,53211,US,https://www.bluedreamvapemke.com/,4148100003,,2021-07-15,,Yes,S,CBD,,,
Canni Hemp Co,810 S 5th St,,Milwaukee,WI,53204,US,https://www.cannihempco.com/,4144889319,,2020-11-23,,Yes,C,CBD,,,
Capitol Tobacco & Smoke Shop,1903 W Capitol Dr,,Milwaukee,WI,53206,US,,4147639594,,2019-07-31,,,S,,,,
Cents Gifts,901 E Center St,,Milwaukee,WI,53212,US,http://centsgifts.com/,4148100689,,2018-10-15,2018-11-11,,S,,,,
Cigarette Depot,2701 N 76th St,,Milwaukee,WI,53222,US,,4144560663,,2019-08-22,,,T,,,,
Cigarette Depot,1512 S 84th St,,Milwaukee,WI,53214,US,,4144540569,,2018-08-11,2020-02-06,Yes,S,CBD,,,
Closet Classics,1000 E North Ave,,Milwaukee,WI,53212,US,,4142651950,closetclassics1984@gmail.com,2019-01-08,,Yes,H,CBD,,,
Cloud City Mke,2043 W Wells St,,Milwaukee,WI,53233,US,,4146879234,,2022-03-25,2022-03-25,,V,,,,
D&J Cellular & Tobacco,1360 W Windlake Ave,,Milwaukee,WI,53215,US,,4146729935,,2019-09-04,,,S,,,,
Dripper's Paradise,4302 W Forest Home Ave,,Milwaukee,WI,53219,US,http://www.drippersparadise.com/,4142319977,info@drippersparadise.com,2018-08-23,2019-09-18,Yes,V,CBD,,,
Erth Dispensary,1200 E Oklahoma Ave,,Milwaukee,WI,53207,US,https://www.visiterth.com/,8009066992,erthdispensary@gmail.com,2020-12-06,,Yes,C,CBD,,,
Express Wireless and Tobacco,6930 N Teutonia Ave,,Milwaukee,WI,53209,US,,4149730089,,2019-06-13,,Yes,S,CBD,,,
Famous Cigar,7030 W North Ave,,Milwaukee,WI,53213,US,,4143029904,famouscigarwi@yahoo.com,2019-10-31,2019-10-31,,T,,,,
Famous Smoke Shop,1213 E Brady St,,Milwaukee,WI,53202,US,https://www.famous-smoke.com/,4142779904,,2018-09-17,,,S,,,,
Fond Du Lac Smoke Shop,2910 W Fond Du Lac Ave,,Milwaukee,WI,53210,US,,4144426787,,2019-11-02,,,S,,,,
Happy Greens,3174 S 27th St,,Milwaukee,WI,53215,US,https://thehappygreens.com/,,,2021-01-21,,Yes,C,CBD,,,
Hazy Dayz CBD,3133 S 92nd St,,Milwaukee,WI,53227,US,https://hazydayzmke.com/,4147633764,hazydayzmke@gmail.com,2020-10-05,,Yes,C,CBD,,,
Hemp World Cafe,2225 N Humboldt Ave,,Milwaukee,WI,53212,US,,4146161873,414hemp@gmail.com,2021-01-27,2021-01-27,Yes,C,CBD,,,
Hi Hemp Health,4411 N 60th St,,Milwaukee,WI,53218,US,https://hi-hemp-health.business.site/,4144840160,,2021-02-01,,Yes,C,CBD,,,
JuJu Royal CBD,5328 W Vliet St,,Milwaukee,WI,53208,US,https://jujuroyal.net/,4142398199,info@jujuroyal.com,2020-12-20,,Yes,C,CBD,,,
Kind Oasis,2169 N Farwell Ave,,Milwaukee,WI,53202,US,,4148770253,info@kindoasis.com,2021-11-13,2021-11-13,Yes,C,CBD,,,
Knuckleheads,2949 N Oakland Ave,,Milwaukee,WI,53211,US,http://knuckleheadstobacco.com/,4149623052,info@knuckleheadstobacco.com,2018-12-02,2021-02-25,Yes,S,CBD,,,
Kush Smoke & Tobacco,1229 E Brady St,,Milwaukee,WI,53202,US,,4149880031,madovervapemkee@gmail.com,2022-04-21,2022-04-21,Yes,S,CBD,,,
Lakeview Vapor,1601 E Oklahoma Ave,,Milwaukee,WI,53207,US,http://lakeviewvapor.com/,4145859136,lakeviewvape@gmail.com,2018-08-11,2020-02-06,Yes,V,CBD,,,
Milwaukee Vape & Smoke,552 W Layton Ave,,Milwaukee,WI,53207,US,,4142103525,colin.merrill1@gmail.com,2018-10-24,2019-02-24,Yes,S,CBD,Yes,,
Milwaukee Vapor,3470 N Oakland Ave,,Milwaukee,WI,53211,US,,4142699432,,2018-10-09,,,V,,,,
MKE Vape Vapor Lounge,1017 E Brady St,,Milwaukee,WI,53202,US,,4145393271,,2018-09-19,,,V,,,,
Pipe Dreams,2644 S Kinnickinnic Ave,,Milwaukee,WI,53207,US,http://www.pipedreamsshop.com/,4144897473,pipedreamsshop@gmail.com,2018-11-09,,Yes,S,CBD,,,
Puff-N-Up,6900 W Capital Dr,,Milwaukee,WI,53216,US,,4144611165,,2018-12-06,,,S,,Yes,,
Purple Haze Smoke Shop,1653 N Farwell Ave,,Milwaukee,WI,53211,US,,4142105092,,2019-05-08,,,S,,,,
Smokers Hub,1148 Miller Park Way,,Milwaukee,WI,53214,US,,4146458773,,2020-03-13,,,S,,,,
Smokers Pub,10708 W Oklahoma Ave,,Milwaukee,WI,53227,US,,4145460525,,2020-03-15,,,S,,,,
Smokers Xone,6229 S 27th St,,Milwaukee,WI,53221,US,,4142811122,smokersxone6229@yahoo.com,2019-05-17,,,T,,,,
Smokie's Electronic Cigarette and Tobacco Depot,4354 S 27th St,,Milwaukee,WI,53221,US,http://smokiestobacco.com/,4143846576,smokiesdiscount@att.net,2018-08-23,2019-06-16,Yes,S,CBD,,,
The Hemp Professors,3714 N 92nd St,,Milwaukee,WI,53222,US,https://thehempprofessors.com/,4149884392,thehempprofessors@gmail.com,2020-12-16,,Yes,C,CBD,,,
Tobacco & Vape,6801 W Brown Deer Rd,,Milwaukee,WI,53223,US,,4143683379,,2020-10-30,,,S,,,,
Tobacco City Plus,5021 W Howard Ave,,Milwaukee,WI,53220,US,,4145413291,,2019-11-29,,,S,,,,
Tobacco Deals,6243 N Teutonia Ave,,Milwaukee,WI,53209,US,,4145783677,,2020-06-12,,,S,,,,
Tobacco One,801 E Capitol Dr # 1,,Milwaukee,WI,53212,US,,4149646447,,2020-07-13,,,S,,,,
TruCannaBliss,8311 W Brown Deer Rd,,Milwaukee,WI,53223,US,https://trucannabliss.com/,4143395112,ostaveeya@trucannabliss.com,2020-04-25,,Yes,C,CBD,,,
Up In Smoke,3923 W Capitol Dr,,Milwaukee,WI,53216,US,,4145396605,,2019-11-10,2019-11-10,,S,,,,
Vapin USA,8300 W Brown Deer Rd,,Milwaukee,WI,53223,US,https://vapinusa.com/,4142064026,nathan@vapinusa.com,2020-10-30,2020-10-30,Yes,V,CBD,,,
VCT 92nd,3875 S 92nd St,,Milwaukee,WI,53228,US,,4145394296,,2020-02-20,,Yes,S,CBD,,,
Verdant CBD,2680 S Kinnickinnic Ave,,Milwaukee,WI,53207,US,https://www.verdantmindandbody.com,4147633762,verdantcbd@gmail.com,2020-12-12,,Yes,C,CBD,,,
West Allis Cigarette Depot,7023 W Greenfield Ave,,Milwaukee,WI,53214,US,,4143021923,,2019-09-22,2019-09-22,,S,,,,
A State of Mind Health and Wellness,1006 E Broadway,,Monona,WI,53716,US,https://astateofmind.business.site/,6086309666,dwoodruff110@gmail.com,2020-11-15,,Yes,C,CBD,,,
CBD Farmacy,115 E Broadway Ste 101,,Monona,WI,53716,US,https://www.cbdfarmacyonline.com/,6084457581,cbdfarmacymonona@gmail.com,2020-11-24,,Yes,C,CBD,,,
Ignite Glass And Gifts,6009 Monona Dr Ste B,,Monona,WI,53716,US,http://www.igniteglassandgifts.com,6084673112,,2018-12-12,,,H,,,,
Roll N Smoke Inc,107 W 8th St,,Monroe,WI,53566,US,http://rollsnsmoke.com/,6083252020,,2020-02-11,,Yes,S,CBD,,,
Vapor Company,1010 17th Ave,,Monroe,WI,53566,US,,6084922166,,2018-09-08,2020-03-14,,V,,,,
Evolve Cannabis Company,512 Springdale St,,Mount Horeb,WI,53572,US,https://www.evolvecannabiscompany.com/,6084378888,evolvecannabis@gmail.com,2020-07-01,,Yes,C,CBD,,,
Your CBD Store,4900 Spring St #204,,Mt Pleasant,WI,53406,US,https://cbdrx4u.com,2624566751,,2020-07-22,,Yes,C,CBD,,,
Mukwonago CBD and Wellness,1545 Main St,,Mukwonago,WI,53149,US,https://mukwonagocbdandwellness.com/,2623784156,info@mukwonagocbdandwellness.com,2021-03-10,,Yes,C,CBD,,,
Elevated Hemp Solutions,W144S6307 College Ct,,Muskego,WI,53150,US,https://elevatedhempsolutions.com/,8772774114,,2020-12-31,,Yes,C,CBD,,,
Roll-N-Go Tobacco,S75W17327 Janesville Rd,,Muskego,WI,53150,US,http://www.roll-n-gotobacco.com/,2626791333,roll-n-go@att.net,2020-02-11,2020-02-11,Yes,S,CBD,,,
Kaya Irie CBD,314 S Commercial St,,Neenah,WI,54956,US,https://www.kayairiecbd.com/,9205583233,kayairiewellness@gmail.com,2021-02-20,,Yes,C,CBD,,,
Neenah Tobacco & Vape (Tobacco Village),1139 Winneconne Ave,,Neenah,WI,54956,US,,9202153097,tobaccovillageneenah@gmail.com,2021-11-04,2021-11-04,Yes,S,CBD,,,
Riverview Vapors,1009 S Lake St,,Neenah,WI,54956,US,,9206598148,riverviewvapors@yahoo.com,2019-05-09,,,V,,,,
Cannabis Cultivators of Clark County LLC,541 Hewett St,,Neillsville,WI,54456,US,https://www.cccchemp.com/,7159371941,cccannabiswi@gmail.com,2020-11-22,2021-07-03,Yes,C,CBD,,,
Badger Tobacco,3620 S Moorland Rd,,New Berlin,WI,53151,US,http://www.badgertobaccooutlet.com/,2622028478,badgertobacco@gmail.com,2019-07-21,,Yes,S,CBD,,,
Urban Myst Alternatives,14240 W National Ave,,New Berlin,WI,53151,US,http://www.urbanmyst.com/,2624398053,tyler.urbanmyst@gmail.com,2019-10-16,2020-02-11,Yes,S,CBD,,,
The Box Smoke Shop,215 S Knowles Ave Ste 2,,New Richmond,WI,54017,US,,7159771655,,2019-10-30,,,S,,,,
Discount Smokes & Spirits,2151 E Rawson Ave,,Oak Creek,WI,53154,US,https://discount-smokes-spirits-tobacco-liquor-cigar-vape.business.site/,4145745077,yashpatel4549@yahoo.com,2020-10-13,,Yes,S,CBD,,,
Nexus Vape N Cigar,934 E Rawson Ave,,Oak Creek,WI,53154,US,http://nexusvapencigar.com/,4143019750,nexusvapencigar@gmail.com,2021-02-26,,Yes,S,CBD,,,
Smoke World Vape,8809 S Howell Ave,,Oak Creek,WI,53154,US,http://smokeworldvape.com/,4147717902,hello@smokeworldvape.com,2018-08-23,2020-02-22,Yes,S,CBD,,,
Tobacco Xpress,2345 W Ryan Rd,,Oak Creek,WI,53154,US,,4147617868,,2020-02-25,,Yes,S,CBD,,,
Your CBD Store,8645 S Howell Ave Ste 200,,Oak Creek,WI,53154,US,https://cbdrx4u.com,2629301703,,2020-12-06,,Yes,C,CBD,,,
Joint Venture CBD Shoppe,200 S Silver Lake St,,Oconomowoc,WI,53066,US,https://jointventurecbd.com/,2623540940,jointventurecbd@yahoo.com,2021-02-16,,Yes,C,CBD,,,
Lake Country CBD,110 W Wisconsin Ave,,Oconomowoc,WI,53066,US,https://lakecountrycbd.com/,2624686888,brett@lakecountrycbd.com,2021-03-04,,Yes,C,CBD,,,
Onalaska Smokes 4 Less,1220 Crossing Meadows Dr,,Onalaska,WI,54650,US,,6088816910,s4lonalaska@gmail.com,2019-08-07,,,S,,,,
Better Living Botanicals,125 N Main St,,Oregon,WI,53575,US,https://www.blbcbd.com/,6082790081,info@blbcbd.com,2020-11-19,,Yes,C,CBD,,,
A - Z Tobacco & Vapor Shop,15 W Murdock Ave,,Oshkosh,WI,54901,US,,9202302575,aztobaccoinc@gmail.com,2018-10-27,,,S,,,,
Alternative Smoking,2050 W 9th Ave,,Oshkosh,WI,54904,US,http://altsmokewi.wixsite.com/altsmokehome,9202322828,altsmokewi@gmail.com,2018-08-11,2020-02-06,,V,,,,
AZ Vapor Oshkosh,242 N Koeller St,,Oshkosh,WI,54902,US,,9203854175,,2018-10-29,,Yes,V,CBD,,,
HempWorks Wisconsin,422 N Main St,,Oshkosh,WI,54901,US,https://hempworkswisconsin.com/,9203850599,hempworkswisconsin@gmail.com,2021-01-29,,Yes,C,CBD,,,
Marley's Smoke Shop,545 High Ave,,Oshkosh,WI,54902,US,,9202678454,,2018-08-11,2020-02-06,Yes,S,CBD,,,
Satori Imports,411 N Main St,,Oshkosh,WI,54901,US,http://www.satorioshkosh.com,9202310170,satorioshkosh.com@gmail.com,2019-01-09,,Yes,H,CBD,,,
THE Dispensary - Oshkosh,1060 S Koeller St,,Oshkosh,WI,54902,US,https://www.thed8dispensary.com/oshkosh,9203850524,,2021-10-19,,Yes,C,CBD,,,
The Pipe Store,616 Ohio St,,Oshkosh,WI,54902,US,https://thepipestore.com/,9202033781,info@thepipestore.com,2018-08-23,2018-11-13,Yes,H,CBD,,,
Darling's Adult Gifts,12536 Gunderson Rd,,Osseo,WI,54423,US,http://www.darlingsgifts.com/,7155975683,darlings12536@yahoo.com,2018-11-21,,,S,,,,
Patchouli Garden/price County CBD,159 Division St,,Park Falls,WI,54552,US,,7157621885,info@pricecountycbd.com,2020-07-15,2020-07-15,Yes,C,CBD,,,
Chasin' Vapor,2323 Silvernail Rd,,Pewaukee,WI,53072,US,http://www.chasinvapor.com/,2629709981,chasinvapor@yahoo.com,2014-09-25,2019-02-27,Yes,V,CBD,,,
Lake Country Botanics,215 Oakton Ave Ste C,,Pewaukee,WI,53072,US,https://lakecountrybotanics.com/,2626910662,lcbotanics@gmail.com,2021-03-04,,Yes,C,CBD,,,
Vapewaukee,215 Oakton Ave,,Pewaukee,WI,53072,US,http://www.vapewaukee.com/,2626966620,,2015-11-28,2018-12-10,Yes,V,CBD,,,
The Hive CBD,145 W Main St,,Platteville,WI,53818,US,https://cbdthehive.com/,6083484446,plattevillethehive@gmail.com,2020-12-16,,Yes,C,CBD,,,
The Underground Smoke And Vape Shop,"115 E Main St, Lower Level",,Platteville,WI,53818,US,http://theundergroundplatteville.com/,6083483412,undergroundplatteville@gmail.com,2018-09-30,2020-11-18,Yes,S,CBD,,,
Plover Smoke & Vape Shop,2545 Plover Rd,,Plover,WI,54467,US,,7153410808,,2020-11-05,,Yes,S,CBD,,,
Waldo Hemp Works,435 E Mill St,,Plymouth,WI,53073,US,http://waldohempworks.com,9204495546,waldohempworks@gmail.com,2020-07-20,,Yes,C,CBD,,,
Eclectic Avenue,226 N Franklin St,,Port Washington,WI,53074,US,http://eclectic-avenue-llc.business.site/,2622354725,down2eclecticavenue@gmail.com,2020-06-29,,Yes,O,CBD,,,
Port's Smoke Shack,927 S Spring St,,Port Washington,WI,53074,US,https://www.portsmokeshack.com/,2622689500,portssmokeshack@att.net,2020-02-04,,Yes,S,CBD,,,
CBD American Shaman - Portage,2814 New Pinery Rd,,Portage,WI,53901,US,https://cbdamericanshaman.com/,6086832055,nategrip@hotmail.com,2019-11-11,,Yes,C,CBD,,,
Discount Smokes,228 W Cook St,,Portage,WI,53901,US,,6087420200,,2018-08-11,2020-02-06,Yes,S,CBD,,,
Ideal Vapor,120 Henry Dr Ste 4,,Portage,WI,53901,US,https://www.idealvaporllc.net/,6087428273,idealvapor204@yahoo.com,2018-06-04,2019-06-19,Yes,V,CBD,,,
Shockwave Adult Superstore and Smoke Shop,5767 Kinney Rd N,,Portage,WI,53901,US,https://www.shockwavetoys.com/,,shockwavetoys@gmail.com,2022-03-14,2022-03-14,Yes,O,CBD,,,
Cheapo Depot & Fireworks Outlet,37292 US-18 #1,,Prairie du Chien,WI,53821,US,https://shopcheapodepot.com/,6083260533,,2020-12-02,,Yes,O,CBD,,,
Prescott Smokes and Vapor,408 Lake St N,,Prescott,WI,54021,US,https://prescott-smokes-and-vapor.business.site/,7152622170,,2020-10-13,,Yes,S,CBD,,,
Body 360,4003 Durand Ave Ste 8B,,Racine,WI,53405,US,,2628001009,body360@wi.rr.com,2022-01-20,2022-01-20,,O,,,,
CBD American Shaman Racine,305 Main St,,Racine,WI,53403,US,https://cbdamericanshaman.com/,2622562623,wellnessbegins@mycbdracine.com,2019-11-08,2019-11-08,Yes,C,CBD,,,
Cigarette Outlet,5108 Washington Ave,,Racine,WI,53406,US,,2626369822,,2020-10-22,,Yes,T,CBD,,,
Cosmic Corner,335 Main St,,Racine,WI,53402,US,http://www.cosmiccorner.com,2626331420,info@cosmiccorner.com,2019-01-08,2019-01-08,Yes,H,CBD,,,
"Discount Cigarettes, Tobacco & Vape",3417 Douglas Ave,,Racine,WI,53402,US,,2627521833,,2020-10-26,,Yes,S,CBD,,,
Midwest Vapery,6108 Regency W Dr,,Racine,WI,53406,US,http://www.midwestvapery.com/,2622871051,info@midwestvapery.com,2018-10-09,,,V,,,,
Rapids Tobacco and Vapor,1733 Rapids Dr,,Racine,WI,53404,US,,2628001279,rapidstobaccovapor@gmail.com,2018-10-03,2021-06-15,,S,,,,
The Hemp Farm,1701 Douglas Ave,,Racine,WI,53404,US,,2624562890,,2020-12-17,,Yes,C,CBD,,,
The Tobacco Store,5108 WI-20,,Racine,WI,53406,US,,2626369822,,2020-10-07,,Yes,S,CBD,,,
Vape And Tobacco,2401 Lathrop Ave,,Racine,WI,53405,US,https://vapetobacco.business.site/,2624562131,,2020-10-26,,,S,,,,
Vapemeisters,420 Main St,,Racine,WI,53403,US,https://www.vapemeisters.com/,2625100920,info@vapemeisters.com,2018-08-23,2020-02-22,Yes,V,CBD,,,
Cheapo Depot & Fireworks Outlet,516 S 4th St,,Readstown,WI,54652,US,https://shopcheapodepot.com/,6086295725,,2020-12-02,,Yes,C,CBD,,,
Xtreme Vape,123 S Brown St,,Rhinelander,WI,54501,US,http://thextremevapeshop.com,7154201020,xtremevapeshop@yahoo.com,2020-07-21,,Yes,V,CBD,,,
Azara Smoke N Vape - Rice Lake,2490 S Main St,,Rice Lake,WI,54868,US,https://www.azaravape.com/,7157190369,2490main@azaravape.com,2018-10-14,2019-04-16,Yes,S,CBD,,,
"Badger Vapes, LLC",110 N Main St,,Rice Lake,WI,54868,US,,7157363400,,2019-07-21,,Yes,V,CBD,,,
Rice Lake Tobacco & Vape (Tobacco Village),2701 West Ave,,Rice Lake,WI,54868,US,,7157190331,tobaccovillagerl@gmail.com,2021-11-04,,Yes,S,CBD,,,
Roll-N-Go Discount Smokes,1765 County Hwy SS,,Rice Lake,WI,54868,US,http://roll-n-gosmokes.com/,7152342101,,2020-02-11,2020-02-11,Yes,S,CBD,,,
Up In Smoke Tobacco and Vape,1664 20 1/2 St,,Rice Lake,WI,54868,US,https://up-in-smoke-tobacco-and-vape.business.site/,7152346296,,2020-10-16,,Yes,T,CBD,,,
After Hours Lingerie & Gifts,N136 W21931 Bonniwell Rd,,Richfield,WI,53076,US,,2626284545,afterhours@alienhive.net,2018-10-25,,,S,,,,
Herb Rx Richland Center,194 N Main St Ste C,,Richland Center,WI,53581,US,https://herbrxus.com/,6082183730,info@herbrxwi.com,2020-07-05,,Yes,C,CBD,,,
Your CBD Store - Ripon,301 Watson St,,Ripon,WI,54971,US,https://riponnaturals.com/,8447482266,riponnaturals@gmail.com,2020-07-22,,Yes,C,CBD,,,
CBD American Shaman - River Falls,127 N Main St,,River Falls,WI,54022,US,https://cbdamericanshaman.com/,7156207316,info@holisticliving-cbd.com,2019-11-12,,Yes,C,CBD,,,
Puff Puff Glass,208 S Main St,,River Falls,WI,54022,US,http://www.puffpuffglass.com/,7154258355,puffpuffglass@yahoo.com,2018-11-06,2021-06-19,Yes,H,CBD,,,
Discount Smokes,841 Water St,,Sauk City,WI,53583,US,,6083706430,,2019-10-24,,Yes,S,CBD,,,
Herb Rx Sauk City,818 Water St,,Sauk City,WI,53590,US,https://herbrxus.com/,6082185822,info@herbrxwi.com,2020-07-05,2020-07-05,Yes,C,CBD,,,
True Essence CBD,620 E Green Bay Ave Unit 118,,Saukville,WI,53080,US,https://www.trueessence.shop/,2622354125,cindy@trueessence.shop,2020-12-10,,Yes,C,CBD,,,
The Glass Station Smoke N Vape Shop,1699 Schofield Ave,,Schofield,WI,54476,US,,7153551818,,2019-10-24,,Yes,S,CBD,,,
Happy Trails CBD,N4531 WI-22 Ste 2,,Shawano,WI,54166,US,https://happytrailscbd.com/,7155242224,hello@happytrailscbd.com,2020-07-03,2020-07-03,Yes,C,CBD,,,
Smokey Joes's Gift Shop,538 S Main St,,Shawano,WI,54166,US,,7155242663,,2020-03-17,2020-03-17,Yes,S,CBD,,,
The Vapor Shoppe,805 E Green Bay St,,Shawano,WI,54166,US,,7155248767,thevaporshoppeshawano@gmail.com,2018-09-13,,,V,,,,
Brick and Mortar Hemp Company,1104 N 8th St,,Sheboygan,WI,53081,US,https://brickandmortarhemp.com/,9202263112,brickandmortarhemp@gmail.com,2020-11-21,2020-11-21,Yes,C,CBD,,,
Green Rx,512 N 8th St,,Sheboygan,WI,53081,US,https://www.greenrxsheboygan.com/,9203952022,jared.roe@greenrxsheboygan.com,2020-07-03,2020-07-03,Yes,C,CBD,,,
Greenhouse Glass Shop,501 N 8th St #112,,Sheboygan,WI,53081,US,https://www.freshgreenhouse.com/,9202871909,davijon@freshgreenhouse.com,2021-01-18,,Yes,H,CBD,,,
Private Pleasures,3889 Enterprise Dr,,Sheboygan,WI,53083,US,,9207830061,,2018-11-23,,Yes,H,CBD,,,
S R Tobacco,2529 S Business Dr,,Sheboygan,WI,53081,US,,9204534294,,2020-02-13,,,T,,,,
THE Dispensary - Sheboygan,2113 S Business Dr,,Sheboygan,WI,53081,US,https://www.thed8dispensary.com/sheboygan,9203952904,,2021-10-19,,Yes,C,CBD,,,
The Epicure Lounge,1116 Michigan Ave,,Sheboygan,WI,53081,US,http://www.epicurelounge.com/,9204517750,info@epicurelounge.com,2019-10-31,,,L,,,,
Vapin USA,2629 Calumet Dr,,Sheboygan,WI,53083,US,https://www.vapinusa.com/,9207836222,info@vapinusa.com,2018-09-30,,Yes,V,CBD,,,
Vapin USA,2123 S Business Dr,,Sheboygan,WI,53081,US,https://www.vapinusa.com/,9207836559,info@vapinusa.com,2018-08-23,2020-02-22,,V,,,,
Falls Smoke Shop,1092 Fond Du Lac Ave,,Sheboygan Falls,WI,53085,US,,9204676311,,2018-09-17,,Yes,S,CBD,,,
Invigorating Waters,1084 Fond Du Lac Ave,,Sheboygan Falls,WI,53085,US,https://invigoratingwaters.com/,9209460607,truehealth@invigoratingwaters.com,2021-02-12,,Yes,O,CBD,,,
VaporMaster,730 E Washington St,,Slinger,WI,53086,US,,2622975050,vapormastersfdl@yahoo.com,2017-01-04,2019-01-14,Yes,V,CBD,,,
Ignite Dispensary Spooner,761 W Beaverbrook Ave Ste 2,,Spooner,WI,54801,US,http://www.ignitevaporandtobacco.com/,7159391290,ignitevaporandtobacco@gmail.com,2018-10-22,2019-12-13,Yes,S,CBD,,,
Herb Rx Spring Green,150 E Jefferson St Ste 101,,Spring Green,WI,53588,US,https://herbrxus.com/,6085880337,info@herbrxwi.com,2020-07-05,,Yes,C,CBD,,,
Tobacco City,3046 E Layton Ave,,St Francis,WI,53235,US,,4144869611,tobaccocity414@yahoo.com,2020-06-11,,Yes,S,CBD,,,
ECBlend Flavors,2201 Glacier Dr Ste 5,,St. Croix Falls,WI,54024,US,https://www.ecblendflavors.com/,7154831799,customerservice@ecblend.com,2018-10-21,2019-02-27,Yes,V,CBD,,,
Alleviate Wellness,3507 Church St,,Stevens Point,WI,54481,US,,7155446003,alleviatewellness@outlook.com,2020-06-18,,Yes,C,CBD,,,
Eldorado's Adult Party Store,3219 Church St,,Stevens Point,WI,54481,US,,7153439877,darlings12536@yahoo.com,2018-12-08,,,H,,,,
Green Thumb Alternatives,824 Main St,,Stevens Point,WI,54481,US,https://greenthumbalt.com/,7155441011,greenthumbalt@gmail.com,2019-08-18,2019-12-08,Yes,C,CBD,,,
Happy Harvest Hemp,1101 Brilowski Rd #B,,Stevens Point,WI,54481,US,https://www.happyhhemp.com/,7155446269,happyharvesthemp@gmail.com,2021-01-21,,Yes,C,CBD,,,
Stevens Point Smoke Shop,200 N Division St Ste B,,Stevens Point,WI,54481,US,,7159979598,,2019-12-23,,Yes,S,CBD,,,
The Glass Station,2501 Church St,,Stevens Point,WI,54481,US,,7153448088,,2019-01-09,,Yes,H,CBD,,,
The Vape Shack,800 Clark St,,Stevens Point,WI,54481,US,,7155446150,vapeshack715@gmail.com,2019-05-21,2019-05-21,Yes,V,CBD,,,
Midwest Best CBD,183 W Main St,,Stoughton,WI,53589,US,https://midwestbestcbd.com/,6082052830,midwestbestcbd@gmail.com,2021-03-15,,Yes,C,CBD,,,
Smokes on the Water,233 W Main St,,Stoughton,WI,53589,US,,6082056868,smokesonthewater.bd@gmail.com,2018-08-23,2020-02-23,Yes,S,CBD,,,
The Vape Shop,1009 Egg Harbor Rd,,Sturgeon Bay,WI,54235,US,,9208181111,,2019-05-21,,Yes,V,CBD,,,
Smokers Center,9824 Durand Ave,,Sturtevant,WI,53177,US,,2628840990,,2020-03-11,,,T,,,,
CBD American Shaman Sun Prairie,2687 Windsor St,,Sun Prairie,WI,53590,US,https://cbdamericanshaman.com/,6083185112,ashley@sunprairieamericanshaman.com,2019-11-08,,Yes,C,CBD,,,
M of N Vapors & CBD,1025 Emerald Terrace,,Sun Prairie,WI,53590,US,http://www.mofnvapors4.com/,6083182020,,2020-01-05,,Yes,V,CBD,,,
Public Enemy Poke And Smoke,208 E Main St,,Sun Prairie,WI,53590,US,https://publicenemypokeandsmoke.com/,6088257877,,2019-01-09,,Yes,V,CBD,,,
Smokes On State,326 W Main St,,Sun Prairie,WI,53590,US,,6084925400,smokesonstate@hotmail.com,2019-01-09,2019-01-09,,S,,,,
THE Dispensary - Sun Prairie,505 W Main St,,Sun Prairie,WI,53590,US,https://www.thed8dispensary.com/sun-prairie,6083180353,,2021-10-19,2021-10-19,Yes,C,CBD,,,
Ignite Dispensary Superior,502 Hammond Ave,,Superior,WI,54880,US,http://www.ignitevaporandtobacco.com/,7157182800,ignitevaporandtobacco@gmail.com,2019-12-13,,Yes,S,CBD,,,
Super Smoke CBD & Vape Shop,2401 Tower Ave,,Superior,WI,54880,US,,7157180143,,2020-10-07,,Yes,S,CBD,,,
Sutherland CBD,1613 Tower Ave,,Superior,WI,54880,US,https://sutherlandcbd.com/,7157188050,family@sutherlandcbd.com,2020-11-23,,Yes,C,CBD,,,
Specialty Smoke Shoppe,204 N Washington St,,Thorp,WI,54771,US,,7156693955,,2019-10-18,,Yes,S,CBD,,,
CBD American Shaman Tomah,201 Helen Walton St Ste 6,,Tomah,WI,54660,US,,6085672014,smpfaff82@hotmail.com,2019-11-08,,Yes,C,CBD,,,
Northern Lights Vapor,7 W Wisconsin Ave,,Tomahawk,WI,54487,US,,7157719808,,2018-10-09,,,V,,,,
The CBD Store,302 1/2 S Tomahawk Ave,,Tomahawk,WI,54487,US,,7152243026,deb@tomahawkherbalcenter.com,2020-12-19,,Yes,C,CBD,,,
Pro Clouds Vapor,12033 Antioch Rd Ste A,,Trevor,WI,53179,US,https://www.procloudsvapor.com/,2622223095,sales@procloudsvapor.com,2018-09-08,2020-03-13,Yes,V,CBD,,,
Soul-Ful Moon Journey,334 E Main St,,Twin Lakes,WI,47394,US,https://soulfulmoonjourney.com/,2624481107,info@soulfulmoonjourney.com,2020-07-17,,Yes,O,CBD,,,
Wisco Green Cannabis Boutique,602 W Verona Ave,,Verona,WI,53593,US,https://wiscogreencannabis.com/,6086306959,contact@wiscogreencannabis.com,2020-12-09,,Yes,C,CBD,,,
Kickapoo Kind LLC,207 N Main St,,Viroqua,WI,54665,US,https://www.kickapookind.com/,6086323801,kickapookind@gmail.com,2021-02-24,,Yes,C,CBD,,,
Pine Hill Farm: Wellness Collective + Market,118 N Water St,,Watertown,WI,53094,US,https://www.thepinehillfarm.com,9203904462,info@thepinehillfarm.com,2022-02-17,2022-02-17,Yes,C,CBD,,,
Smokes 4 Less 2,116 W Main St,,Watertown,WI,53094,US,https://smokes4less2.com/,9202060657,info@smokes4lessllc.com,2020-10-26,,Yes,S,CBD,,,
Beyond Full Spectrum,300 W Main St,,Waukesha,WI,53186,US,https://www.beyondfullspectrum.com/,2624085772,info@fullspectrumwi.com,2020-11-19,2020-11-19,Yes,C,CBD,,,
CBD American Shaman Waukesha,1921 Silvernail Rd Ste 102,,Waukesha,WI,53072,US,https://cbdamericanshaman.com/,2622394728,info@wisconsinwellnesscbd.com,2019-11-11,2019-11-11,Yes,C,CBD,,,
Cigarette Depot,310 W St Paul Ave #5,,Waukesha,WI,53188,US,,2625441002,,2018-10-18,,,S,,,,
City News & Video,1606 Pearl St,,Waukesha,WI,53186,US,http://www.shopoftemptations.com/,2629558223,,2018-11-27,,,S,,,,
Discfunktion,910 W Sunset Dr,,Waukesha,WI,53189,US,https://www.discfunktion.com/,2625213472,,2018-11-23,2018-11-23,Yes,H,CBD,,,
Infinite Vapor Waukesha,450 W Sunset Dr,,Waukesha,WI,53189,US,http://www.infinitevapor.com/,2624085172,waukesha@infinitevapor.com,2018-08-06,2021-02-11,Yes,V,CBD,,,
Let's Roll Tobacco & Liquor,210 E Broadway,,Waukesha,WI,53186,US,https://letsrolltobaccoandliquor.wordpress.com,2625498053,letsrolltobacco@live.com,2020-01-01,2020-01-01,Yes,S,CBD,,,
"Partnered Process, CBD Store and Manufacturing",402 Travis Ln Ste 64,,Waukesha,WI,53189,US,https://www.partneredprocess.com/,2628756886,alice@partneredprocess.com,2021-02-11,,Yes,C,CBD,,,
Pharm To Farm Market,1560 E Moreland Blvd Ste D,,Waukesha,WI,53186,US,https://www.pharmtofarmmarket.com/,2628955595,jspencer@pharmtofarmmarket.com,2020-07-15,,Yes,C,CBD,,,
The Hemp Hut & Dispensary,503 South Grand Ave,,Waukesha,WI,53186,US,,2622328568,hemphutwi@gmail.com,2021-01-26,2022-02-03,Yes,C,CBD,,,
Friday Vapes,824 W Fulton St,,Waupaca,WI,54981,US,https://fridaysvaporettes.com/,7152580324,fridayvapes@gmail.com,2014-12-19,2019-02-28,,V,,,,
Your CBD Store,104 N Main St,,Waupaca,WI,54981,US,https://getyourcbd.store/,7159422229,waupaca@cbdrx4u.com,2020-07-21,,Yes,C,CBD,,,
Engineered Organix CBD Oil,W10333 Willow Creek Rd,,Waupun,WI,53963,US,https://engineered-organix-cbd.business.site/,9209370000,,2021-01-01,,Yes,C,CBD,,,
Blazin Gifts,1701 N 6th St Ste A,,Wausau,WI,54403,US,https://www.blazingifts.net/,7158495552,shocker420@live.com,2019-01-08,,Yes,H,CBD,,,
CBD American Shaman Wausau,225696 Rib Mountain Dr,,Wausau,WI,54401,US,https://cbdamericanshaman.com/,7158702137,cbdwausau@gmail.com,2020-02-21,2020-02-21,Yes,C,CBD,,,
ECBlend Flavors,1800 Stewart Ave Ste 600,,Wausau,WI,54401,US,http://ecblend.com,7158410033,customerservice@ecblend.com,2019-01-17,,,V,,,,
Evolution Health and Wellness + CBD,2005 Grand Ave Unit A,,Wausau,WI,54403,US,https://evolutionhw.com/,7153934471,sales@evolutionhw.com,2021-01-02,,Yes,C,CBD,,,
Lil Devil Glass,1107 Cleveland Ave,,Wausau,WI,54401,US,,7158458180,lildevilswausau@gmail.com,2019-01-09,2019-11-13,Yes,H,CBD,,,
Naturz' Remedy,304 S 1st Ave,,Wausau,WI,54401,US,https://naturzremedy.com/,7152982708,info@naturzremedy.com,2021-03-01,,Yes,C,CBD,,,
Rib Mountain Liquor & Tobacco,3001 Rib Mountain Dr,,Wausau,WI,54401,US,http://ribmtnliquor.business.site/,7153934423,,2020-02-09,,Yes,S,CBD,,,
The Glass Station,102 S 3rd Ave,,Wausau,WI,54401,US,,7158495420,,2018-08-23,2019-07-29,Yes,H,CBD,,,
The Vapour Lounge,4501 Rib Mountain Dr,,Wausau,WI,54401,US,https://www.vapourindustries.com/,7152985956,vapourlounge.wausau@gmail.com,2018-08-23,2020-02-22,Yes,V,CBD,,,
414 Hemp,2500 N Mayfair Rd,,Wauwatosa,WI,53226,US,,4142423412,414hemp@gmail.com,2020-11-15,,Yes,C,CBD,,,
Blue On Greenfield,7223 W Greenfield Ave,,West Allis,WI,53214,US,http://blueongreenfield.com/,4144537223,blueongreenfield@gmail.com,2018-11-27,,Yes,H,CBD,,,
Miller Vape And CBD,5807 W Burnham St,,West Allis,WI,53219,US,,4148103543,millervapeandcbd@gmail.com,2021-03-13,,Yes,S,CBD,,,
Milwaukee Vapor,7508 W Oklahoma Ave,,West Allis,WI,53219,US,,4145456000,,2018-10-09,,,V,,,,
Oklahoma Liquor & Tobacco,10711 W Oklahoma Ave,,West Allis,WI,53227,US,,4145419463,okliquor@gmail.com,2020-01-15,,Yes,T,CBD,,,
Sconi Boys Dispensary,2719 S 108th St,,West Allis,WI,53227,US,https://www.sconiboys.com,4146662227,sconigirl@sconiboys.com,2021-08-14,2021-09-04,Yes,C,CBD,Yes,,
Vape 108,1475 S 108th St,,West Allis,WI,53214,US,http://www.vape108.com/,4148101185,info@vape108.com,2018-08-23,2020-02-22,Yes,V,CBD,,,
Big Jay's Smoke Shop,2021 W Washington St,,West Bend,WI,53095,US,,2624291190,bigjays815@gmail.com,2021-05-17,2021-05-17,Yes,H,CBD,,,
Cannabis Collective LLC,419 S Main St,,West Bend,WI,53095,US,https://cannabiscollectivewi.com,2623843800,contact@cannabiscollectivewi.com,2020-11-22,,Yes,C,CBD,,,
Rootz Imports LLC,536 S Main St,,West Bend,WI,53095,US,https://www.rootzwestbend.com/,2623535969,rootzwb@gmail.com,2018-12-08,,Yes,H,CBD,,,
Smokes On Main,2040 S Main St,,West Bend,WI,53095,US,http://www.smokesonmain.com/,2623386662,,2020-03-17,,Yes,T,CBD,,,
The Cannidote,403 S Main St,,West Bend,WI,53095,US,https://www.thecannidote.com/,2624291028,jakec@thecannidote.com,2020-12-20,,Yes,C,CBD,,,
The Vapor Stop USA,414 S Main St,,West Bend,WI,53095,US,,2625188273,thevaporstopusa@charter.net,2018-08-23,2020-02-22,Yes,V,CBD,,,
West Bend Vapor,807 S Main St,,West Bend,WI,53095,US,,2624291444,westbendvapor@gmail.com,2018-08-23,2020-02-22,Yes,V,CBD,,,
EmperorOne CBD,4105 Transport Way Ste 1,,Weston,WI,54476,US,https://emperoronecbd.com/,7152983341,info@emperoronecbd.com,2020-12-31,,Yes,C,CBD,,,
Secrets 2 Adult Party Store,3506 Schofield Ave,,Weston,WI,54476,US,,7152984111,secrets2inc@yahoo.com,2020-02-15,,,S,,,,
THE Dispensary - Weston,4020 Schofield Ave Ste 3,,Weston,WI,54476,US,https://www.thed8dispensary.com/weston,,,2021-10-19,,Yes,C,CBD,,,
Brew City Vape,7957 W Wind Lake Rd,,Wind Lake,WI,53185,US,http://www.brewcityvape.com/,2628956999,brewcityvape@gmail.com,2014-09-03,2019-02-27,,V,,,,
CBD American Shaman - Dells,805 River Rd,,Wisconsin Dells,WI,53965,US,https://cbdamericanshaman.com/,6086973451,cbdwidells@gmail.com,2019-11-11,,Yes,C,CBD,,,
Cloud 10.0 Vapes,1425 Wisconsin Dells Pkwy #2,,Wisconsin Dells,WI,53965,US,,6082530866,,2019-03-30,,Yes,V,CBD,,,
Discount Smokes,421 Wisconsin Dells Pkwy,,Wisconsin Dells,WI,53965,US,,6082548600,,2018-08-06,2019-09-16,Yes,S,CBD,,,
Wisconsin Cannabis,411 Broadway,,Wisconsin Dells,WI,53965,US,https://www.dellscannabis.com/,6086782800,orders@dellscannabis.com,2020-12-09,,Yes,C,CBD,,,
Alternative Edge,711 Peach St #101,,Wisconsin Rapids,WI,54494,US,https://alternativeedgellc.com/,7154214223,alternativeedgellc@gmail.com,2020-11-17,,Yes,C,CBD,,,
Cloud City Vapes,1050 Baker St,,Wisconsin Rapids,WI,54494,US,,7154243244,,2019-04-01,2019-04-01,,V,,,,
Shockwave Adult Superstore,3321 8th St,,Wisconsin Rapids,WI,54494,US,https://www.shockwavetoys.com/,7157121300,shockwavetoys@gmail.com,2021-01-12,2021-02-12,Yes,O,CBD,,,
The Steam Room Vape Supply,2920 8th St S,,Wisconsin Rapids,WI,54494,US,,7157120744,steamroomvapesupplyco@gmail.com,2020-04-20,,Yes,V,CBD,,,
Mueller Farms CBD,9404 Co Hwy J,,Woodruff,WI,54568,US,https://muellerfarmscbd.com/,7154902515,,2021-03-10,,Yes,C,CBD,,,
Earthy Herbs,615 Main St,,Wrightstown,WI,54180,US,https://www.earthy-herbs.com,92076430070,jodi@earthy-herbs.com,2021-09-17,2021-09-22,Yes,C,CBD,,,