Shop Name,Address 1,Address 2,City,State/Province,Zip/Postcode,Country,Website,Phone,Email,Added,Updated,CBD,Biz Type,MJ,Kratom,Buyer name ,Title 
Tobacco SuperStore,1504 US-278 #A,,Amory,MS,38821,US,http://tobaccosuper.com/,6622570219,,2020-03-01,,,T,,,,
Baldwyn Discount Tobacco,324 S 4th St,,Baldwyn,MS,38824,US,,6623659990,,2019-07-21,,,T,,,,
"R & B Tobacco, Beer and Vapor",162 MS-6,,Batesville,MS,38606,US,,6625787481,,2020-01-12,,,T,,,,
Bay Tobacco & Beer,200 US-90,,Bay St Louis,MS,39520,US,,2284675678,,2019-07-22,,Yes,S,CBD,Yes,,
Huff n Puff,295 US-90 #22,,Bay St Louis,MS,39520,US,,2283443344,,2018-08-06,2019-10-02,,S,,,,
Full Spectrum CBD 4U,280 Eisenhower Dr,,Biloxi,MS,39531,US,https://fscbd4u.com/,2289677441,tommyg@fscbd4u.com,2021-01-09,2021-01-09,Yes,C,CBD,,,
Huff N Puff,920 Cedar Lake Rd Ste N,,Biloxi,MS,39532,US,,2283961313,huffnpuff08@gmail.com,2018-08-06,2019-10-02,,S,,,,
Koast Kratom,2337 Pass Rd Ste A,,Biloxi,MS,39531,US,https://koast-kratom.business.site/,2283348352,,2021-02-25,2021-02-25,Yes,O,CBD,Yes,,
MVapes,2600 Beach Blvd Ste 903,,Biloxi,MS,39531,US,,2282093803,mvapes228@gmail.com,2019-05-05,,Yes,V,CBD,,,
My CBD Hub MS,921 Cedar Lake Rd Ste A,,Biloxi,MS,39532,US,,2282227398,,2021-03-09,,Yes,C,CBD,,,
SmokeScreen,19099 Pineville Rd Ste H,,Biloxi,MS,39560,US,https://www.smokescreenllc.com/,2282144377,info@smokescreenllc.com,2018-09-11,2020-01-01,Yes,V,CBD,,,
Vaporized Biloxi,2575 Pass Rd Ste F,,Biloxi,MS,39531,US,https://www.myvaporized.com/,2282808833,vaporized.biloxi@gmail.com,2019-06-03,2019-06-03,,V,,,,
Ya Ya's,2751 Pass Rd,,Biloxi,MS,39531,US,,2285942061,yayasinc@bellsouth.net,2018-11-21,2018-12-03,Yes,H,CBD,Yes,,
Good Life Vape Shop,1189 Old Fannin Rd,,Brandon,MS,39047,US,,7694475997,goodlife.ms@yahoo.com,2016-07-12,2019-04-14,Yes,V,CBD,,,
Tobacco Mart,207 Highway 51 N,,Brookhaven,MS,39601,US,,6018330085,,2020-01-16,2020-01-16,,T,,,,
Vaporized Brookhaven,303 US-51 S,,Brookhaven,MS,39601,US,https://www.myvaporized.com/,6016696584,vaporized.brookhaven@gmail.com,2018-09-30,,,V,,,,
Moonlight Adult Video,6034 I-55 S Frontage Rd,,Byram,MS,39272,US,http://www.moonlightadultvideo.com/,6013733155,,2020-01-11,,,O,,,,
Canton Super Discount Tobacco,203 Meadowlark Dr,,Canton,MS,39046,US,https://canton-super-discount-tobacco.business.site/,6018595620,,2018-10-07,,Yes,T,CBD,,,
VapeBox,137 Yandell Rd,,Canton,MS,39046,US,,6018988398,,2020-12-13,,Yes,V,CBD,,,
Chew Chew's Smokin Depot,15 W Union Rd,,Carriere,MS,39426,US,,6017993737,chewchewssmokin@att.net,2019-08-05,,,S,,,,
Tobacco SuperStore,306 MS-16,,Carthage,MS,39051,US,http://tobaccosuper.com/,6012674567,,2020-03-01,,Yes,T,CBD,,,
The Vapor Shak,419 N Davis Ave Ste A,,Cleveland,MS,38732,US,,6623941153,,2016-05-20,2019-10-04,,V,,,,
Lucky Leaf Discount Tobacco,509 Springridge Rd #C,,Clinton,MS,39056,US,,6019248818,,2020-01-05,,,T,,,,
Sipp Vapes,121 US-80,,Clinton,MS,39056,US,https://sipp-vapes.business.site/,6014884745,,2021-01-11,,Yes,V,CBD,,,
D & B Discount Tobacco & More,316 Main St,,Collins,MS,39428,US,,6017650500,,2019-09-02,2019-09-02,,T,,,,
Bad Wolf Vape Shop,1213 US-98 Byp,,Columbia,MS,39429,US,,6016335064,,2018-08-06,2020-01-17,,V,,Yes,,
1810 Vapors,1909 US-45,,Columbus,MS,39705,US,http://www.1810vapors.com/,6625704812,1810vapes@gmail.com,2018-08-06,2018-12-23,,V,,,,
Nu Way Vape,2321 US-45 Ste A,,Columbus,MS,39705,US,,6627980558,nuwayvape@gmail.com,2018-08-06,2019-09-10,,V,,,,
Sensations,4061 MS-373,,Columbus,MS,39705,US,,6624348599,,2018-12-05,2020-02-15,,H,,Yes,,
Tobacco Warehouse,2217 N Hwy 45 Frontage Rd,,Columbus,MS,39705,US,,6623272299,,2020-02-19,,Yes,S,CBD,,,
"Your CBD Store - Columbus, MS",1118 Gardner Blvd,,Columbus,MS,39702,US,https://cbdrx4u.com/,6628899109,columbusms@cbdrx4u.com,2019-09-13,2020-02-05,Yes,C,CBD,,,
Prescott's Hemp,401 US-72,,Corinth,MS,38834,US,https://prescottshemp.com/,6623319171,info@prescottshemp.com,2021-02-09,2021-08-23,Yes,C,CBD,,,
Tobacco Plus,1000 US-72 E,,Corinth,MS,38834,US,,6622873300,,2018-10-25,2020-05-05,Yes,S,CBD,Yes,,
Cloud 9 Vapes,3586 Sangani Blvd,,D'Iberville,MS,39540,US,https://www.cloudycollabs.com/,2282072567,cloud9vapesllc@gmail.com,2020-12-02,,,V,,,,
Coastal Health and Wellness Boutique,3200 Mallett Rd Ste D2,,D'Iberville,MS,39540,US,https://www.coastalhwb.com/,2282071448,contact@coastalhwb.com,2020-12-15,2021-07-03,Yes,C,CBD,,,
Four Seasons Cigar Beer & Tobacco,3680 Sangani Blvd,,D'Iberville,MS,39540,US,,2283961936,fourseasonsbct@outlook.com,2019-06-14,,Yes,S,CBD,,,
GC Vapors,4020 Popp's Ferry Rd Ste A,,D'Iberville,MS,39540,US,https://www.gcvapors.com/,2283920169,info@gcvapors.com,2014-08-29,2019-04-13,,V,,,,
MVapes,3254 Mallett Rd Ste C,,D'Iberville,MS,39540,US,,2282546688,mvapes228@outlook.com,2015-08-18,2019-01-28,Yes,V,CBD,,,
Natal's Cigar Shoppe and Tobacco Hut,4402 E Aloha Dr Ste 1A,,Diamondhead,MS,39525,US,,2282559777,,2020-01-15,2020-01-15,,T,,,,
PBR Vapors,5208 MS-15,,Ecru,MS,38841,US,https://pbr-vapors.business.site/,6622002336,pbrvapors@gmail.com,2017-07-17,2020-02-03,Yes,V,CBD,,,
Cool Vapes,4220 Lakeland Dr Ste H,,Flowood,MS,39232,US,,6014876126,coolvapes@coolvapesms.com,2015-01-21,2019-02-20,,V,,,,
Discount Tobacco Store,671 Grants Ferry Rd Ste C,,Flowood,MS,39232,US,,6019923571,,2019-06-13,,Yes,S,CBD,,,
Sparx Vape Flowood,901 Lakeland Pl Ste 5A,,Flowood,MS,39232,US,,7695724967,sparkzonevape@gmail.com,2019-10-18,2020-03-24,,V,,,,
"Your CBD Store - Flowood, MS",145 Friendly & Fresh Dr Ste A,,Flowood,MS,39232,US,https://cbdrx4u.com/,7692515499,cbd3507@gmail.com,2019-09-13,2019-09-13,Yes,C,CBD,,,
Copper Road Vapor Shop,1509 S Adams St,,Fulton,MS,38843,US,,6628623100,,2019-08-28,,,V,,,,
SmokeScreen,4351 Gautier Vancleave Rd #D,,Gautier,MS,39553,US,https://www.smokescreenllc.com/,2285222420,info@smokescreenllc.com,2018-09-11,2020-01-01,Yes,V,CBD,,,
Delta Vapors,1422 S Main St,,Greenville,MS,38701,US,,6627439808,deltavaporsllc@gmail.com,2015-02-12,2022-04-18,,V,,,,
The Vapor Shak,1447 Hwy 1 S Ste B,,Greenville,MS,38701,US,,6623941153,,2016-05-06,2018-11-13,Yes,V,CBD,,,
Delta Clouds Vapor,915 Walnut St,,Greenwood,MS,38930,US,,6623927427,,2019-04-05,,,V,,,,
Cloud 9,1321 Sunset Dr Ste T,,Grenada,MS,38901,US,,6623072218,info@c9vaporco.com,2019-08-26,,,V,,,,
DB Rocks Quality Cbd,1015 Pass Rd Ste A,,Gulfport,MS,39501,US,,2285968090,,2020-12-15,2020-12-15,Yes,C,CBD,,,
Dr Feelgood Botanicals CBD and Kratom,1956 E Pass Rd Ste F,,Gulfport,MS,39507,US,,2282436382,drfeelgood9424@gmail.com,2020-12-24,,Yes,C,CBD,Yes,,
EVapes,1116 Cowan Rd Ste B,,Gulfport,MS,39507,US,http://evapes228.com/,2283801570,,2021-01-01,,Yes,V,CBD,,,
Gulfport CBD and Wellness by 5 Star Nutrition,10573 US-49 Ste B,,Gulfport,MS,39503,US,https://5starnutritionusa.com/,2282061407,gulfport@5starnutritionusa.com,2021-01-20,,Yes,O,CBD,,,
Herbal Alternatives,11530 US-49 Ste H,,Gulfport,MS,39503,US,http://www.herbalalternatives.org/,2283281686,admin@herbalalternatives.org,2019-01-14,,Yes,H,CBD,Yes,,
No Smoke About It Just Vape,11370 US-49 Ste H,,Gulfport,MS,39503,US,,2288063244,,2019-09-09,,Yes,V,CBD,,,
Pass Smoke & Vape Shop,1740 E Pass Rd,,Gulfport,MS,39507,US,https://passsmokevapeshop.com,9857901477,,2022-02-11,2022-02-11,Yes,S,CBD,Yes,,
Simply Tobacco Club,9442 US-49 Ste D,,Gulfport,MS,39503,US,http://simplytobaccoclub.com/,2282061369,info@simplytobaccoclub.com,2018-08-06,2019-06-15,Yes,T,CBD,,,
SmokeScreen,12449 US-49 Ste E,,Gulfport,MS,39503,US,https://www.smokescreenllc.com/,2282842710,info@smokescreenllc.com,2018-08-06,2020-01-01,Yes,V,CBD,,,
Smokey's,14527 Dedeaux Rd,,Gulfport,MS,39503,US,https://smokeysmsgulf.weebly.com/,2283280024,smokeys17@hotmail.com,2020-03-18,,,T,,Yes,,
Smokey's Tobacco & Beer Products,3411 Washington Ave,,Gulfport,MS,39507,US,,2288680355,smokeys17@hotmail.com,2020-03-20,,Yes,T,CBD,Yes,,
Up N Smoke,2905 25th Ave Ste B,,Gulfport,MS,39501,US,,2283575700,malekwholesale@yahoo.com,2019-07-03,,Yes,S,CBD,,,
Vaporized Gulfport,15520 Daniel Blvd Ste F,,Gulfport,MS,39503,US,https://www.myvaporized.com/,2288320095,,2018-08-06,2020-01-09,Yes,V,CBD,,,
A1 Vapor LLC,4400 Hardy St Ste A5,,Hattiesburg,MS,39402,US,,6013366279,a1vapor@yahoo.com,2018-09-30,,,V,,,,
BlueLeaf CBD LLC,1910 Hardy St Ste E,,Hattiesburg,MS,39401,US,https://www.blueleafcbd.org/,7693907438,blueleafcbd@yahoo.com,2020-11-21,,Yes,C,CBD,,,
Cloud 9 Vapor,6086 US-98 Ste 10,,Hattiesburg,MS,39402,US,http://anytabest.wixsite.com/cloud9ms,6012962378,,2019-08-08,2021-09-18,Yes,V,CBD,,,
Fuji CBD Hattiesburg,29 Rivers Dr Suite 30,,Hattiesburg,MS,39401,US,https://www.fujicbd.com/,,fujicbd@gmail.com,2021-01-09,,Yes,C,CBD,,,
Handy Pantry,2425 W 4th St,,Hattiesburg,MS,39401,US,,6015823211,,2019-01-10,,,H,,Yes,,
Hattiesburg CBD & Wellness by 5 Star Nutrition,3002 Hardy St Unit 150,,Hattiesburg,MS,39401,US,https://5starnutritionusa.com/,6013368455,,2021-01-21,,Yes,O,CBD,,,
Paradigm CBD Shoppe,6134 US-98,,Hattiesburg,MS,39402,US,https://www.paradigmdistro.com/,6013367332,paradigmdistro@gmail.com,2021-02-11,2021-09-18,Yes,C,CBD,,,
Ra Shop,2706 Hardy St,,Hattiesburg,MS,39401,US,http://www.rashop.us/,6012616961,,2018-08-14,2020-02-10,Yes,S,CBD,Yes,,
Rev Of Hattiesburg,6335 US-49 Ste 40,,Hattiesburg,MS,39401,US,,6014020344,support@rev-vaping.com,2018-08-06,2021-06-11,Yes,V,CBD,,,
Twisted Vapes,4308 W 4th St,,Hattiesburg,MS,39402,US,,6012643131,craigb00@ymail.com,2018-09-30,,,V,,,,
Vaporized,4700 Hardy St Ste L,,Hattiesburg,MS,39402,US,https://www.myvaporized.com/,6015963807,vaporizedms@gmail.com,2018-09-30,2019-06-03,Yes,V,CBD,,,
Vaporized Express,2401 Hardy St Ste 30,,Hattiesburg,MS,39401,US,https://vaporized-express.business.site/,6015963537,,2018-08-06,2020-01-09,Yes,V,CBD,,,
"Your CBD Store - Hattiesburg, MS",6152 US-98 Ste 20,,Hattiesburg,MS,39402,US,https://cbdrx4u.com/,6014478849,cbd3507@gmail.com,2019-09-13,2019-09-13,Yes,C,CBD,,,
Apollo Hemp Supply llc.,2662 Hwy 51 S Ste 7,,Hernando,MS,38632,US,https://apollohempsupply.com/,6622983218,apollollc19@gmail.com,2020-11-17,,Yes,C,CBD,,,
Blue Moon Gifts,215 W Commerce St,,Hernando,MS,38632,US,https://www.facebook.com/bluemoongiftsms/,9013048480,,2019-07-26,,,O,,,,
Mid South Vapors - Hernando,2670 McIngvale Rd Ste C,,Hernando,MS,38632,US,http://msvapors.com/,6622983941,info@msvapors.com,2020-01-19,2020-01-19,Yes,V,CBD,,,
Vapor Maven,2338 McIngvale Rd,,Hernando,MS,38632,US,https://vapormaven.com,6624694276,,2020-12-13,,Yes,V,CBD,,,
Mid South Vapors - Horn Lake,3001 Goodman Rd Ste 106,,Horn Lake,MS,38637,US,https://www.msvapors.com/,6624704326,info@msvapors.com,2014-09-01,2019-04-13,,V,,,,
Tobacco Outlet,1428 Goodman Rd W,,Horn Lake,MS,38637,US,,6623939399,tobaccooutlet1428@gmail.com,2019-10-31,2019-10-31,Yes,S,CBD,Yes,,
Tobacco SuperStore,3340 Goodman Rd,,Horn Lake,MS,38637,US,http://tobaccosuper.com/,6625485115,,2020-03-01,,Yes,T,CBD,,,
West Vapor Co.,1061 Goodman Rd W,,Horn Lake,MS,38637,US,,6624705748,,2018-09-20,2021-06-15,Yes,V,CBD,,,
"Your CBD Store - Jackson, MS",310 Briarwood Dr Ste A,,Jackson,MS,39206,US,https://cbdrx4u.com/,6019577972,cbd3507@gmail.com,2019-09-13,2019-09-13,Yes,C,CBD,,,
Alien Vapes,16230 MS-603 Ste E,,Kiln,MS,39556,US,https://www.alienvapeskiln.com/,2282545401,alienvapesllc@gmail.com,2020-06-17,,Yes,V,CBD,,,
Magnolia Vapes,2237 MS-15 N,,Laurel,MS,39443,US,,6017784994,magnoliavapes@gmail.com,2018-08-06,2019-12-29,,V,,,,
Huff n Puff 4,5132 Beatline Rd,,Long Beach,MS,39560,US,,2282065000,,2022-04-28,2022-04-28,,S,,,,
Tobacco Outlet,208 S Church Ave,,Louisville,MS,39339,US,,6627734685,,2020-07-14,,Yes,T,CBD,,,
Cool~e-Smokin Vapors,11285 Old 63 S,,Lucedale,MS,39452,US,,6017915268,,2019-08-31,,,V,,,,
Scotts Smokin Vapors,168 Cowart St Ste 6,,Lucedale,MS,39452,US,,2289906614,scottssmokin18@gmail.com,2019-12-18,,,V,,,,
Hemp World Madison,"114 Dees Dr, Ste B",,Madison,MS,39110,US,https://www.hempworldmadison.com/,6017075358,hempworldmadison@gmail.com,2021-05-12,,Yes,C,CBD,,,
Magnolia Hemp Company,1716 US-51 Ste D,,Madison,MS,39110,US,https://magnoliahempco.com/,6017077531,info@magnoliahempco.com,2021-03-17,2022-02-02,Yes,C,CBD,,,
A1 Vapor of Magee,1667 US-49 Ste 1,,Magee,MS,39111,US,,6014397172,a1vaporofmagee@yahoo.com,2019-07-15,,Yes,V,CBD,,,
Cloud 9 Vapor,1409 Delaware Ave #C,,McComb,MS,39648,US,,6016002424,,2019-08-08,,,V,,,,
Smokey's Discount Tobacco,1200 Lasalle St #24,,McComb,MS,39648,US,,6012492445,,2020-03-19,,,T,,,,
Cloudy Daze CBD Shop,1614 Simpson Hwy #149,,Mendenhall,MS,39114,US,https://cloudydaze.business.site,6014051902,cloudydaze1@yahoo.com,2020-12-02,2020-12-02,Yes,C,CBD,,,
El Cheapos Discount Beer & Tobacco House,5105 5th St,,Meridian,MS,39307,US,,6014852398,,2021-09-16,,,T,,,,
Meridian Underground Music,2220 8th St,,Meridian,MS,39301,US,http://www.meridianundergroundmusic.com/,6014851363,meridianunderground@gmail.com,2019-12-19,,Yes,O,CBD,,,
Rev of Meridian,2400 N Hills St Ste B,,Meridian,MS,39305,US,,6016781718,support@rev-vaping.com,2018-08-06,2020-01-01,Yes,V,CBD,,,
Tobacco World,2440 N Hills St,,Meridian,MS,39305,US,,6016936751,,2020-02-19,,,S,,Yes,,
Tobacco World,93 S Frontage Rd Ste 200,,Meridian,MS,39301,US,,6014847171,,2020-02-25,,Yes,S,CBD,Yes,,
Twisted Mist,806 MS-19 N #280b,,Meridian,MS,39307,US,http://www.twistedmist.net/,6014534205,charlesswain@twistedmist.net,2019-11-10,,Yes,V,CBD,,,
Vaporized Meridian,555 Bonita Lakes Plaza #A,,Meridian,MS,39301,US,https://www.myvaporized.com/,6019385556,,2018-01-16,2019-01-22,,V,,,,
"Your CBD Store - Meridian, MS",103 S Frontage Rd Ste 308,,Meridian,MS,39301,US,https://cbdrx4u.com/,6012865962,cbd3507@gmail.com,2019-09-13,2019-09-13,Yes,C,CBD,,,
Cheap Butts Discount Tobacco,7620 MS-613,,Moss Point,MS,39563,US,,2284757318,,2019-08-02,,,T,,Yes,,
Dr. Kratom Botanicals,7620 MS-613 #1,,Moss Point,MS,39563,US,,2283692268,dr.kratom.botanicals@gmail.com,2018-11-01,,Yes,H,CBD,Yes,,
Lady Kratom,4519 Jefferson Ave,,Moss Point,MS,39563,US,,2285630158,,2021-03-04,2021-03-04,Yes,C,CBD,Yes,,
The Vape Shoppe,196 Sgt Prentiss Dr,,Natchez,MS,39120,US,,6013344943,,2022-02-07,2022-02-07,Yes,V,CBD,,,
Tobacco SuperStore,516 W Bankhead St,,New Albany,MS,38652,US,http://tobaccosuper.com/,6625385834,,2020-03-04,,,T,,,,
Vapor Maven,302 Hwy 30 W Ste C,,New Albany,MS,38652,US,https://vapormaven.com,6625349987,,2020-12-13,,Yes,V,CBD,,,
Candy Shop,1310 Bienville Blvd,,Ocean Springs,MS,39501,US,http://www.shopforcandy.com/,2282150493,info@candyshopusa.com,2020-11-22,2020-12-22,Yes,C,CBD,Yes,,
Chevron and Vape Shop,1264 Ocean Springs Rd,,Ocean Springs,MS,39564,US,,2288750441,,2022-02-10,2022-02-15,,O,,Yes,,
Double Shoppe,14000 Wilfred Seymour Rd,,Ocean Springs,MS,39564,US,,2288758684,,2018-11-23,,Yes,S,CBD,Yes,,
EVapes,6616 Washington Ave Ste F,,Ocean Springs,MS,39564,US,http://evapes228.com/,2283800944,,2021-01-01,,Yes,V,CBD,,,
"Smiley's Tobacco, Beer & More",6709 Mary St,,Ocean Springs,MS,39564,US,https://smileys-tobacco-beer-more.business.site/,2284470914,,2020-03-19,,Yes,S,CBD,Yes,,
Vaporio,4010 Bienville Blvd Ste C,,Ocean Springs,MS,39564,US,http://www.vaporio.net,2282151548,vaporiollc@gmail.com,2020-05-19,,Yes,V,CBD,Yes,,
"Your CBD Store - Ocean Springs, MS",1626 Bienville Blvd,,Ocean Springs,MS,39564,US,https://cbdrx4u.com/,2282150492,cbd3507@gmail.com,2019-09-13,2019-09-13,Yes,C,CBD,,,
Cheap Smokes 2,6775 MS-305,,Olive Branch,MS,38654,US,,6628953511,,2019-08-02,,,T,,,,
Huff N Puff,7785 New Craft Rd,,Olive Branch,MS,38654,US,https://huffnpuff.ecwid.com/,6624207712,huffnpuff.1@yahoo.com,2021-02-08,,,S,,,,
Smoke Max,6229 MS-305 Ste E,,Olive Branch,MS,38654,US,,6624207457,maxsmoke01@gmail.com,2019-08-17,2021-01-03,Yes,V,CBD,Yes,,
Tobacco Plus,7153 Hacks Cross Rd,,Olive Branch,MS,38654,US,,6628900786,,2020-05-23,,,T,,,,
Vapor Maven,7796 Craft-Goodman Rd,,Olive Branch,MS,38654,US,http://vapormaven.com/,6628746356,,2019-10-09,,Yes,V,CBD,,,
VaporWize,8110 Camp Creek Blvd Ste 112,,Olive Branch,MS,38654,US,http://www.vaporwize.com/,6628745061,,2015-02-27,2018-12-26,Yes,V,CBD,,,
Your CBD Store,6399 Goodman Rd Ste 104,,Olive Branch,MS,38654,US,https://cbdrx4u.com/find-us/mississippi/olive-branch,6624207357,,2021-06-04,,Yes,C,CBD,,,
Cloud 9 LLC Vapor Supply Company,2617 W Oxford Loop Ste 4,,Oxford,MS,38655,US,,6628326297,cloud9vaporsupplies@gmail.com,2015-07-25,2019-02-20,,V,,,,
Hemp Ville CBD,1801 Jackson Ave W Ste 103A,,Oxford,MS,38655,US,https://hempvillecbd.com/,6623805310,hemphealthms@gmail.com,2021-01-27,,Yes,C,CBD,,,
Local Color,1000 N Lamar Blvd,,Oxford,MS,38655,US,,6622349605,,2018-11-30,,,H,,,,
Sam's Cell Phones Accessories & Tobacco,1418 Jackson Ave W,,Oxford,MS,38655,US,,6625130004,,2020-02-13,,,T,,,,
Slackers Supply,2617 W Oxford Loop,,Oxford,MS,38655,US,,6626383074,,2019-01-14,2019-02-15,,H,,,,
Tobacco SuperStore,1617 Jackson Ave W,,Oxford,MS,38655,US,https://tobaccosuper.com/main/,6622340055,,2018-08-06,2020-04-15,Yes,T,CBD,,,
"Your CBD Store - Oxford, MS",2311 Jackson Ave W Ste 306-B,,Oxford,MS,38655,US,https://getsunmed.com,6623805193,shopms168@getsunmed.com,2020-12-06,2022-04-06,Yes,C,CBD,,,
Cloud 9 Vapor,2402 Denny Ave,,Pascagoula,MS,39567,US,,2282021488,,2019-03-31,,,V,,,,
Huff N Puff,3810 Hospital Rd,,Pascagoula,MS,39567,US,,2282053778,,2018-08-06,2019-10-02,,S,,,,
Kickin The Butt Vapors,4625 Telephone Rd Ste 1,,Pascagoula,MS,39581,US,,2282053679,kickinthebuttvapors@gmail.com,2018-08-06,2019-12-27,Yes,V,CBD,,,
Market Smoke & Vape Shop,1612 Denny Ave,,Pascagoula,MS,39567,US,,2282053949,,2022-04-04,2022-04-04,Yes,S,CBD,Yes,,
2Back-O-Town,16829 Kapalama Rd Ste A,,Pass Christian,MS,39571,US,,2285866244,,2022-01-06,2022-01-06,,T,,,,
Treasure Chest,8030 Menge Ave,,Pass Christian,MS,39571,US,,2284527277,,2022-03-30,2022-03-30,Yes,T,CBD,Yes,,
Hemp World,100 Business Center Pkwy Ste A,,Pearl,MS,39208,US,,7692577566,hempworldms@gmail.com,2021-01-27,,Yes,C,CBD,,,
Mack's Tobacco Shop,3190 US-80,,Pearl,MS,39208,US,,6019331833,,2020-01-06,,Yes,T,CBD,,,
Nectar Farms,200 Bass Pro Dr Ste 210,,Pearl,MS,39208,US,https://nectarfarms.net/,6013980000,owner@nectarfarms.net,2021-02-26,,Yes,C,CBD,,,
Sparx Vape Pearl,100 N Bierdeman Rd Ste J,,Pearl,MS,39208,US,,7694475665,sparxvape@gmail.com,2019-10-18,2019-10-18,Yes,V,CBD,,,
Crazy 8 Vapors Petal,35 Byrd Dr Ste 1001,,Petal,MS,39465,US,http://crazy8vapor.business.site/,6013365755,crazy8vapors@gmail.com,2019-08-31,,Yes,V,CBD,,,
Smokey's Discount Tobacco,112 S Main St,,Petal,MS,39465,US,,6015444300,,2020-03-18,,Yes,T,CBD,,,
Big Time Vapes,711 Memorial Blvd,,Picayune,MS,39466,US,,6013376466,bigtimevapes@yahoo.com,2018-10-07,,,V,,,,
Custom Vapes,1405 Armand Dr,,Picayune,MS,39466,US,,6012731204,robyn@customvapes.org,2015-03-28,2019-09-02,,V,,,,
Herbal Alternatives Picayune,965 Memorial Blvd,,Picayune,MS,39466,US,https://herbal-alternatives-picayune.business.site/,7699262500,,2021-01-30,,Yes,C,CBD,Yes,,
Smokin' Joe's,3275 MS-43,,Picayune,MS,39466,US,,6017494171,,2019-12-11,2019-12-11,,T,,,,
The CBD Junction,1 Sycamore Rd Ste F,,Picayune,MS,39466,US,https://www.thecbdjunction.com/,7692420154,thecbdjunction@gmail.com,2020-12-21,,Yes,C,CBD,,,
Tobacco Shop,282 W Oxford St,,Pontotoc,MS,38863,US,,6624880220,,2020-03-14,2020-03-14,Yes,T,CBD,,,
Sparx Vape Richland,1055 US-49 Ste D,,Richland,MS,39208,US,,6013982163,sparxvape@gmail.com,2019-10-18,2019-10-18,Yes,V,CBD,,,
Magnolia Vapes,310 US-51 Ste B,,Ridgeland,MS,39157,US,http://www.magnoliavapes.com/,6017079914,magnoliavapes@gmail.com,2018-08-06,2020-01-06,,V,,,,
Ruby's Beer & Tobacco,801 S Wheatley St Ste D,,Ridgeland,MS,39157,US,,7692163040,rubybeer.tobacco@yahoo.com,2020-02-12,2020-02-12,Yes,S,CBD,Yes,,
Shahi Beer & Tobacco,7157 Old Canton Rd Ste G,,Ridgeland,MS,39157,US,,6017909009,rubybeertobacco@yahoo.com,2020-02-15,,,S,,,,
Vapor World,587 US-51 Ste B,,Ridgeland,MS,39157,US,http://www.vaporworldonline.com/,7693000644,ridgeland@vaporworldonline.com,2018-08-06,2020-01-09,Yes,V,CBD,,,
Tobacco Superstore,102 E Main St,,Senatobia,MS,38668,US,http://tobaccosuper.com/,6625620627,,2020-03-02,,,T,,,,
Tobacco SuperStore #68,4669 US-51,,Senatobia,MS,38668,US,http://tobaccosuper.com/,6623011700,,2019-12-14,,Yes,S,CBD,,,
American Vapor Co.,1100 Church Rd W #112,,Southaven,MS,38671,US,,6624704274,support@theamericanvaporco.com,2021-10-20,,Yes,V,CBD,,,
Blue Whale Vapor,9055 US-51,,Southaven,MS,38671,US,https://www.badfisheliquid.com/,6625105524,bluewhalevapor@gmail.com,2015-05-16,2019-07-22,Yes,V,CBD,,,
Desoto Vapors,2930 Goodman Rd E,,Southaven,MS,38672,US,https://desotovapors.wixsite.com/desotovapors/home,6625361315,desotovapors@gmail.com,2019-08-12,,,V,,,,
Hemp Ville CBD Southaven,562 Goodman Rd E,,Southaven,MS,38671,US,https://hempvillecbd.com/,6625366046,benc@hempvillecbd.com,2021-01-27,2021-01-27,Yes,C,CBD,,,
Mid South Vapors Southaven,3038 Goodman Rd E,,Southaven,MS,38672,US,,6625366216,info@msvapors.com,2018-08-06,2019-12-29,,V,,,,
Pure CBD Solutions,3451 Goodman Rd E Ste 120,,Southaven,MS,38672,US,https://purecbdgroup.com/,6622538099,info@purecbdgroup.com,2021-02-05,,Yes,C,CBD,,,
Southaven Smoke,9020 US-51 N Ste 3,,Southaven,MS,38671,US,,6623934987,,2019-01-08,2021-01-08,Yes,S,CBD,Yes,,
Super C Tobacco,372 Goodman Rd E,,Southaven,MS,38671,US,,6623495646,,2019-11-27,,Yes,T,CBD,Yes,,
VaporSmart,1060 Goodman Rd E,,Southaven,MS,38671,US,,6625505979,,2020-07-20,2020-07-20,Yes,V,CBD,,,
VaporWize,376 Goodman Rd E,,Southaven,MS,38671,US,https://vaporwize-southaven.business.site/,6624706917,,2015-02-27,2019-01-29,,V,,,,
"Your CBD Store - Southaven, MS",1076 Goodman Rd E,,Southaven,MS,38671,US,https://cbdrx4u.com/,6624706497,cbd3507@gmail.com,2019-09-13,2019-09-13,Yes,C,CBD,,,
1810 Vapors,1107 Stark Rd,,Starkville,MS,39759,US,http://www.1810vapors.com/,6622688078,1810vapes@gmail.com,2018-08-06,2018-12-23,,V,,,,
Starkville Discount Tobacco,1026 Louisville St,,Starkville,MS,39759,US,https://starkvilletobacco.business.site/,6622688351,starkvilletobacco@gmail.com,2018-12-03,,Yes,S,CBD,Yes,,
Tobacco 101,204 MS-12 Ste C,,Starkville,MS,39759,US,,6626178300,tobacco101ms@gmail.com,2018-08-06,2018-10-17,Yes,S,CBD,,,
Discount Tobacco Shop,2810 S Gloster St,,Tupelo,MS,38801,US,,6625664828,,2019-11-18,,Yes,T,CBD,,,
Prescott's Hemp,3192 Tupelo Commons,,Tupelo,MS,38801,US,https://prescottshemp.com/,6622556224,info@prescottshemp.com,2021-02-09,,Yes,C,CBD,,,
Super C Discount Tobacco,1107 E Main St,,Tupelo,MS,38804,US,,6628406762,,2019-11-27,,,T,,,,
Super C Tobacco,2601 Main St Ste D,,Tupelo,MS,38801,US,,6628442272,superctobacco@gmail.com,2020-04-14,,Yes,T,CBD,,,
Tobacco 101 & Vape,2434 W Main St Ste D,,Tupelo,MS,38801,US,http://www.tobacco101vape.com/,6624324911,,2018-08-06,2020-05-29,Yes,S,CBD,Yes,,
Tobacco SuperStore,4097 W Main St,,Tupelo,MS,38801,US,https://tobaccosuper.com/main/,6628404016,asheffield@tobonline.com,2018-08-06,2020-04-15,Yes,S,CBD,Yes,,
VaporWize,3861 N Gloster St,,Tupelo,MS,38804,US,http://www.vaporwize.com/,6622054268,vaporwize@gmail.com,2018-08-06,2020-01-09,Yes,V,CBD,,,
Tobacco Store,3046 Indiana Ave #P,,Vicksburg,MS,39180,US,,6016380042,tobaccostore2016@yahoo.com,2020-03-09,,Yes,S,CBD,Yes,,
Vapor World,3046 Indiana Ave Ste M,,Vicksburg,MS,39180,US,http://www.vaporworldonline.com/,6014564895,,2018-08-06,2020-01-09,,V,,,,
Herbal Alternatives,326 US-90,,Waveland,MS,39576,US,http://www.herbalalternatives.org/,2284674372,admin@herbalalternatives.org,2019-01-14,,Yes,H,CBD,Yes,,
No Smoke About It 2.0,222 US-90 Ste A,,Waveland,MS,39576,US,,2283443080,,2018-08-06,2019-12-30,Yes,V,CBD,,,
Simply Tobacco Club,315 US-90 Ste I,,Waveland,MS,39576,US,http://simplytobaccoclub.com/,2282395652,,2018-08-06,2019-06-15,Yes,T,CBD,,,
"Mod Vapor Company, LLC",812 Spring St Ste C,,Waynesboro,MS,39367,US,,6015099075,,2018-08-06,2020-01-17,Yes,V,CBD,,,
Discount Tobacco,530 W Central Ave,,Wiggins,MS,39577,US,,6017163211,,2019-11-01,,,T,,,,
Revive Smoke  & Vape,1049 E Frontage Dr Ste A-1,,Wiggins,MS,39577,US,https://www.revivecbd.store/,6017918224,,2019-12-10,2019-12-10,Yes,S,CBD,Yes,,
Simply Tobacco Club,1107 E Frontage Dr,,Wiggins,MS,39577,US,http://simplytobaccoclub.com/,6015492866,info@simplytobaccoclub.com,2018-08-06,2019-12-02,Yes,T,CBD,,,
Vaporized Wiggins,1045 E Frontage Dr Ste b,,Wiggins,MS,39577,US,http://vaporized-wiggins.business.site/,6014663399,vaporized.wiggins@gmail.com,2019-10-02,,,V,,,,
A & T Discount Tobacco,647 Middleton Rd,,Winona,MS,38967,US,,6622834136,,2019-07-14,,,T,,,,