Shop Name,Address 1,Address 2,City,State/Province,Zip/Postcode,Country,Website,Phone,Email,Added,Updated,CBD,Biz Type,MJ,Kratom,Buyer name ,Title 
Flowland Counter-Culture Outlet,1200 N Sandhills Blvd Ste A,,Aberdeen,NC,28315,US,https://www.flowland.net/,9107570244,info@flowland.net,2018-08-06,2019-09-16,Yes,H,CBD,,,
Tobacco Road Outlet #1,1818 N Sandhills Blvd,,Aberdeen,NC,28315,US,http://www.tobaccoroadoutlet.com/,9106954344,info@tobaccoroadoutlet.com,2019-12-17,,,T,,,,
Tobacco And Vape,5283 US-158,,Advance,NC,27006,US,,3369413628,,2020-05-28,,,V,,,,
Ahoskie Tobacco House,102 S Catherine Creek Rd N,,Ahoskie,NC,27910,US,,2522098505,,2019-07-16,,,T,,,,
Sweet Vapes,304 Main St W Ste C,,Ahoskie,NC,27932,US,,2528628340,sweetvapes27932@yahoo.com,2018-09-30,2020-01-26,Yes,V,CBD,,,
Cozmik Vapes,1550 NC-24,,Albemarle,NC,28001,US,,7049840841,,2019-09-03,2020-11-30,Yes,V,CBD,,,
Hybrid Vapor & Tobacco - Albemarle,718 Leonard Ave Ste G,,Albemarle,NC,28001,US,,9805818202,,2018-09-16,2019-12-09,Yes,S,CBD,,,
Tobacco Road Outlet,720 NC-24,,Albemarle,NC,28001,US,http://www.tobaccoroadoutlet.com/,7049829817,info@tobaccoroadoutlet.com,2020-03-14,,,T,,,,
Your CBD Store,759 NC-24,,Albemarle,NC,28001,US,https://cbdrx4u.com,9102462380,albemarle640@cbdrx4u.com,2020-12-06,,Yes,C,CBD,,,
VAPE Clouds at Spring Rain,14038 US-19,,Andrews,NC,28901,US,,8283212373,,2020-12-13,,Yes,V,CBD,,,
Miracle CBD Products by Wanda,164 Gary Dr,,Angier,NC,27501,US,https://www.miraclecbdbywanda.com/,9103039061,wandahill86@gmail.com,2021-03-13,2021-03-13,Yes,C,CBD,,,
Up N Smoke Tobacco and Vapor #2,12 E Depot St,,Angier,NC,27501,US,https://www.upnsmokeinc.com/,9196394700,info@upnsmokeinc.com,2018-11-24,,Yes,S,CBD,Yes,,
Chasing Clouds Vapor & CBD,1230 W Williams St,,Apex,NC,27502,US,https://www.chasingcloudsvapor.com/,9193725170,,2018-08-06,2020-01-12,Yes,V,CBD,,,
Freedom Vapor,301 N Salem St,,Apex,NC,27502,US,,9193552663,maysonq@hotmail.com,2014-10-10,2019-01-31,Yes,V,CBD,,,
HempKo CBD Store,522 E Williams St,,Apex,NC,27502,US,https://www.hempko.me/,2525059605,sales@hempko.me,2021-01-28,,Yes,C,CBD,,,
Tobacco & More,815 E Williams St,,Apex,NC,27502,US,,9193638499,info@tobacconmore.com,2020-05-23,,Yes,S,CBD,Yes,,
D & M Vapes,10418 N Main St #X,,Archdale,NC,27263,US,https://www.dandmvapes.com/,3362982739,dandmvapes@infionline.net,2018-06-26,2019-07-06,,V,,,,
KMX Vapes,10102 S Main St Ste Q,,Archdale,NC,27263,US,https://kmx-vapes-archdale.business.site,3368585527,kmxvapes@gmail.com,2021-02-01,2021-02-01,,V,,Yes,,
Asheville Vapor,2144 Hendersonville Rd #B,,Arden,NC,28704,US,http://www.ashevillevapor.com/,8283938273,jeremy@ashevillevapor.com,2014-09-21,2019-05-10,Yes,V,CBD,,,
Captive Minds,1 Azalea Rd,,Arden,NC,28704,US,,8286847473,,2018-10-15,,,S,,,,
Octopus Garden,140 Airport Rd Ste M,,Arden,NC,28704,US,http://octopusgardensmokeshops.com/,8286540906,octopusgarden@me.com,2018-08-06,2019-06-18,Yes,S,CBD,Yes,,
OG Vapors,335 Airport Rd #500,,Arden,NC,28704,US,https://www.ogvapors.co,8286763595,,2018-08-06,2019-12-30,,V,,,,
The CBD Store - By Remedy,2690 Hendersonville Rd Ste H,,Arden,NC,28704,US,https://remedyhw.com/,8286518223,info@remedyhw.com,2020-12-19,2020-12-19,Yes,C,CBD,,,
Two Moons CBD South,2144 Hendersonville Rd Ste E,,Arden,NC,28704,US,https://twomoonscbd.com/,8286763223,twomoonscbdsouth@gmail.com,2020-07-20,,Yes,C,CBD,,,
HempLux,1220 E Dixie Dr,,Asheboro,NC,27203,US,,3366820066,hempluxcbd@gmail.com,2021-01-28,,Yes,C,CBD,Yes,,
KMX Vapes - Asheboro,1510-H E Dixie Dr,,Asheboro,NC,27203,US,https://kmxvapes-asheboro.business.site/,3365219739,kmxvapes@gmail.com,2019-10-26,2019-10-26,Yes,V,CBD,Yes,,
NC Glass House,528 E Dixie Dr,,Asheboro,NC,27203,US,,3369532199,,2018-08-06,2019-10-23,,S,,,,
Smoke House Tobacco & Vape Shop,1317 E Dixie Dr,,Asheboro,NC,27203,US,https://smoke-house-tobacco-vape-shop.business.site/,3367343372,,2018-10-27,2018-10-27,Yes,S,CBD,Yes,,
The Backyard Vape Co,405 E Dixie Dr Ste K,,Asheboro,NC,27203,US,,3366280200,,2017-03-18,2019-01-29,,V,,,,
"Tobacco World, Glass & Vape Shop",1222 E Dixie Dr Ste E,,Asheboro,NC,27203,US,http://tobaccoworldasheboro.business.site/,3362333000,tobaccoworld2016@gmail.com,2018-09-20,,Yes,T,CBD,,,
Apotheca - Asheville,3106 Sweeten Creek Rd Unit C,,Asheville,NC,28803,US,https://www.apotheca.org/,8282227242,asheville@apotheca.org,2021-05-03,,Yes,C,CBD,,,
Apotheca - Battery Park,21 Battery Park Ave #23,,Asheville,NC,28801,US,https://www.apotheca.org/,8285053336,hello@apotheca.org,2021-09-14,,Yes,C,CBD,,,
Asheville Dispensary,919 Haywood Rd #111,,Asheville,NC,28806,US,https://avldispensary.com/,8283352696,avldispensary@gmail.com,2020-11-18,,Yes,C,CBD,,,
Asheville Hemp Farms,28 N Lexington Ave,,Asheville,NC,28801,US,https://avlhempfarms.com/,8285054998,ashevillefarms@gmail.com,2020-11-18,,Yes,C,CBD,,,
Asheville Vapor,333 Merrimon Ave,,Asheville,NC,28801,US,http://www.ashevillevapor.com/,8283673333,,2018-08-06,2020-01-11,Yes,V,CBD,,,
Blue Ridge Hemp Co,61 1/2 N Lexington Ave,,Asheville,NC,28801,US,https://blueridgehempco.com/,8283330806,support@blueridgehempco.com,2020-11-21,,Yes,C,CBD,,,
Carolina Hemp Company,290 Haywood Rd,,Asheville,NC,28806,US,,8284384367,support@carolinahempcompany.com,2020-06-23,,Yes,C,CBD,,,
Clover CBD,1129 Patton Ave,,Asheville,NC,28806,US,https://www.clovercbdavl.com/,8284179003,clovercbd@gmail.com,2020-06-25,2020-06-25,Yes,C,CBD,,,
Franny's Farmacy Asheville,211 Merrimon Ave Ste 111,,Asheville,NC,28801,US,https://frannysfarmacy.com/,8285057105,info@frannysfarmacy.com,2019-08-16,2019-11-12,Yes,C,CBD,,,
Hemp Magik,507 Elk Park Dr,,Asheville,NC,28804,US,https://www.hempmagik.com/,8287749317,melissa@hempmagik.com,2021-01-26,,Yes,C,CBD,,,
High Life Smoke Shop Asheville,1067 Patton Ave,,Asheville,NC,28806,US,http://highlifesmoke.com/,8285051558,asheville@highlifesmoke.com,2018-08-09,2019-09-05,Yes,S,CBD,Yes,,
Instant Karma Asheville,36 N Lexington Ave,,Asheville,NC,28801,US,https://instantkarmaasheville.com/,8283018187,contact@instantkarmaasheville.com,2019-12-10,,Yes,H,CBD,Yes,,
Instant Karma West Asheville,725 Haywood Rd Ste 725,,Asheville,NC,28806,US,https://instantkarmaasheville.com/,8282858999,contact@instantkarmaasheville.com,2019-12-10,2019-12-10,Yes,H,CBD,Yes,,
Mary Jane's CBD Dispensary,582 Hendersonville Rd,,Asheville,NC,28803,US,,8283855099,,2018-09-18,2019-09-10,Yes,C,CBD,,,
Neo Tobacco and Vape,152 Bleachery Blvd,,Asheville,NC,28805,US,,8282981700,,2018-10-12,,,S,,,,
Octopus Garden,168 Tunnel Rd,,Asheville,NC,28805,US,http://octopusgardensmokeshops.com/,8287851753,octopusgarden@me.com,2019-06-18,2019-06-18,Yes,S,CBD,Yes,,
Octopus Garden,1269 Tunnel Rd Ste B,,Asheville,NC,28805,US,http://octopusgardensmokeshops.com/,8282998880,octopusgarden@me.com,2018-08-06,2019-06-18,Yes,S,CBD,Yes,,
Octopus Garden,186 Coxe Ave,,Asheville,NC,28801,US,http://octopusgardensmokeshops.com/,8282544980,octopusgarden@me.com,2018-08-06,2019-06-18,Yes,S,CBD,Yes,,
Octopus Garden,1062 Patton Ave,,Asheville,NC,28806,US,http://octopusgardensmokeshops.com/,8282326030,info.octopusgarden@gmail.com,2018-08-06,2021-07-03,Yes,S,CBD,Yes,,
Octopus Garden Smoke Shop,640 Merrimon Ave,,Asheville,NC,28806,US,https://www.octopusgardensmokeshops.com/640-merrimon-ave,8282532883,info.octopusgarden@gmail.com,2021-07-03,2021-08-14,Yes,S,CBD,Yes,,
OG Vapors,1334 Patton Ave Unit 110,,Asheville,NC,28801,US,https://www.ogvapors.co/,8282555152,,2018-08-06,2019-12-30,,V,,,,
OG Vapors,168 Tunnel Rd #20,,Asheville,NC,28805,US,https://www.ogvapors.co,8287851589,,2018-08-06,2019-12-30,,V,,,,
Smoke Rings,5 Miller Rd S,,Asheville,NC,28803,US,,8286762483,,2020-02-20,,Yes,H,CBD,Yes,,
Smoke Rings,770 Patton Ave,,Asheville,NC,28806,US,https://smoke-rings-ash1.business.site/,8285057350,smokeringsash@gmail.com,2019-01-15,,Yes,H,CBD,Yes,,
SunFroot Hemp and CBD Dispensary,30 Battery Park Ave,,Asheville,NC,28801,US,https://www.sunfroot.com/,8285457970,info@sunfroot.com,2020-12-27,2020-12-27,Yes,C,CBD,,,
The Hookah Hook-Up - Asheville,85 Patton Ave,,Asheville,NC,28801,US,http://www.thehookahhookup.net,8282524111,,2018-11-23,2019-11-03,Yes,H,CBD,,,
Tobacco Plus,6 Eagle St,,Asheville,NC,28801,US,,8282540048,,2020-05-23,2020-05-23,Yes,S,CBD,,,
Up N Smoke,85 Tunnel Rd,,Asheville,NC,28805,US,,8285054002,,2019-10-17,,Yes,S,CBD,,,
Vapor World,1550 Hendersonville Rd Ste 108,,Asheville,NC,28803,US,,8287851717,,2018-08-31,2020-03-02,Yes,V,CBD,,,
Vapor World,640 Merrimon Ave Unit 108,,Asheville,NC,28804,US,,8285759016,,2018-08-31,2020-03-02,Yes,V,CBD,,,
Wonderland Asheville,33 Patton Ave,,Asheville,NC,28801,US,,8282255037,wonderland.asheville@gmail.com,2019-01-15,,Yes,H,CBD,,,
The Cosmic Octopus,40530 NC-12,,Avon,NC,27915,US,,2529950566,cosmicoctopusshop@gmail.com,2018-12-25,,Yes,H,CBD,,,
Vape Hatteras,39774 NC-12,,Avon,NC,27915,US,https://www.vapehatteras.com/,2522859706,info@vapehatteras.com,2018-09-18,,Yes,V,CBD,,,
High Country Hemp,10244 NC-105 S,,Banner Elk,NC,28604,US,,8289635959,,2021-02-01,,Yes,C,CBD,,,
Sugar Vapor Co.,110 Sugar Mountain Dr,,Banner Elk,NC,28604,US,http://www.sugarvapor.net/,8283871153,ryoncalhoun@yahoo.com,2018-09-30,2019-11-26,,V,,,,
G-Rock Smoke Shop,7545 NC-48,,Battleboro,NC,27809,US,https://g-rock-smoke-shop.business.site/,2522004768,,2020-12-06,,Yes,S,CBD,Yes,,
Beaufort Smoke Shop,1510 Live Oak St,,Beaufort,NC,28516,US,,2527289922,,2019-07-22,,,S,,,,
Big Daddy Wesley,317 Cedar St,,Beaufort,NC,28516,US,,2528389857,thevapestore.ecigs@yahoo.com,2018-09-24,2021-06-14,,O,,,,
Mellow Vapes Belmont,7005 Wilkinson Blvd Ste K,,Belmont,NC,28012,US,,7042594383,,2022-04-21,2022-04-21,Yes,V,CBD,Yes,,
Roll Your Own Cigarettes Depot,6410 Wilkinson Blvd,,Belmont,NC,28012,US,https://littlecigarwarehouse.com/,7044611353,contact@littlecigarwarehouse.com,2020-02-11,,,S,,,,
337 Nutritionals Hemp & CBD,107 N Lee St,,Benson,NC,27504,US,https://337nutritionals.com,9199023976,,2020-11-14,,Yes,C,CBD,,,
H1 Vape And Kratom Shop,606 W Main St,,Beulaville,NC,28518,US,,9103758169,,2019-04-20,2019-04-20,Yes,S,CBD,Yes,,
SmokeSmart,3497 NC-24,,Beulaville,NC,28518,US,http://www.smokesmartnc.com/,9102984108,,2018-08-06,2019-06-16,Yes,T,CBD,Yes,,
Smoke House Vapes,151 Montgomery Crossing,,Biscoe,NC,27209,US,,9104281655,abdul.bbml@gmail.com,2018-09-14,,Yes,V,CBD,,,
Dark City Vapor,100 WNC Shopping Center Dr,,Black Mountain,NC,28711,US,http://www.darkcityvapor.com/,8283578479,,2014-09-03,2019-04-08,,V,,,,
Trinity Pharms Hemp Co. CBD Dispensary,112 Cherry St #B,,Black Mountain,NC,28711,US,https://www.trinitypharmshempco.com/,8283578295,avlhempsupply@gmail.com,2020-12-15,,Yes,C,CBD,,,
A2Z Tobacco & Vapes,125 New Market Centre,,Boone,NC,28607,US,http://a2z-tobacco-vapes.business.site/,8283866188,a2z.tobacco@gmail.com,2018-06-27,2018-10-12,,T,,,,
Boone Tobacco & Gift,276 Watauga Village Dr Unit I,,Boone,NC,28607,US,,8282640488,,2018-10-14,,,T,,,,
Crazy Smokes,2575 NC-105 #20,,Boone,NC,28607,US,,8283866268,,2018-08-09,2019-09-03,Yes,S,CBD,,,
East Coast Canna Company,475 Blowing Rock Rd Ste 102,,Boone,NC,28607,US,http://www.eastcoastcannacompany.com,8283866110,eastcoastcannacompany@gmail.com,2020-06-19,,Yes,C,CBD,,,
High Country Hemp,118 Appalachian St,,Boone,NC,28607,US,,8283861020,,2021-07-21,,Yes,C,CBD,,,
High Life Smoke Shop Boone,221 Howard St,,Boone,NC,28607,US,,8283559911,,2018-11-02,,,S,,,,
Holistic Health Solutions,244 Shadowline Dr Unit B,,Boone,NC,28607,US,https://hhsboone.com/,8284579441,hhsboone@gmail.com,2021-02-05,,Yes,C,CBD,,,
Homegrown Glass Emporium,1382 NC-105,,Boone,NC,28607,US,,8283864027,,2018-12-23,2019-02-16,Yes,H,CBD,Yes,,
Mellow Vapes Boone,240 Shadowline Dr Unit A6,,Boone,NC,28607,US,,8282660551,,2019-12-29,2019-12-29,Yes,V,CBD,,,
Smoke Rings,1126 Blowing Rock Rd Ste C,,Boone,NC,28607,US,,8282655332,,2019-01-15,2019-01-15,Yes,H,CBD,Yes,,
Smokes 'n More,178 Southgate Dr,,Boone,NC,28607,US,,8282630000,,2020-03-16,,,T,,,,
The High Country Cannabist,2693 NC-105,,Boone,NC,28607,US,https://thehighcountrycannabist.com/,8282659706,thehighcountrycannabist@gmail.com,2021-07-21,2021-07-21,Yes,C,CBD,,,
Asheville Vapor Brevard,267 N Caldwell St,,Brevard,NC,28712,US,https://www.ashevillevapor.com/,8288844300,jeremy@ashevillevapor.com,2019-07-28,,Yes,V,CBD,,,
Brevard Hemp,19 N Caldwell St,,Brevard,NC,28712,US,https://brevardhemp.com/,8288848420,info@brevardhemp.com,2020-11-21,,Yes,C,CBD,,,
Octopus Garden,210 Rosman Hwy Ste C,,Brevard,NC,28712,US,http://octopusgardensmokeshops.com/,8288848796,octopusgarden@me.com,2019-01-15,2019-06-18,Yes,S,CBD,Yes,,
Bryson Vape Shop,291 Everett St,,Bryson City,NC,28713,US,http://bryson-vape-shop.business.site/,8283671112,,2018-06-03,2019-06-19,Yes,V,CBD,Yes,,
Burlington Tobacco & Vapor,3127 Garden Rd,,Burlington,NC,27215,US,,3365844202,,2018-08-06,2019-08-25,,S,,,,
Hemp Oasis,214 W Front St,,Burlington,NC,27215,US,https://www.hempoasisnc.com/,3367926345,hempoasisnc@gmail.com,2021-01-27,,Yes,C,CBD,,,
Prime Tobacco & Vape,2761 S Church St,,Burlington,NC,27215,US,,3362706616,,2021-02-09,,Yes,S,CBD,Yes,,
Purple Peddler,1654 W Webb Ave,,Burlington,NC,27217,US,,3364360166,,2018-12-18,2019-06-19,Yes,H,CBD,,,
Smoke Rings Smoke Shop,2561 S Church St,,Burlington,NC,27215,US,http://smokerings-burlington.business.site/,3362704313,,2020-02-20,,Yes,S,CBD,,,
Stratus Smoke & Vape,3403 S Church St,,Burlington,NC,27215,US,https://smokestratus.com,3363508011,,2019-01-15,2019-01-15,Yes,S,CBD,Yes,,
Foggy Mountain Vapor,56 Stardust Rd,,Burnsville,NC,28714,US,,8286780136,foggymtnvapor@gmail.com,2018-08-06,2019-12-22,Yes,V,CBD,,,
Smoker Friendly,1563 NC-56,,Butner,NC,27509,US,http://smokerfriendly.com/,9195283033,,2020-03-03,,,S,,,,
Calabash Smoke Shop,9970 Beach Dr SW Ste 9,,Calabash,NC,28467,US,,9105757667,,2018-10-15,2019-06-18,Yes,T,CBD,,,
Corner Vapes,10138 Beach Dr SW #6,,Calabash,NC,28467,US,https://cornervapes.ecwid.com/,9105751155,,2015-10-15,2019-04-07,Yes,V,CBD,,,
Darth Vapor Cloud Lounge,9869 Ocean Hwy W #2,,Calabash,NC,28467,US,,9108802388,dvcloudlounge@gmail.com,2016-01-04,2019-04-08,,V,,,,
Your CBD Store,10195 Beach Dr SW #6,,Calabash,NC,28467,US,https://cbdrx4u.com/,9108800029,calabash557@cbdrx4u.com,2020-01-10,2020-12-07,Yes,C,CBD,,,
Appalachian Standard,91 Holbrook Rd,,Candler,NC,28715,US,https://www.apphemp.com/,8285519078,,2020-11-17,,Yes,C,CBD,,,
Asheville Vapor,1109 Smokey Park Hwy,,Candler,NC,28715,US,http://www.ashevillevapor.com/,8286337117,jeremy@ashevillevapor.com,2018-08-06,2020-01-11,Yes,V,CBD,,,
Cigarette Depot At Westridge,45 Westridge Market Pl,,Candler,NC,28715,US,,8286337040,,2019-08-22,2022-02-09,,S,,Yes,,
Natural Remedy,34 New Clyde Hwy,,Canton,NC,28716,US,,8284920988,danielward0421@naturalremedymarket.com,2021-03-05,,Yes,C,CBD,,,
Vape N Puff,716 N Lake Park Blvd Ste 1,,Carolina Beach,NC,28428,US,,9104589911,,2018-09-11,,Yes,V,CBD,Yes,,
Cloud Vapes and Smokes,709 W Rosemary St,,Carrboro,NC,27510,US,https://cloudvapenc.com/,9198697979,,2018-10-19,2018-10-19,,S,,,,
Tobacco Road Outlet,1005 Monroe St,,Carthage,NC,28327,US,http://www.tobaccoroadoutlet.com/,9109471636,,2020-05-25,,,T,,,,
Cloud City CBD & Vape Shop,101 Nottingham Dr,,Cary,NC,27511,US,https://cloud-city-smoke-shop.business.site/,9193880606,,2018-09-24,2020-01-29,Yes,C,CBD,,,
Healing Hemp NC,8450 Chapel Hill Rd Ste 201,,Cary,NC,27513,US,https://www.healinghempnc.com/,9199644205,healinghempnc@gmail.com,2021-01-22,,Yes,C,CBD,,,
Hemp Generation Wellness,124 SW Maynard Rd #A,,Cary,NC,27511,US,https://www.hempgeneration.com/,9193715328,hempgenerationwellness@gmail.com,2021-01-25,,Yes,C,CBD,,,
Reedy Creek Smoke & Vape,902 NE Maynard Rd,,Cary,NC,27513,US,,9196945449,,2018-08-06,2019-11-02,,S,,Yes,,
Smoke For Less,750 E Chatham St #E,,Cary,NC,27511,US,,9194606166,,2020-02-18,,,S,,Yes,,
Smoker's Vape And Tobacco,3450 Kildaire Farm Rd Ste 154,,Cary,NC,27518,US,https://smokers-vape-tobacco-shop.business.site/,9193676520,smokersvapetobacco@gmail.com,2018-11-17,,,S,,Yes,,
The Hemp Boutique Of Cary,247 W Chatham St,,Cary,NC,27511,US,https://hempboutiquecary.com/,9196503807,info@hempboutiquecary.com,2020-07-18,,Yes,C,CBD,,,
The Vape Escape,1258 NW Maynard Rd,,Cary,NC,27513,US,http://www.thevapeescapenc.com/,9194692690,robert@thevapeescapenc.com,2018-09-22,,,V,,,,
Smokers Haven & Beverage Shop,110 E Strawberry Blvd,,Chadbourn,NC,28431,US,,9106541416,,2020-03-12,,Yes,S,CBD,,,
Cannabliss Dispensary,102 S Merritt Mill Rd,,Chapel Hill,NC,27516,US,https://www.cannabliss.store/,9802224419,info@cannabliss.store,2021-04-21,,Yes,C,CBD,,,
Cherry Pie,1819 Fordham Blvd,,Chapel Hill,NC,27514,US,http://www.cherrypieonline.com/,9199280499,thebuzz@cherrypieonline.com,2018-11-13,2019-08-03,,H,,,,
Healing Hemp NC - Chapel Hill,1777 Fordham Blvd Ste 202-6,,Chapel Hill,NC,27514,US,https://www.healinghempnc.com/,8046212668,healinghempnc@gmail.com,2021-01-22,,Yes,C,CBD,,,
High Life - Chapel Hill,316 W Franklin St,,Chapel Hill,NC,27514,US,,9199673666,chapelhill@highlifesmoke.com,2018-08-06,2019-09-25,Yes,S,CBD,Yes,,
Smoke Rings,418 W Franklin St,,Chapel Hill,NC,27516,US,,9195378245,smokeringschapelhill@gmail.com,2019-01-15,,Yes,H,CBD,Yes,,
The Hemp Store - Chapel Hill,115 E Franklin St,,Chapel Hill,NC,27514,US,https://www.thehempstorenc.com/,9192404887,raleigh@thehempstorenc.com,2019-08-18,2019-08-18,Yes,C,CBD,,,
Tobacco Land & Vape Shop,1820 M.L.K. Jr Blvd Ste B-10,,Chapel Hill,NC,27514,US,https://tobacco-land-vape.business.site/,9199039151,,2021-07-21,,Yes,S,CBD,,,
5 Star Tobacco,10720 S Tryon St Ste F,,Charlotte,NC,28273,US,,9808592000,,2022-01-24,2022-01-24,Yes,T,CBD,Yes,,
Albemarle Discount Tobacco,9009 Albemarle Rd,,Charlotte,NC,28227,US,,7045039701,,2019-07-16,,,T,,,,
Aria Smoke Shop,4023 Brookshire Blvd Ste B,,Charlotte,NC,28216,US,https://aria-smoke-shop.business.site/,9804980387,,2021-10-25,,Yes,S,CBD,Yes,,
AVAIL Vapor - Charlotte,8641 South Blvd Ste 100,,Charlotte,NC,28273,US,https://www.availvapor.com/,9802998664,,2018-08-06,2019-06-18,Yes,V,CBD,,,
Blue Flowers CBD,4717 Sharon Rd #2B,,Charlotte,NC,28210,US,https://www.blueflowersnc.com/,7043660405,contactblueflowersnc@gmail.com,2020-11-21,,Yes,C,CBD,,,
Buddha's Bazaar,9124 S Tryon St Ste F,,Charlotte,NC,28273,US,https://www.buddhasbazaar.com/,7045039970,hello@thebuddhasbazaar.com,2018-10-15,2018-10-15,Yes,S,CBD,Yes,,
Carolina Hemp Cabinet,3625 Mt Holly-Huntersville Rd #407,,Charlotte,NC,28216,US,https://www.cbd-kratom.com/,9804301099,carolinahempcabinet@gmail.com,2020-11-23,,Yes,C,CBD,Yes,,
CBD Essentials For All,8424 Old Statesville Rd Ste 400,,Charlotte,NC,28269,US,https://www.cbdefa.com/,9805059100,info@cbdefa.com,2020-11-24,,Yes,C,CBD,,,
CBD Holistic Oil,4241 Branch Bend Ln,,Charlotte,NC,28273,US,https://holistic-cbd-oil.business.site/,7049811178,,2020-11-25,,Yes,C,CBD,,,
Charlotte CBD - Charlotte,2419 Central Ave,,Charlotte,NC,28205,US,https://cltcbd.com/,7044127121,info@cltcbd.com,2020-09-23,,Yes,C,CBD,,,
Cigarettes and More,8328 Pineville Matthews Rd,,Charlotte,NC,28226,US,,7047529195,,2022-02-09,2022-02-09,Yes,S,CBD,,,
Creek Smoke Shop,602 Sugar Creek Rd Ste 6,,Charlotte,NC,28213,US,,9804986866,,2021-10-26,,Yes,S,CBD,,,
Electrik Avenew,2125 N Davidson St,,Charlotte,NC,28205,US,http://www.electrikavenew.com/,9808198385,electrikave2014@gmail.com,2018-09-20,,Yes,V,CBD,,,
Hickory Grove Discount Tobacco,7008 E Wt Harris Blvd Ste 23,,Charlotte,NC,28215,US,,9802019815,,2021-10-26,,,S,,,,
High Life - Central,1525 Central Ave,,Charlotte,NC,28205,US,,7043791400,marketing@highlifesmoke.com,2018-08-06,2019-09-25,Yes,S,CBD,Yes,,
High Life - North Tryon,9605 N Tryon St Ste C,,Charlotte,NC,28262,US,,7047172700,,2018-08-06,2019-09-25,Yes,S,CBD,Yes,,
High Life Smoke Shop - University,10039 University City Blvd Ste J,,Charlotte,NC,28262,US,,7045035433,info@highlifesmokes.com,2019-01-05,2019-04-21,,S,,,,
House of Clouds Smoke Shop,2421 Central Ave,,Charlotte,NC,28205,US,,7049006832,,2021-10-26,,,S,,,,
Infinity's End,7308 E Independence Blvd Ste A,,Charlotte,NC,28227,US,http://www.infinitysend.com/,7045351710,webmaster@infinitysend.com,2019-01-05,,Yes,H,CBD,Yes,,
Infinity's End,5119 South Blvd Ste A,,Charlotte,NC,28205,US,http://www.infinitysend.com/,7043690223,,2019-01-05,2019-01-05,Yes,H,CBD,Yes,,
Infinity's End,8640 University City Blvd,,Charlotte,NC,28213,US,http://www.infinitysend.com/,7042479670,webmaster@infinitysend.com,2019-01-05,,Yes,H,CBD,Yes,,
Kanna CBD,209 W Worthington Ave,,Charlotte,NC,28203,US,https://kannacbd.org/,9802376651,admin@kannacbd.org,2021-05-10,,Yes,C,CBD,,,
Kure CBD and Vape,7340 Smith Corners Blvd Ste 900,,Charlotte,NC,28269,US,https://www.kurevapes.com/pages/kure-cbd-and-vape-charlotte-nc-northlake,7045971581,social@kuresociety.com,2021-06-16,2021-06-16,Yes,V,CBD,,,
Kure CBD and Vape - Arboretum,8042 Providence Rd #1300,,Charlotte,NC,28262,US,https://www.kurevapes.com/,7047692154,kurearbo@outlook.com,2018-08-06,2019-12-28,Yes,V,CBD,,,
Kure CBD and Vape - Ballantyne,14021 Conlan Circle #B8,,Charlotte,NC,28262,US,https://www.kurevapes.com/,7047692704,kureballantyne@outlook.com,2018-08-06,2019-12-28,Yes,V,CBD,,,
Kure CBD and Vape - Montford,1730 Abbey Pl #2,,Charlotte,NC,28209,US,https://www.kurevapes.com/,7047692703,kuremontford@outlook.com,2018-08-06,2019-12-28,Yes,V,CBD,,,
Kure CBD and Vape - NoDa,2424 N Davidson St Ste 109,,Charlotte,NC,28205,US,https://www.kurevapes.com/,7047692153,kurenoda@outlook.com,2018-08-06,2019-12-28,Yes,V,CBD,,,
L.A. Vapors Elite Smoke Shop,702 W Trade St Ste H,,Charlotte,NC,28202,US,http://www.lavaporsclt.com,9809388201,lavaporscharlotte@gmail.com,2018-11-02,,Yes,S,CBD,Yes,,
Matthews Tobacco & Vape,9866 Monroe Rd,,Charlotte,NC,28270,US,,9802562245,,2018-09-09,2020-03-20,Yes,S,CBD,,,
Mitty's CBD & Cannabis Cafe,216 Iverson Way Ste B2,,Charlotte,NC,28203,US,https://mittyscbdcannabiscafe.com,9804741204,mittyscccafe@gmail.com,2021-03-12,,Yes,C,CBD,,,
One Love Smoke Shop and Lifestyle Apparel,1041 Central Ave,,Charlotte,NC,28204,US,https://onelovesmoke.com/,7043350010,onelove@highlifesmoke.com,2019-01-15,,Yes,H,CBD,Yes,,
One Stop Smoke Shop,9630 University City Blvd Ste D,,Charlotte,NC,28213,US,,7044969008,,2018-11-09,,,S,,,,
Private I CBD Boutique,1949 N Sharon Amity Rd,,Charlotte,NC,28205,US,,7045260793,veeraley@gmail.com,2021-02-08,,Yes,C,CBD,,,
Smokers' Depot,9640 S Tryon St,,Charlotte,NC,28273,US,,7045049220,,2021-10-27,,,T,,,,
Smokes N' Stuff,2839 Eastway Dr,,Charlotte,NC,28205,US,https://www.smokesnstuffcharlotte.com/,7045327871,info@smokesanstuff.com,2018-08-06,2019-12-01,Yes,S,CBD,,,
The Hemp Source,3401 South Blvd Ste E,,Charlotte,NC,28209,US,https://thehempsourceusa.com,9806138590,wendell@thehempsourceusa.com,2020-12-16,,Yes,C,CBD,,,
Tobacco & Vapor 6,11524 N Tryon St Ste 3,,Charlotte,NC,28262,US,http://www.charlottevapeshop.com/,7049816343,,2018-09-24,,,T,,,,
Tobacco & Vapor Davis Lake,8517 Davis Lake Pkwy Ste D2,,Charlotte,NC,28269,US,,9804982481,,2019-12-03,,Yes,S,CBD,,,
True Vibes Smoke Shop,4016 Wilkinson Blvd Ste C,,Charlotte,NC,28208,US,,9803551722,,2021-10-28,2021-10-28,Yes,S,CBD,,,
Tryon Tobacco & Vape,7705 S Tryon St Ste C,,Charlotte,NC,28217,US,,9805852658,,2019-05-25,2019-05-25,,S,,,,
Vapor Smoke Shop,1627 Sardis Rd N Ste 4B,,Charlotte,NC,28270,US,https://www.vaporsmokeshop.com/,7048471688,info@vaporsmokeshop.com,2018-08-31,2019-08-17,Yes,S,CBD,Yes,,
Vapor Smoke Shop,16646 Hawfield Way Dr #105,,Charlotte,NC,28277,US,http://www.vaporsmokeshop.com,7045039295,vstvapor@gmail.com,2019-05-28,,Yes,S,CBD,Yes,,
W Harris Tobacco & Vape,3710 W WT Harris Blvd Ste A,,Charlotte,NC,28269,US,,9804986595,,2020-12-18,,,S,,,,
Wilkinson Tobacco & Vapor,3120 Wilkinson Blvd Ste D4,,Charlotte,NC,28208,US,,9808195964,contact@wilkinsontobacco.com,2019-09-17,,,S,,,,
Your Smoke Tobacco Shop,7631 Sharon Lakes Rd Ste M,,Charlotte,NC,28210,US,,9808331430,yoursmoketobaccoshop@gmail.com,2019-08-28,,Yes,S,CBD,,,
Rick Youngblood Smoke Shop 2,833 Tsali Blvd,,Cherokee,NC,28719,US,,8284970178,,2020-02-09,2021-01-31,Yes,T,CBD,,,
Clayton Vapors,884 Gulley Dr,,Clayton,NC,27520,US,,9195531188,,2018-08-06,2020-01-12,Yes,V,CBD,Yes,,
Tobacco Barn Smoke Shop,308 W Main St,,Clayton,NC,27520,US,http://tobaccobarn919.com,9193599720,,2019-06-14,2020-02-18,Yes,S,CBD,,,
"Your CBD Store - Clayton, NC",181 NC-42,,Clayton,NC,27527,US,https://cbdrx4u.com/,9195856603,cbd3507@gmail.com,2019-09-15,2019-09-15,Yes,C,CBD,,,
Clemmons Tobacco Shop BP Gas Station,2500 Lewisville Clemmons Rd,,Clemmons,NC,27012,US,,3368938110,,2020-12-14,,Yes,S,CBD,Yes,,
Khaled Tobacco Shop & Vape,4148 Clemmons Rd,,Clemmons,NC,27012,US,,3366022682,,2021-02-24,,Yes,S,CBD,Yes,,
River Ridge Tobacco Shop & Cigars,1481 River Ridge Dr,,Clemmons,NC,27012,US,,3367663324,,2019-11-04,,Yes,S,CBD,,,
Stadium Tobacco & Vape,6311 Stadium Dr Ste D,,Clemmons,NC,27012,US,http://stadium-tobacco-vape.business.site/,3367781144,,2019-11-28,2019-11-28,Yes,S,CBD,Yes,,
The Dispensary Alternative Care Center,2626 Lewisville-Clemmons Rd,,Clemmons,NC,27012,US,,3363069252,thedispensarync@gmail.com,2020-07-18,,Yes,C,CBD,,,
City Mobile And Tobacco Shop,1501 Sunset Ave #A,,Clinton,NC,28328,US,,9102990905,,2019-08-28,2019-08-28,,S,,,,
Tobacco Road Outlet,1313 Sunset Ave,,Clinton,NC,28328,US,http://www.tobaccoroadoutlet.com/,9105927807,info@tobaccoroadoutlet.com,2020-03-14,,,T,,,,
Queen Of Hearts Vape And Tobacco Shop,7937 Carolina Blvd,,Clyde,NC,28721,US,,8285650016,2brokelocals@gmail.com,2021-02-04,,Yes,S,CBD,,,
Up N Smoke Tobacco And Vapor,64 E Stewart St,,Coats,NC,27521,US,,9108911719,,2019-10-16,2019-10-16,Yes,S,CBD,Yes,,
Inner Banks Apothecary,807 Main St,,Columbia,NC,27925,US,https://ibxapothecary.com/,2489782991,hi@ibxapothecary.com,2021-02-11,2021-03-11,Yes,C,CBD,,,
Commons Tobacco Outlet,80 Concord Commons Pl SW,,Concord,NC,28027,US,,7047860615,,2019-04-02,,,S,,,,
Crowntown Cannabis,119 Country Club Dr NE,,Concord,NC,28025,US,https://crowntowncannabis.com/,7049802420,mike@cltcbd.com,2021-10-08,,Yes,C,CBD,,,
High Life - Concord,349 Copperfield Blvd NE Ste H,,Concord,NC,28025,US,,7047931000,,2018-08-06,2019-09-25,Yes,S,CBD,Yes,,
Kure CBD & Vape,10035 Weddington Rd Ext,,Concord,NC,28027,US,https://www.kurevapes.com/pages/kure-cbd-and-vape-concord-nc-weddington-rd,7049797908,social@kuresociety.com,2021-06-15,2021-06-15,Yes,C,CBD,,,
"My CBD Organics - Concord, NC",549 Winecoff School Rd,,Concord,NC,28027,US,https://www.mycbdorganicsconcord.com/,9807778176,info@mycbdorganicsconcord.com,2021-03-09,2021-03-09,Yes,C,CBD,,,
My Green House CBD,57 Union St S,,Concord,NC,28025,US,https://www.mygreenhousecbd.com/,8664367462,info@mygreenhousecbd.com,2021-03-09,2022-04-19,Yes,C,CBD,,,
Native Ceuticals CBD Concord,10020 Edison Square Dr NW Ste 103-C,,Concord,NC,28027,US,https://nativeceuticals.com/,7049800277,concord@nativeceuticals.com,2020-06-24,,Yes,C,CBD,,,
Piedmont Green,162 Church St NE,,Concord,NC,28025,US,https://www.piedmontgreencbd.com/,7046998805,piedmontgreenllc@gmail.com,2019-10-14,,Yes,C,CBD,,,
World of Hemp,30 Union St S #A,,Concord,NC,28025,US,https://worldofhempnc.com/,7043612196,info@worldofhempnc.com,2020-12-05,,Yes,C,CBD,,,
Barracuda Vapes,508 10th St NW Ste J,,Conover,NC,28613,US,http://www.barracudavapes.com/,8284687675,,2017-12-21,2019-01-20,,V,,,,
Smokin Mirrors,133 4th St Pl SE,,Conover,NC,28613,US,,8282164168,,2018-08-06,2019-12-01,Yes,S,CBD,Yes,,
The Magic Pipe LLC,820 Conover Blvd W Ste E,,Conover,NC,28613,US,,,themagicpipellc@outlook.com,2018-08-06,2021-06-16,Yes,H,CBD,,,
Apotheca - Cornelius,19905 W Catawba Ave Ste 104,,Cornelius,NC,28031,US,,7048971708,,2020-02-27,,Yes,C,CBD,,,
HempLily - Your CBD Oil Source,20124 W Catawba Ave Ste C,,Cornelius,NC,28031,US,https://hemplily.com/,7044485999,info@hemplily.com,2021-01-28,,Yes,C,CBD,,,
High Life Cornelius,19501 W Catawba Ave #B,,Cornelius,NC,28031,US,,7046551455,,2018-08-09,2020-02-03,Yes,S,CBD,Yes,,
Madvapes,18059 W Catawba Ave Ste A,,Cornelius,NC,28031,US,https://www.madvapes.com/,7048976518,,2018-08-06,2019-02-08,,V,,,,
Native Ceuticals CBD Cornelius,19400 Jetton Rd Ste C203,,Cornelius,NC,28031,US,https://nativeceuticals.com/,7046596488,info@nativeceuticals.com,2020-06-24,2020-06-24,Yes,C,CBD,,,
Corolla Wine Cigar Gourmet,794 Sunset Blvd Ste M,,Corolla,NC,27927,US,http://www.corollawinecigar.com/home.htm,2524536048,info@corollawinecigar.com,2019-09-01,,,T,,,,
Freaky Boutiki,815 Ocean Trail Unit C,,Corolla,NC,27927,US,https://surf-sky-inc.business.site/,,,2019-04-15,2020-03-12,Yes,S,CBD,Yes,,
Cramerton Smoke,202 Market St Ste H,,Cramerton,NC,28032,US,https://cramerton-smoke-vape.business.site/,9802029471,,2020-12-18,,Yes,S,CBD,,,
Variety Smoke Store,602 N Durham Ave,,Creedmoor,NC,27522,US,,,,2019-09-29,2019-09-30,Yes,S,CBD,,,
Smoke Shop And Vape Shop,3130 Dallas High Shoals Hwy,,Dallas,NC,28034,US,,7042157400,,2020-02-27,,,S,,,,
Madvapes,11132 Renaissance Dr,,Davidson,NC,28036,US,https://www.vapingdude.com/,7044392145,hello@vapingdude.com,2018-08-06,2019-02-08,Yes,V,CBD,,,
Apotheca - Hwy 16,4359 NC-16 #1,,Denver,NC,28037,US,https://www.apotheca.org/,7048332368,hello@apotheca.org,2022-03-31,2022-03-31,Yes,C,CBD,Yes,,
Apotheca - Pilot Knob Rd,117 N Pilot Knob Rd #104,,Denver,NC,28037,US,https://www.apotheca.org/,7048332369,hello@apotheca.org,2022-03-31,2022-03-31,Yes,C,CBD,Yes,,
Madvapes,751 NC-16 Ste D,,Denver,NC,28037,US,https://www.madvapes.com/,7044898923,support@madvapes.com,2018-09-30,2020-01-02,Yes,V,CBD,Yes,,
VLife CBD,5730 NC-150,,Denver,NC,28037,US,https://vlifecannabis.com/,8446885433,support@vlifecannabis.com,2022-02-11,2022-02-11,Yes,C,CBD,,,
Mar Mac Vape & Tobacco Shop,2339 US-117 Ste B2,,Dudley,NC,28333,US,,9199470062,,2018-09-09,2020-03-20,,V,,,,
421 Vapor & Tobacco,1006 W Cumberland St,,Dunn,NC,28334,US,,9102922201,421vaporandtobacco.com@gmail.com,2019-07-13,,,S,,,,
East Coast Hemp Supply Inc.,114 W Broad St,,Dunn,NC,28334,US,https://www.eastcoasthempsupply.com/,9103041380,keith@eastcoasthempsupply.com,2020-12-26,,Yes,C,CBD,,,
Furwan Tobacco House,1401 W Cumberland St,,Dunn,NC,28334,US,,9103041431,,2020-07-06,2020-07-06,Yes,T,CBD,,,
Tobacco Road Outlet,2310 W Cumberland St,,Dunn,NC,28334,US,http://www.tobaccoroadoutlet.com/,9108974384,info@tobaccoroadoutlet.com,2020-05-24,2020-05-24,,T,,,,
Tobacco Village Outlet,1165 E Cumberland St Ste 116,,Dunn,NC,28334,US,,9108912650,villagetobacco@yahoo.com,2020-02-19,,Yes,S,CBD,,,
Aj Tobacco and Vape,3825 S Roxboro St #117,,Durham,NC,27713,US,,9195443100,,2020-01-17,,Yes,S,CBD,,,
Bull City Dispensary,3808 Guess Rd Ste D,,Durham,NC,27705,US,,9842447531,,2022-03-29,2022-03-29,Yes,C,CBD,,,
Carolina Hemp Hut,4600 Durham-Chapel Hill Blvd Ste 21,,Durham,NC,27707,US,https://carolinahemphut.com/,8554367645,dave@carolinahemphut.com,2020-11-23,,Yes,C,CBD,,,
Cloud Vape Lounge,5410 NC-55 Ste S,,Durham,NC,27713,US,https://cloudvapenc.com,9193610257,,2018-06-18,2019-06-27,Yes,V,CBD,,,
Durham Tobacco Mart,3405 Hillsborough Rd Ste A3,,Durham,NC,27705,US,,9199732975,,2020-04-17,,,S,,,,
Durham Vape Shop and Lounge,4422 N Roxboro Rd Ste A,,Durham,NC,27704,US,https://www.durhamvapelounge.com/,9198086865,durhamvape@gmail.com,2018-08-09,2020-02-03,Yes,V,CBD,Yes,,
Emerald Medicine Company,1921 N Pointe Dr Ste 110,,Durham,NC,27705,US,https://emeraldmedco.com/,9192372014,emeraldmedicineco@gmail.com,2020-07-01,,Yes,C,CBD,,,
Haven Smoke & Vape,1804 N Pointe Dr Ste E,,Durham,NC,27705,US,,9844392536,,2019-11-27,,Yes,S,CBD,Yes,,
Haven Smokes & Ecigs,4201 University Dr Ste 106,,Durham,NC,27707,US,,9194018994,havenvapors@gmail.com,2018-09-30,,,T,,,,
Heal Tree CBD,417 Foster St Unit 3,,Durham,NC,27701,US,https://www.healtreecbd.com/,9192131767,healtreecbd@gmail.com,2021-01-22,,Yes,C,CBD,,,
Hunky Dory,718 9th Street,,Durham,NC,27705,US,http://hunkydorydurham.com/,9192861916,hunkydorydurham@gmail.com,2018-11-06,,Yes,H,CBD,,,
I C Tobacco & Vape,5300 N Roxboro St Ste B,,Durham,NC,27712,US,,9192518995,,2018-08-09,2019-06-05,Yes,S,CBD,Yes,,
Kibou Botanicals,2635 Durham-Chapel Hill Blvd #B,,Durham,NC,27707,US,https://www.kiboubotanicals.com/,9199731010,,2021-02-24,,Yes,C,CBD,Yes,,
Moory Tobacco Outlet,4815 NC-55,,Durham,NC,27713,US,https://moorytobaccooutlet.business.site/,9192480888,,2019-05-03,,,S,,,,
New Hope Tobacco And Vape Shop,5324 New Hope Commons Blvd #5,,Durham,NC,27707,US,,9844391926,,2021-07-21,,Yes,S,CBD,,,
Noor Tobacco World,121 Sherron Rd #107,,Durham,NC,27703,US,,9195962323,,2020-01-29,,,S,,,,
Persessi Hemp Boutique,714 9th St Ste 102,,Durham,NC,27705,US,https://www.persessihemp.com/,2402654130,tori.ingram@persessi.com,2021-02-11,,Yes,C,CBD,,,
Robert's Country Store,602 Sherron Rd,,Durham,NC,27703,US,,9195969949,,2018-12-05,,,S,,,,
RTP Vapor,1920 NC-54 #50B,,Durham,NC,27713,US,http://rtpvapor.com/,9193167932,info@rtpvapor.com,2018-08-06,2020-01-01,Yes,V,CBD,,,
Smoke Rings Smoke Shop,758 9th St,,Durham,NC,27705,US,,9848880223,smokeringsgreensboro@gmail.com,2021-07-21,2021-07-21,Yes,S,CBD,,,
The Hemptender,1920 NC-54 #50,,Durham,NC,27713,US,,9848885188,,2019-08-14,,Yes,C,CBD,,,
The Tobacco HotSpot,2806 Guess Rd,,Durham,NC,27705,US,,9199086628,,2018-11-03,,,S,,,,
TJ Smokes,4900 NC-55 #170,,Durham,NC,27713,US,https://www.tjsmokesnc.com/,9842192890,tjsmokes@yahoo.com,2020-08-27,2020-08-27,Yes,S,CBD,Yes,,
Tobacco Land,908 Fayetteville St #104,,Durham,NC,27701,US,http://tobacco-land-tobacco-shop.business.site/,9194099666,,2019-12-14,2019-12-14,Yes,S,CBD,,,
United Tobacco And Vapor,1000 N Miami Blvd Ste 105,,Durham,NC,27703,US,http://united-tobacco-and-vapor.business.site/,9196808006,,2019-11-04,,,T,,Yes,,
VIP Tobacco And Vape,3600 Hillsborough Road Ste B,,Durham,NC,27705,US,,9197970050,,2020-02-09,,Yes,S,CBD,Yes,,
Vapes n Smokes,660 S Pierce St Ste P,,Eden,NC,27288,US,,3366236001,,2018-10-18,2019-02-18,,S,,,,
Capitol Smoke Elizabeth City,409 W Ehringhaus St,,Elizabeth City,NC,27909,US,https://capitolsmoke.com,2523317024,ecnc@capitolsmoke.com,2019-11-23,2022-03-21,Yes,S,CBD,Yes,,
Coastal Carolina Cannabis Center,1545 N Road St Ste B,,Elizabeth City,NC,27909,US,https://www.coastalcarolinacannabiscenter.com/,2525626519,service@coastalcarolinacannabiscenter.com,2020-12-15,2021-11-02,Yes,C,CBD,,,
Discount Tobacco Shop & Wireless,900 W Ehringhaus St,,Elizabeth City,NC,27909,US,,2523317660,,2019-10-20,,Yes,S,CBD,Yes,,
"Ecity Vapes, Tobacco & Wireless",1501 W Ehringhaus St,,Elizabeth City,NC,27909,US,,2523317777,ecityvapes@outlook.com,2018-08-06,2020-01-13,,V,,,,
Ehringhaus Smoke Shop & Conv,300 E Ehringhaus St,,Elizabeth City,NC,27909,US,,2523317773,,2019-10-24,,,T,,,,
Just Blowin Steam Vape Shop & Lounge,406 S Griffin St Ste H,,Elizabeth City,NC,27909,US,http://www.justblowinsteam.com/,2525626557,justblowinsteam15@yahoo.com,2018-09-30,,Yes,V,CBD,,,
Happy Vapors & Tobacco,1107 W Broad St,,Elizabethtown,NC,28337,US,,9108622228,,2019-11-23,,Yes,S,CBD,,,
Tobacco Road Outlet,300 S Poplar St,,Elizabethtown,NC,28337,US,http://www.tobaccoroadoutlet.com/,9108623055,,2020-05-25,,,T,,,,
Puffs of Elkin,950 N Bridge St,,Elkin,NC,28621,US,,3365260008,puffsofelkin@gmail.com,2021-02-07,,Yes,S,CBD,,,
Yadkin Valley Hemp,225 E Main St,,Elkin,NC,28621,US,https://akextract.com/,3362588330,nick@akextract.com,2020-12-05,,Yes,C,CBD,,,
Appalachian CBD,775 Charlotte Hwy,,Fairview,NC,28730,US,https://appalachiancbdllc.com/,8283380039,appalachiancbd73@gmail.com,2020-11-17,,Yes,C,CBD,,,
AVAIL Vapor,2065 Skibo Rd,,Fayetteville,NC,28314,US,https://www.availvapor.com/,9108677787,custservice@availvapor.com,2018-08-06,2020-01-23,Yes,V,CBD,,,
AVAIL Vapor - Ramsey,3624 Ramsey St,,Fayetteville,NC,28311,US,https://www.availvapor.com,9104883814,custservice@availvapor.com,2018-08-06,2019-06-18,Yes,V,CBD,,,
Broad River Hemp Company,102 Robeson St,,Fayetteville,NC,28301,US,https://www.broadriverhemp.com/,9109201019,fayetteville@broadriverhemp.com,2020-06-22,2020-06-22,Yes,C,CBD,,,
Cliffdale Mart Vape and Tobacco,8200 Cliffdale Rd,,Fayetteville,NC,28314,US,,9108648152,,2019-03-29,,,S,,,,
Cloud Chasers,991 Old McPherson Church Rd,,Fayetteville,NC,28304,US,,9103390040,cloudchasersllc@hotmail.com,2018-10-16,2019-02-10,,V,,,,
Cloud City Vapors - Fayetteville,512 S Reilly Rd Ste B,,Fayetteville,NC,28314,US,https://www.cloudcityvapesnc.com/,9104915520,cloudcityvapesnc@gmail.com,2014-09-08,2019-03-31,Yes,V,CBD,,,
"Funky Junk, LLC",672-3 S Reilly Rd,,Fayetteville,NC,28314,US,,9108682683,funkyjunkhipster@gmail.com,2018-07-25,2019-05-16,Yes,S,CBD,Yes,,
J&M Vapor,314 E Russell St,,Fayetteville,NC,28301,US,https://www.jmvaporshop.com/,9104838040,johna@jmvaporshop.com,2018-09-30,2019-08-13,,V,,,,
Karma Culture,2180 Skibo Rd Ste B,,Fayetteville,NC,28314,US,http://karmaculture.tumblr.com/,9102292458,karmaculture@hotmail.com,2018-10-29,,Yes,H,CBD,,,
Karma Culture Market,3611 Sycamore Dairy Rd,,Fayetteville,NC,28303,US,,9109204242,thecultofkarma@hotmail.com,2019-01-05,,Yes,H,CBD,Yes,,
MadVapes Yadkin Rd,4717 Yadkin Rd,,Fayetteville,NC,28303,US,http://madvapes.com,9103392033,,2014-09-04,2019-05-10,,V,,,,
My Smoke & Vape,8175 Cliffdale Rd #104,,Fayetteville,NC,28314,US,http://my-smoke-vape.business.site/,9105003090,,2020-01-17,,,S,,,,
RJ Tobacco Mart,407 Hope Mills Rd,,Fayetteville,NC,28304,US,,9104251750,,2020-02-10,2020-02-10,,T,,,,
Sanaa Tobacco & Vape & Kratom & Wireless Shop,6107 Yadkin Rd,,Fayetteville,NC,28303,US,,9108640480,,2020-01-22,2021-06-07,Yes,S,CBD,,,
Sexy By Nature,2731 Bragg Blvd,,Fayetteville,NC,28303,US,http://www.sexybynature.com/,283039103391673,info@sexybynature.com,2019-12-23,2019-12-23,,O,,,,
Smoke -N- Vape,4774 Yadkin Rd Ste A,,Fayetteville,NC,28303,US,,9104918713,,2018-08-06,2018-11-13,,S,,,,
Smoke Plus Mini Mart,1815 Ramsey St,,Fayetteville,NC,28301,US,,9104887463,,2020-02-20,,,S,,,,
Smoke Shop & More,404 Santa Fe Dr Ste 106,,Fayetteville,NC,28303,US,,9104230045,,2019-09-24,2021-03-26,Yes,S,CBD,Yes,,
Snack Attack Food Mart,2916 Bragg Blvd,,Fayetteville,NC,28303,US,,9105684972,,2020-03-25,,,T,,,,
"TGI Hemp, Inc.",5540 Camden Rd #102,,Fayetteville,NC,28306,US,,9106007927,tgihemp@gmail.com,2020-12-22,,Yes,C,CBD,,,
TGI Vape,3350 Footbridge Ln #125,,Fayetteville,NC,28306,US,,9104241066,tgi2019inc@gmail.com,2018-08-06,2020-01-02,Yes,V,CBD,,,
The CBD Spot,5157 Bragg Blvd,,Fayetteville,NC,28303,US,,4437968639,thecbdspot@outlook.com,2021-08-25,,Yes,C,CBD,,,
The Great Vape Escape,2622 Hope Mills Rd Ste 112,,Fayetteville,NC,28306,US,,9104260086,thegve.2622.mr@gmail.com,2019-05-20,,,V,,,,
The Hemp Farmacy - Fayetteville,123 Person St,,Fayetteville,NC,28301,US,https://hempfarmacy.us/,9104912363,marketing@hempfarmacy.us,2020-01-13,2020-01-13,Yes,C,CBD,,,
Tobacco & Vape,2800 Gillespie St #106,,Fayetteville,NC,28306,US,http://tobacco-vape.business.site/,9102231072,,2018-09-24,,,T,,,,
Tobacco & Vapor,7707 S Raeford Rd,,Fayetteville,NC,28304,US,,9108601500,,2019-12-03,,,T,,,,
Tobacco Hut,155 Bonanza Dr #107,,Fayetteville,NC,28303,US,,9102230322,,2020-07-07,,Yes,S,CBD,Yes,,
Tobacco Road Outlet,2718 Bragg Blvd,,Fayetteville,NC,28303,US,http://tobaccoroadoutlet.com/,9104839695,,2020-05-25,,,T,,,,
Tobacco Road Outlet,590 Cedar Creek Rd #112,,Fayetteville,NC,28312,US,http://www.tobaccoroadoutlet.com/,9104841443,info@tobaccoroadoutlet.com,2020-03-14,,,T,,,,
Tobacco Road Outlet,3300 Rosehill Rd,,Fayetteville,NC,28311,US,http://www.tobaccoroadoutlet.com/,9104801525,,2020-05-25,,,T,,,,
Vapoz Life,5131 Raeford Rd,,Fayetteville,NC,28304,US,,9105685724,vaporlifeusa2016@gmail.com,2019-06-04,,Yes,V,CBD,,,
VIP Smoke Shop,6411 Yadkin Rd,,Fayetteville,NC,28303,US,,9104917766,,2019-06-06,,,S,,Yes,,
"Your CBD Store - Fayetteville, NC",2637 Raeford Rd,,Fayetteville,NC,28303,US,https://cbdrx4u.com/,9103913609,fayettevillenc@cbdrx4u.com,2019-09-15,2019-09-15,Yes,C,CBD,,,
CBD and More,5360 Hendersonville Rd Ste 117,,Fletcher,NC,28732,US,https://www.cbdandmorecompany.com/,8283371597,kingreinhardt828@gmail.com,2020-11-23,,Yes,C,CBD,,,
Discount Vape & Smoke,3877 Hendersonville Rd,,Fletcher,NC,28732,US,,8284836153,,2022-05-09,2022-05-09,Yes,S,CBD,Yes,,
High Roasters,5360 Hendersonville Rd Unit 161,,Fletcher,NC,28732,US,https://www.highroasterswnc.com/,8287827408,sales@highroasterswnc.com,2021-02-03,2021-02-03,Yes,C,CBD,,,
New Life Apothecary,3747 Hendersonville Rd,,Fletcher,NC,28732,US,https://groveappalachia.com/,8287071850,mgmarketing49@gmail.com,2021-02-28,,Yes,C,CBD,,,
Franklin Tobacco & Vape,129 Commons Dr,,Franklin,NC,28734,US,,8285249770,,2021-01-06,,,T,,,,
Mountain Provisions - Carolina Hemp Company,98 W Palmer St,,Franklin,NC,28734,US,,8283493310,mountainprovisions@mindspring.com,2021-10-09,2021-10-09,Yes,C,CBD,,,
Smoky Mtn Vapors,214 Sloan Rd,,Franklin,NC,28734,US,,8285241848,mtnvapors@icloud.com,2019-10-14,2019-10-14,,V,,,,
The Pied Piper of Franklin,217 Highlands Rd,,Franklin,NC,28734,US,,8284219317,piedpiperfranklin@gmail.com,2018-11-17,,Yes,H,CBD,,,
Where There's Smoke,601 W Palmer St,,Franklin,NC,28734,US,https://where-theres-smoke.business.site/,7723411579,wheretheressmoke828@gmail.com,2020-12-11,,Yes,S,CBD,,,
Tobacco Shop,3384 US-1,,Franklinton,NC,27525,US,,9194942600,,2020-03-03,,Yes,S,CBD,Yes,,
The Holistic Co.,108 E Main St,,Fremont,NC,27830,US,https://www.theholisticco.com/,9197094359,info@theholisticco.com,2020-12-05,2020-12-05,Yes,C,CBD,,,
10-10 Tobacco & Vapor,8109 Fayetteville Rd Ste 117,,Fuquay Varina,NC,27603,US,,9197730454,,2018-06-03,2018-10-12,,S,,,,
B's Tobacco,1003 E Broad St,,Fuquay Varina,NC,27526,US,,9195528557,,2018-10-14,,,T,,,,
"Good Guy Vapes, CBD & Glass - Fuquay Varina",2908 N Main St Ste 104,,Fuquay Varina,NC,27526,US,http://www.goodguyvapes.com/,9842254038,info@goodguyvapes.com,2019-11-13,2019-11-13,Yes,V,CBD,,,
Tobacco Road Outlet,1328 N Main St,,Fuquay Varina,NC,27526,US,http://www.tobaccoroadoutlet.com/,9195771075,,2020-05-25,2020-05-25,Yes,S,CBD,Yes,,
4042 Vapor,5176 NC-42 W,,Garner,NC,27529,US,,9193074031,42hemp@gmail.com,2014-09-21,2019-02-15,Yes,V,CBD,,,
42 Hemp Shop Inc,5176 NC-42 Ste M,,Garner,NC,27529,US,,9842004414,,2020-11-15,,Yes,S,CBD,,,
5th Ave Tobacco & Vapor,1350 5th Ave #150,,Garner,NC,27529,US,,9193078890,,2019-07-13,2019-07-13,Yes,S,CBD,Yes,,
A1 Vapor & Tobacco,69 Glen Rd,,Garner,NC,27529,US,http://www.a1vaporandtobacco.com/,9197605055,a1vaporandtobacco@gmail.com,2018-06-27,2018-10-12,,S,,,,
Misty Mountain Vapors,86 Technology Dr,,Garner,NC,27529,US,https://www.mistymountainvapors.com/main.sc,9192620894,amanda@mistymountainvapors.com,2018-08-06,2019-12-29,Yes,V,CBD,,,
Smoke Rings,106 Bratton Dr Unit 4,,Garner,NC,27529,US,,9193078942,,2020-02-20,,Yes,H,CBD,Yes,,
Smoker Friendly,5568 NC-42,,Garner,NC,27529,US,http://www.smokerfriendly.com/,9197730300,,2020-03-05,,,T,,,,
Tobacco & Vape Land,1855 Aversboro Rd,,Garner,NC,27529,US,https://website--6197858463812163148254-tobaccoshop.business.site/,9197739202,alsaidinc@gmail.com,2018-11-02,,,S,,Yes,,
Backporch Dispensary,4007 S New Hope Rd,,Gastonia,NC,28056,US,https://www.backporchdispensary.com/,7049147185,backporchdispensary@gmail.com,2020-11-19,,Yes,C,CBD,,,
Buddha's Bazaar,4027 E Franklin Blvd,,Gastonia,NC,28056,US,https://www.buddhasbazaar.com/,7048797128,patrick@buddhasbazaar.com,2018-10-15,2018-10-15,Yes,S,CBD,Yes,,
Carolina CBD Hempire,4902 Wilkinson Blvd Ste E,,Gastonia,NC,28032,US,https://carolinacbdhempire.com/,7048799535,carolinacbdhempire@gmail.com,2020-11-23,2020-11-23,Yes,C,CBD,,,
High Life - Gastonia,1423 E Franklin Blvd,,Gastonia,NC,28054,US,,7048664141,,2018-08-06,2019-09-25,Yes,S,CBD,Yes,,
Kure CBD and Vape - Gastonia,3900 E Franklin Blvd Ste E100,,Gastonia,NC,28054,US,https://www.kurevapes.com/,7047692152,kuregastonia@outlook.com,2018-08-06,2019-12-28,Yes,V,CBD,,,
Smoke Depot,117 N Myrtle School Rd,,Gastonia,NC,28052,US,,9803201018,,2020-02-18,2020-05-01,,S,,,,
The Happy Shack Smoke Shop,4322 Wilkinson Blvd,,Gastonia,NC,28056,US,https://happyshack.business.site/,9808338053,,2018-12-17,,Yes,S,CBD,Yes,,
Black Dragon's Rock & Roll Shp,3627 E Ash St,,Goldsboro,NC,27534,US,,9197787491,,2019-07-25,,,H,,,,
CBD American Shaman - Goldsboro,2138 Wayne Memorial Dr,,Goldsboro,NC,27534,US,https://cbdamericanshaman.com/,9199470117,store@goldsboroamericanshaman.com,2019-11-08,,Yes,C,CBD,,,
Fast Trip Tobacco,600 N William St,,Goldsboro,NC,27530,US,,9197312911,,2019-11-27,,,S,,,,
High Life Tobacco And Vape CBD Hemp,1807 E Ash St,,Goldsboro,NC,27530,US,,9199476008,goldsborotobacco@gmail.com,2021-02-02,,Yes,S,CBD,,,
The K Spot 4.0,2303 E Ash St,,Goldsboro,NC,27534,US,https://www.the-kspot.com/,9199889112,,2020-12-03,,Yes,C,CBD,Yes,,
Tobacco & Vape III,2914 US-70,,Goldsboro,NC,27530,US,,9193304493,,2018-09-24,,,T,,,,
Tobacco and Hops,112 W Chestnut St,,Goldsboro,NC,27530,US,https://www.tobaccoandhops.com/,9192881166,info@tobaccoandhops.com,2019-04-15,2019-04-15,,T,,,,
Tobacco and Vape Station,906 N Spence Ave,,Goldsboro,NC,27534,US,,9197788377,,2018-09-24,,,T,,,,
Vapor Plus,2605 Royall Ave,,Goldsboro,NC,27534,US,,9195835868,,2018-08-31,2020-03-02,Yes,V,CBD,,,
World Of Vapor,1809 N Berkeley Blvd Ste D,,Goldsboro,NC,27534,US,,9195835858,,2019-06-07,,,V,,,,
Cigarette Store,921 S Main St Ste J,,Graham,NC,27253,US,,3362292777,,2019-09-05,,,T,,,,
Purple Peddler,4833 NC-87,,Graham,NC,27253,US,,3363766116,,2019-06-19,,Yes,H,CBD,,,
The Wick And Coil Vape Shop,202 S Main St Ste B,,Graham,NC,27253,US,,3366934753,,2018-09-24,,,V,,,,
Barracuda Vapes,243 River Bend Dr,,Granite Falls,NC,28630,US,http://www.barracudavapes.com/,8284961003,,2015-04-09,2019-05-10,,V,,,,
Smoker Friendly,31 Pinewood Plaza Dr,,Granite Falls,NC,28630,US,http://smokerfriendly.com/,8283139300,,2019-11-23,,,S,,,,
A&D Vapors,2915 Battleground Ave Ste L,,Greensboro,NC,27408,US,,3367635833,justin@advapors.com,2018-08-09,2020-02-03,Yes,V,CBD,Yes,,
A&D Vapors,4131 Spring Garden St Ste A,,Greensboro,NC,27407,US,,3367632799,amber@advapors.com,2018-08-09,2020-02-03,Yes,V,CBD,Yes,,
AN Tobacco & Vapes,2207 Fleming Rd,,Greensboro,NC,27410,US,,3367633377,antobacco2207@gmail.com,2018-08-06,2019-08-01,,S,,,,
Apotheca - Greensboro,2601 Battleground Ave Ste B,,Greensboro,NC,27408,US,https://apotheca.org/,3362824477,hello@apotheca.org,2019-10-05,2019-10-05,Yes,C,CBD,Yes,,
Apotheca - UNC Greensboro,1827 Spring Garden St #A,,Greensboro,NC,27403,US,,3362857516,uncg@apotheca.org,2021-11-12,2021-11-12,Yes,S,CBD,Yes,,
Charlie's Tobacco Outlet,3720 Battleground Ave,,Greensboro,NC,27410,US,,3365400555,,2018-10-15,,,T,,,,
Charlie's Tobacco Outlet,5607 W Friendly Ave #P,,Greensboro,NC,27410,US,,3366173638,,2018-10-15,2019-08-02,,T,,,,
Charlie's Tobacco Outlet,254 Four Seasons Town Ctr,,Greensboro,NC,27407,US,,3368560701,,2019-08-02,,,T,,,,
Cloud 9 Smoke Shop,803 W Gate City Blvd,,Greensboro,NC,27403,US,http://cloud9smokeshop-tobaccoshop.business.site/,3366170070,cloud9shop2018@gmail.com,2019-08-26,2019-08-26,Yes,S,CBD,Yes,,
Clouds Tobacco 1,2040 Rankin Mill Rd #G,,Greensboro,NC,27405,US,,3366631563,,2018-10-20,2019-08-27,Yes,S,CBD,Yes,,
Clouds Tobacco 2,3706 Elmsley Ct Ste 104,,Greensboro,NC,27406,US,,3366631563,cloudstobacco2@gmail.com,2019-08-27,,Yes,S,CBD,Yes,,
Dragon Seed,316 Four Seasons Town Ctr,,Greensboro,NC,27407,US,,3362949779,,2018-12-15,,,H,,,,
EZ Tobacco & Vapor Shop,1031 Alamance Church Rd,,Greensboro,NC,27406,US,,3367631972,,2019-10-29,,,S,,,,
Foggy Zone Tobacco & Vape,1622 Stanley Rd Ste 104,,Greensboro,NC,27407,US,http://foggyzone.com/,3368339003,,2018-12-06,2020-01-29,,S,,,,
Glass City Smoke Shop,2509 Battleground Ave,,Greensboro,NC,27408,US,http://glasscitygso.com/,3367636212,glasscitygso@gmail.com,2018-08-09,2020-02-03,Yes,S,CBD,Yes,,
Glass City Smoke Shop,1719 Spring Garden St,,Greensboro,NC,27403,US,http://glasscitygso.com/,3368085067,glasscitygso@gmail.com,2018-08-09,2020-02-03,Yes,S,CBD,Yes,,
Glass City Smoke Shop,807 S Holden Rd,,Greensboro,NC,27407,US,http://glasscitygso.com/,3363559214,glasscitygso@gmail.com,2021-07-21,2021-07-21,Yes,S,CBD,Yes,,
Glass City Smoke Shop,3921 Burlington Rd,,Greensboro,NC,27405,US,http://glasscitygso.com/,3362858055,glasscitygso@gmail.com,2021-07-21,2021-07-21,Yes,S,CBD,Yes,,
Glass City Smoke Shop,3819 W Gate City Blvd,,Greensboro,NC,27407,US,http://glasscitygso.com/,3367636000,glasscitygso@gmail.com,2021-07-21,2021-07-21,Yes,S,CBD,Yes,,
Glass City Smoke Shop,3900 Battleground Ave Unit C,,Greensboro,NC,27410,US,http://glasscitygso.com/,3369074678,glasscitygso@gmail.com,2021-07-21,2021-08-14,Yes,S,CBD,Yes,,
Glass City Smoke Shop,5812 W Gate City Blvd Unit B,,Greensboro,NC,27407,US,http://glasscitygso.com/,3367632349,glasscitygso@gmail.com,2021-07-21,2021-07-21,Yes,S,CBD,Yes,,
Glass City Smoke Shop,1708 Stanley Rd Unit C,,Greensboro,NC,27407,US,http://glasscitygso.com/,3362857789,glasscitygso@gmail.com,2021-07-21,2021-07-21,Yes,S,CBD,Yes,,
Greensboro Tobacco and Vapes,4405 Landview Dr,,Greensboro,NC,27407,US,,3368085475,,2019-11-20,,Yes,T,CBD,Yes,,
Hemp House CBD & Kratom,5700 W Market St Unit D,,Greensboro,NC,27410,US,,3369074585,,2021-01-26,,Yes,C,CBD,Yes,,
Hemp Rx,3741 Battleground Ave #C,,Greensboro,NC,27410,US,https://hemp-xr.com/,3362856104,hemprxgso@gmail.com,2020-07-04,,Yes,C,CBD,,,
Hemp XR & CBD,2138 Lawndale Dr #B,,Greensboro,NC,27408,US,https://hemp-xr.com/,3367630034,hemprxgso@gmail.com,2020-07-04,,Yes,C,CBD,,,
HempLux,2711 Battleground Ave,,Greensboro,NC,27408,US,,3367639007,hempluxcbd@gmail.com,2021-01-28,,Yes,C,CBD,Yes,,
HoodRich Smoke Shop,618 N English St,,Greensboro,NC,27405,US,https://hoodrichx.com/,3365008814,hoodrichsmokeshop@gmail.com,2019-12-03,2019-12-03,Yes,S,CBD,Yes,,
Lawndale Smoke & Vape,4414 Lawndale Dr Ste A,,Greensboro,NC,27455,US,,3365420335,,2018-10-28,,Yes,S,CBD,,,
Madvapes Wendover Ave,4215 W Wendover Ave Ste I,,Greensboro,NC,27407,US,https://www.madvapes.com/,3366176725,support@madvapes.com,2018-08-06,2019-12-29,,V,,,,
N C Tobacco,1000 Summit Ave,,Greensboro,NC,27405,US,,3362738422,,2020-01-24,,,S,,,,
Petra Hookah Vape & Lounge,4616 W Market St StenA,,Greensboro,NC,27407,US,https://petrahookahvapeandlounge.business.site/,3368544616,petrahookah1@yahoo.com,2019-05-07,,,V,,,,
Smoke House,3808 W Gate City Blvd,,Greensboro,NC,27407,US,,3362982662,,2018-08-06,2019-06-16,Yes,S,CBD,Yes,,
Smoke House,427 W Meadowview Rd,,Greensboro,NC,27406,US,,,,2020-02-18,,Yes,S,CBD,,,
Smoke House Greensboro,2105 Pyramids Village Blvd,,Greensboro,NC,27405,US,,3367728345,,2019-01-15,2019-01-15,Yes,S,CBD,Yes,,
Smoke Rings,2511 Battleground Ave Ste C,,Greensboro,NC,27408,US,,3362888288,,2019-01-15,2019-01-15,Yes,H,CBD,Yes,,
Smokers Choice,2932 Randleman Rd,,Greensboro,NC,27406,US,http://www.smokerschoiceusa.com/,3367637964,,2020-03-08,,,T,,,,
Smokey Shay's,2416 Spring Garden St Ste B,,Greensboro,NC,27403,US,http://www.smokeyshays.com,3366765491,smokeyshays@hotmail.com,2019-01-15,,Yes,S,CBD,Yes,,
The Refinery Vaping Company,423 S Eugene Ct,,Greensboro,NC,27401,US,http://www.therefineryvapingcompany.com/,3365420013,,2018-08-06,2020-01-02,Yes,V,CBD,,,
The Vape Emporium,803 W Gate City Blvd Ste A,,Greensboro,NC,27403,US,,3366170070,thevapeemporium@gmail.com,2018-08-06,2021-06-12,,V,,,,
Valiant Vapors,1742 Battleground Ave,,Greensboro,NC,27408,US,http://www.valiantvapors.com/,3363335234,valiantvapors1@gmail.com,2018-09-20,,Yes,V,CBD,,,
Your CBD Store,1059 E Lindsay St,,Greensboro,NC,27405,US,https://cbdrx4u.com,3366176007,,2020-12-06,,Yes,C,CBD,,,
252 Smoke Shop,3010 E 10th St,,Greenville,NC,27858,US,,2527522020,,2018-06-27,2022-02-28,Yes,S,CBD,,,
Cloud 9 Vapor,240 Greenville Blvd SW Ste B,,Greenville,NC,27858,US,,2527569001,administrator@cloud9nc.net,2018-08-06,2020-01-12,Yes,V,CBD,,,
E & S Hemp Company,675 W Fire Tower Rd Ste D,,Greenville,NC,28590,US,http://www.eshempcompany.com,2526896054,medmundson@eshempcompany.com,2020-06-27,,Yes,C,CBD,,,
Hemp Garden CBD Greenville,3040 S Evans St #122,,Greenville,NC,27834,US,https://www.hempgarden.com/,2527562233,matt@hempgarden.com,2021-01-25,,Yes,C,CBD,,,
High Life - Greenville,424 Evans St,,Greenville,NC,27858,US,,2523218700,greenville@highlifesmoke.com,2018-08-06,2019-09-25,Yes,S,CBD,Yes,,
MadVapes Greenville,1913 E Fire Tower Rd Ste B,,Greenville,NC,27858,US,,2523558273,justin@madvapesgreenville.com,2018-09-09,2020-03-20,Yes,V,CBD,,,
NC Tobacco Shop,1400 Charles Blvd Ste 160,,Greenville,NC,27858,US,,2522151020,,2019-09-09,,Yes,S,CBD,,,
The Big Vape Theory,2800 E 10th St Ste 102,,Greenville,NC,27858,US,https://thebigvapetheory.com/,2526896021,thebigvapetheory@gmail.com,2018-08-06,2020-01-02,Yes,V,CBD,,,
Vape MD,4320 E 10th St,,Greenville,NC,27858,US,,2526896673,,2018-09-18,,,V,,,,
"Your CBD Store - Greenville, NC",420 E Arlington Blvd Ste B-1,,Greenville,NC,27858,US,https://cbdrx4u.com/,2529995127,cbd3507@gmail.com,2019-09-09,2019-09-15,Yes,C,CBD,,,
Exotic Hemp Company LLC,15919 US-17 Ste E,,Hampstead,NC,28443,US,https://exotichempco.com/,9108211345,mike@exotichempnc.com,2021-01-02,,Yes,C,CBD,,,
Galaxy Tobacco,15441 US-17 Ste 701,,Hampstead,NC,28443,US,,9108211113,,2019-11-13,,,S,,,,
The K Spot 1.0,14820 US-17 Ste A,,Hampstead,NC,28443,US,https://www.the-kspot.com/,9108032211,,2020-12-03,,Yes,C,CBD,Yes,,
The Vapor Corner,21758 US-17 N,,Hampstead,NC,28443,US,http://thevaporcorner.com/,9103293111,thevaporcorner@charter.net,2018-09-24,2019-11-02,Yes,V,CBD,,,
The Vapor Corner,14560 US-17,,Hampstead,NC,28443,US,http://thevaporcorner.com/,9105154990,thevaporcorner@charter.net,2018-09-24,2019-11-02,Yes,V,CBD,,,
MadVapes Havelock,965 E Main St #105,,Havelock,NC,28532,US,https://www.madvapes.com/,2527339018,madvapes444@gmail.com,2017-01-21,2021-02-07,Yes,V,CBD,,,
Tobacco Shop & Gifts,484 US-70,,Havelock,NC,28532,US,,2524630034,,2020-03-14,,,S,,,,
The Hemp Source,939 W Andrews Ave,,Henderson,NC,27536,US,https://thehempsourceusa.com,2525980933,henderson@thehempsource.com,2020-12-16,,Yes,C,CBD,,,
Tobacco Shop,1545 Dabney Dr,,Henderson,NC,27536,US,,2524301145,,2020-04-29,,,S,,,,
Asheville Vapor,423 N Church St,,Hendersonville,NC,28792,US,http://www.ashevillevapor.com/,8289198273,jeremy@ashevillevapor.com,2014-09-21,2019-02-19,Yes,V,CBD,,,
Brevard Hemp,514 7th Ave E,,Hendersonville,NC,28792,US,https://brevardhemp.com/,8286920420,info@brevardhemp.com,2021-07-02,,Yes,C,CBD,,,
CBD Central,309 White St Ste A,,Hendersonville,NC,28739,US,https://www.cbdcentralnc.com/,8285131251,info@cbdcentralnc.com,2020-11-24,,Yes,C,CBD,,,
Franny's Farmacy Hendersonville,128 Henderson Crossing Plaza,,Hendersonville,NC,28792,US,https://frannysfarmacy.com/,8286977300,info@frannysfarmacy.com,2019-11-12,2019-11-12,Yes,C,CBD,,,
Kingdom Harvest,212 S Church St,,Hendersonville,NC,28792,US,https://kingdomharvest.com/,8283658409,info@kingdomharvest.com,2021-02-24,,Yes,C,CBD,,,
M&A Smokes,2111 Asheville Hwy Ste 12,,Hendersonville,NC,28791,US,,8285959865,masmokes20@gmail.com,2022-04-21,2022-04-21,Yes,S,CBD,Yes,,
Mountain Vapor,2015 Asheville Hwy,,Hendersonville,NC,28791,US,http://www.mtnvapor.com/,8286985795,customerservice@mtnvapor.com,2018-08-06,2019-12-30,Yes,V,CBD,,,
Octopus Garden,2000 Spartanburg Hwy,,Hendersonville,NC,28791,US,http://octopusgardensmokeshops.com/,8286971050,octopusgarden@me.com,2019-01-15,2019-06-18,Yes,S,CBD,Yes,,
Vape On LLC,2560 Chimney Rock Rd,,Hendersonville,NC,28792,US,http://www.vapeonnc.com/,8287135324,,2018-09-18,,,V,,,,
WNC Hemp,137 Orrs Camp Rd,,Hendersonville,NC,28792,US,https://www.wnchemp.org/,8285959820,wnchemp@gmail.com,2020-12-06,,Yes,C,CBD,,,
East Coast Canna Company,1776 N Center St #B,,Hickory,NC,28601,US,https://eastcoastcannacompany.com/,8284051216,eastcoastcannacompany@gmail.com,2020-12-26,,Yes,C,CBD,,,
Franny's Farmacy,964 2nd St NE,,Hickory,NC,28601,US,https://frannysfarmacy.com/,8288552123,hickory@frannysfarmacy.com,2021-01-06,,Yes,C,CBD,,,
High Life Smoke Shop - Hickory,2107 Catawba Valley Blvd SE,,Hickory,NC,28602,US,,8283222583,info@highlifesmokes.com,2019-01-05,2019-04-21,,S,,,,
Juicee Coil Vapes,2442 US-70 SE #B,,Hickory,NC,28602,US,,8288551990,,2018-08-06,2019-12-26,Yes,V,CBD,,,
Kloud9 Vape & Lounge,2362 Springs Rd NE,,Hickory,NC,28601,US,,8285786147,hello@kloud9vapelounge.com,2021-02-25,,Yes,V,CBD,,,
Natural Elements of NC,15 Hwy 321 SW,,Hickory,NC,28602,US,https://www.naturalelementsofnc.com/,8287299868,naturalelementsofnc@yahoo.com,2021-03-07,,Yes,C,CBD,,,
Neranti CBD,1156 Lenoir Rhyne Blvd SE,,Hickory,NC,28602,US,https://nerantinc.com/,8288381178,neranticbd@gmail.com,2021-02-26,,Yes,C,CBD,,,
Smoker Friendly,1417 29th Ave Dr NE,,Hickory,NC,28601,US,http://smokerfriendly.com/,8284412282,,2020-01-14,,,S,,,,
Smoker Friendly,2641 NC-127,,Hickory,NC,28602,US,http://www.smokerfriendly.com/,8282940100,,2020-03-04,,,T,,,,
Vapor And More,2419 Springs Rd NE Ste 104,,Hickory,NC,28601,US,,8282562933,,2019-10-14,,Yes,S,CBD,Yes,,
VLife CBD,283 2nd Ave Se,,Hickory,NC,28602,US,https://vlifecbd.com/stores/vlifecbd-hickory/,8446685433,help@vlifecbd.com,2020-02-13,2020-02-13,Yes,C,CBD,,,
Wired Vapor,2923 N Center St Ste A,,Hickory,NC,28601,US,https://www.wiredvapor.com/,8282700262,info@wiredvapor.com,2018-08-06,2020-01-10,Yes,V,CBD,Yes,,
Charlie's Tobacco Outlet,2531 Eastchester Dr #107,,High Point,NC,27265,US,,3368128041,,2018-10-15,2019-08-02,Yes,S,CBD,Yes,,
Cheap Smokes & Cigars,144 Westchester Dr Ste 106,,High Point,NC,27262,US,,3368873775,,2019-08-02,,,T,,Yes,,
Cloud City Vapes,2402 Hickswood Rd Ste 110,,High Point,NC,27265,US,https://www.cloudcityvapesnc.com,3369915302,cloudcitync@gmail.com,2018-06-18,2019-06-27,Yes,V,CBD,,,
Glass City Smoke Shop,2505 N Main St,,High Point,NC,27262,US,https://glasscitygso.com/,3367813052,glasscitycustomerservice@gmail.com,2021-07-21,,Yes,S,CBD,,,
iHemp CBD & Kratom,2766 NC-68 N #107,,High Point,NC,27265,US,https://shopihemp.com/,3363358946,ihempllc@gmail.com,2021-12-23,2021-12-23,Yes,C,CBD,Yes,,
iHemp CBD & Kratom,2100 N Main St Ste 104,,High Point,NC,27262,US,https://shopihemp.com/,3369896269,ihempllc@gmail.com,2021-02-10,2021-12-23,Yes,C,CBD,Yes,,
Peace Out Vapes - High Point,2140 N Main St Unit 103,,High Point,NC,27262,US,https://peaceoutvapes.com/,3368755637,og17legionllc@yahoo.com,2018-08-06,2019-12-31,Yes,V,CBD,,,
Red Apple Tobacco,3786 Samet Dr #107,,High Point,NC,27265,US,,3368758680,,2020-02-08,,,S,,,,
Stratus Smoke & Vape,2900 N Main St Ste 107,,High Point,NC,27265,US,http://www.smokestratus.com,3363073786,,2019-01-15,2019-01-15,Yes,S,CBD,Yes,,
Tobacco & Vape Land #3,274 Eastchester Dr Ste 129,,High Point,NC,27262,US,https://tobaccolandvape3.business.site,3368755634,,2021-07-21,,Yes,S,CBD,,,
Tobacco Land & Vape Shop,1189 E Lexington Ave,,High Point,NC,27262,US,,3368045370,,2018-09-20,,,T,,,,
Tobacco Land & Vape Shop 2,2850 S Main St Ste 105,,High Point,NC,27263,US,,3364340033,,2018-09-20,,,T,,,,
Carolina Hemp Hut,137 Mayo St,,Hillsborough,NC,27278,US,https://carolinahemphut.com,8554367645,info@carolinahemphut.com,2020-06-23,,Yes,C,CBD,,,
Circle 7 Tobacco,141 Mayo St,,Hillsborough,NC,27278,US,https://circle-7-tobacco-and-vape-and-kratom.business.site/,9192414084,,2019-06-19,2019-06-19,Yes,S,CBD,Yes,,
#1 Tobacco & Vapor,7204 GB Alford Hwy,,Holly Springs,NC,27540,US,,9195574750,,2018-10-23,2020-11-14,Yes,S,CBD,Yes,,
Karma Culture Hope Mills,3109 N Main St Ste 105,,Hope Mills,NC,28348,US,,9107791269,,2019-01-05,2019-01-05,Yes,H,CBD,Yes,,
Tobacco Road Outlet,3020 N Main St,,Hope Mills,NC,28348,US,http://www.tobaccoroadoutlet.com/,9104256995,info@tobaccoroadoutlet.com,2020-03-14,,,T,,,,
East Coast Canna Company,3316 Hickory Blvd Ste A,,Hudson,NC,28638,US,http://www.eastcoastcannacompany.com,8285720379,eastcoastcannacompany@gmail.com,2020-06-19,,Yes,C,CBD,,,
Hemp and Tea Co. CBD,15906 N Old Statesville Rd Ste A,Suite A,Huntersville,NC,28078,US,https://www.hempandteaco.com/,7042488657,info@hempandteacompany.com,2020-07-04,,Yes,C,CBD,,,
Queens Vapor & CBD,15800 Old Statesville Rd,,Huntersville,NC,28078,US,https://www.facebook.com/queens-vapor-cbd-100447881381760/,9376059189,,2021-02-04,,Yes,V,CBD,,,
Vape House CBD,9810 Gilead Rd #A106,,Huntersville,NC,28078,US,http://www.vapehousenc.com/,7047270349,dougpayneconstruction@gmail.com,2018-09-12,2021-06-15,Yes,V,CBD,,,
After Vapes,13803 E Independence Blvd Ste J,,Indian Trail,NC,28079,US,https://aftervapes.com/,7046285492,,2022-01-31,2022-01-31,Yes,V,CBD,,,
Buddha's Bazaar,5880 US-74 Ste 201,,Indian Trail,NC,28079,US,https://www.buddhasbazaar.com/,7048390688,erika@buddhasbazaar.com,2018-10-15,2018-10-15,Yes,S,CBD,Yes,,
Indian Trail Tobacco & Vape,618 Indian Trail Rd S,,Indian Trail,NC,28079,US,,7048215094,,2020-03-11,,Yes,S,CBD,,,
Kure CBD and Vape,14035 E Independence Blvd Ste 4,,Indian Trail,NC,28079,US,https://www.kurevapes.com/,7046280171,kuresunvalley@outlook.com,2021-06-29,2021-06-29,Yes,V,CBD,,,
Kure CBD and Vape - Sun Valley,6701 Old Monroe Rd #C,,Indian Trail,NC,28079,US,https://www.kurevapes.com/,7042516803,kuresunvalley@outlook.com,2018-08-06,2019-12-28,Yes,V,CBD,,,
The Cigar Shop,14001 E Independence Blvd,,Indian Trail,NC,28079,US,http://www.thecigarshop.com,7046357915,joey@thecigarshop.com,2020-08-24,,Yes,T,CBD,,,
Tobacco Vape Co.,14015 E Independence Blvd Ste M,,Indian Trail,NC,28079,US,,7048826576,,2022-03-15,2022-03-15,Yes,S,CBD,,,
Diamond Tek Vapor Express,472 Western Blvd Ste C,,Jacksonville,NC,28546,US,https://diamondtekvapor.com/,9103532002,diamondvapor1@gmail.com,2014-09-26,2019-05-10,Yes,V,CBD,,,
Diamond Tek Vapor Lounge,1006 Henderson Dr Ste A,,Jacksonville,NC,28540,US,https://diamondtekvapor.com/,9102197810,diamondvapor1@gmail.com,2014-09-26,2019-04-08,,V,,,,
Freedom Tobacco Shop,175 Freedom Way Ste 4,,Jacksonville,NC,28544,US,,9102382541,,2019-11-17,2022-01-01,,S,,Yes,,
Happy Smoke Tobacco,331 Western Blvd Ste H,,Jacksonville,NC,28546,US,,9102382794,,2020-07-12,,Yes,S,CBD,,,
Highlands Tobacco Inc,835 Piney Green Rd,,Jacksonville,NC,28546,US,,9103535331,,2019-11-26,,,T,,,,
Jacksonville CBD & Wellness by 5 Star Nutrition,4157 Western Blvd #300,,Jacksonville,NC,28546,US,https://5starnutritionusa.com/,9102190864,jacksonville@5starnutritionusa.com,2021-02-12,,Yes,O,CBD,,,
Kure Vaporium,408 Western Blvd #200,,Jacksonville,NC,28546,US,https://www.kurevapes.com/pages/kure-vaporium-western-blvd,9103787616,social@kuresociety.com,2021-06-16,2021-06-16,,V,,,,
MadVapes,200 Brynn Marr Rd,,Jacksonville,NC,28546,US,https://www.madvapes.com/,9109395237,,2018-09-30,,,V,,,,
Madvapes,2861 Richlands Hwy #1,,Jacksonville,NC,28540,US,https://www.madvapes.com/,9103787617,guestservice@amvholdings.com,2018-09-13,2021-06-14,,V,,,,
Natures Remedy CBD,472 Western Blvd ste e,,Jacksonville,NC,28546,US,,9103331055,chris@nrcbd.com,2021-03-02,,Yes,C,CBD,,,
Stop & Go Tobacco & Vapor,343 Western Blvd Ste G,,Jacksonville,NC,28546,US,http://first-in-flight-vapor-plus.business.site/,9109392198,,2019-11-06,,Yes,S,CBD,,,
Supreme Vapor,93 Western Blvd Ste A,,Jacksonville,NC,28546,US,http://supremevapornc.com/,9109680306,supremevapor@gmail.com,2019-05-19,2019-05-19,,V,,,,
TGI Vape,301 N Marine Blvd,,Jacksonville,NC,28540,US,,9103330942,,2018-08-06,2020-01-02,Yes,V,CBD,,,
The Hemp Farmacy - Jacksonville,239 Western Blvd Unit 300,,Jacksonville,NC,28546,US,https://hempfarmacy.us/,9102382845,marketing@hempfarmacy.us,2020-01-13,2020-01-13,Yes,C,CBD,,,
The Smoking Dragon,3080 Richlands Hwy Ste B,,Jacksonville,NC,28540,US,,9109395570,,2018-09-24,,Yes,V,CBD,Yes,,
Tobacco City & Gifts,521 Yopp Rd Ste 106,,Jacksonville,NC,28540,US,http://tobacco-city-gifts.business.site/,9102190119,,2019-12-23,,,S,,,,
Vaporland,105 Western Blvd,,Jacksonville,NC,28546,US,,9103339378,vaporland.ecigs@gmail.com,2018-08-31,2020-03-02,,V,,,,
Hemp XR & CBD,5011 Mackay Rd Ste D,,Jamestown,NC,27282,US,https://hemp-xr.com/,3365471401,hempxr@gmail.com,2021-01-27,,Yes,C,CBD,Yes,,
Smoke House,5011 Mackay Rd,,Jamestown,NC,27282,US,,3365471401,,2019-11-16,2019-11-16,Yes,S,CBD,,,
North River Tobacco Barn,7542 Caratoke Hwy,,Jarvisburg,NC,27947,US,,2524918323,,2020-01-29,,,T,,,,
Apotheca,2007 S Cannon Blvd,,Kannapolis,NC,28083,US,,7042980052,,2022-03-21,2022-03-21,Yes,C,CBD,,,
Dream Tobacco & Vapes,2230 Roxie St NE,,Kannapolis,NC,28083,US,,7047215268,,2019-08-24,,Yes,S,CBD,,,
Kannapolis Tobacco,2231 Spider Dr NE,,Kannapolis,NC,28083,US,,7047929040,,2019-12-24,,Yes,S,CBD,,,
King Jane CBD,2241 Spider Dr NE Ste A,,Kannapolis,NC,28083,US,,7044029040,kannapolis@kingjanecbd.com,2021-02-24,2021-02-24,Yes,C,CBD,,,
Native Ceuticals CBD Kannapolis,2226 Roxie St NE,,Kannapolis,NC,28083,US,https://cbdnativeceuticals.com/,,sales@cbdnativeceuticals.com,2020-06-24,2021-07-01,Yes,C,CBD,,,
Smokers Depot,1516 Pennsylvania Ave,,Kannapolis,NC,28083,US,,7049382322,smokersdepotnc@gmail.com,2020-01-12,,,S,,,,
Crews Tobacco Emporium,1261 NC-66 #B,,Kernersville,NC,27284,US,,3369933433,,2019-09-03,,,T,,,,
Everything Hemp Store - Kernersville,220 Market View Dr Unit C,,Kernersville,NC,27284,US,https://everythinghempstore.com,3369920510,info@ehsretail.com,2019-12-18,2019-12-18,Yes,C,CBD,,,
Hemp Hut,120 S Main St Unit A,,Kernersville,NC,27284,US,,3364975722,yourhemphut@gmail.com,2021-01-26,,Yes,C,CBD,,,
Hemp XR & CBD,1020-A S Main St,,Kernersville,NC,27284,US,https://hemp-xr.com/,3363104096,hempxr@gmail.com,2021-01-27,,Yes,C,CBD,Yes,,
K Tobacco & Vapor,210 Market View Dr Ste D,,Kernersville,NC,27284,US,https://www.ktobaccoandvapor.com/,3369920560,kvilletobacco@gmail.com,2019-12-24,2019-12-24,Yes,S,CBD,,,
Peace Out Vapes,1405 NC-66 Ste E,,Kernersville,NC,27284,US,https://peaceoutvapes.com/,3369040610,peaceoutvapes@gmail.com,2018-06-26,2019-04-08,Yes,V,CBD,,,
Stratus Smoke & Vape,1060c S. Main St,,Kernersville,NC,27284,US,http://www.smokestratus.com,3369040665,kv1stratus@gmail.com,2019-05-20,,Yes,S,CBD,Yes,,
House Of Hemp OBX,3105 N Croatan Hwy #20,,Kill Devil Hills,NC,27948,US,https://houseofhempobx.com,2522556420,info@houseofhempobx.com,2021-02-08,,Yes,C,CBD,,,
Island Dyes Inc,2301 N Croatan Hwy,,Kill Devil Hills,NC,27948,US,https://www.islanddyesinc.com/kill-devil-hills-store,2524800076,islanddyesshop@gmail.com,2018-08-06,2019-10-02,Yes,H,CBD,Yes,,
N3Vapor and CBD,2401 N Croatan Hwy,,Kill Devil Hills,NC,27948,US,https://www.n3vapor.com/,2527156006,sales@n3vapor.com,2018-09-30,2021-03-08,Yes,V,CBD,,,
OBX Vapors & Glass,1208 S Croatan Hwy,,Kill Devil Hills,NC,27948,US,,2522551992,obxvapors1208@gmail.com,2018-10-12,,Yes,S,CBD,,,
Outer Vapes Custom Vapors and Lounge,710 S Virginia Dare Trl Unit 5,,Kill Devil Hills,NC,27948,US,https://www.outervapes.com/,2527153793,outervapes@gmail.com,2018-09-30,,,V,,,,
Southbound Vapes & Hemp,614 S Main St Ste S,,King,NC,27021,US,https://southboundvapes.com/,3369856577,,2021-01-05,,Yes,V,CBD,,,
Foggy Bobs Vaping Shack,102 N Carpenter St,,Kings Mountain,NC,28086,US,,7047504606,,2019-04-15,2019-11-20,Yes,V,CBD,,,
Smoke Shop,112 York Rd,,Kings Mountain,NC,28086,US,,7047506005,,2020-02-23,,Yes,S,CBD,,,
Tranzparent Dreamz,223 S Battleground Ave,,Kings Mountain,NC,28086,US,,7047506115,,2018-11-01,2018-11-01,Yes,S,CBD,Yes,,
Diffusion Vapor Shop & Lounge,1202 W Vernon Ave Ste B,,Kinston,NC,28501,US,,2526865014,diffusionvapor@gmail.com,2015-01-30,2019-04-08,Yes,V,CBD,,,
K&A Tobacco & Vape,4139 W Vernon Ave,,Kinston,NC,28504,US,,2522080063,,2019-12-24,,,S,,,,
Lazy Gators Hemp Farm,4168 Berkley Ave,,Kinston,NC,28504,US,https://lazygatorshempfarm.com/,2522867396,info@lazygatorshempfarm.com,2020-11-06,,Yes,C,CBD,,,
OZ,1602 W Vernon Ave,,Kinston,NC,28504,US,http://www.ozkinston.com,2529399552,,2018-11-02,2018-11-02,Yes,H,CBD,,,
Tobacco Road Outlet,2405 N Herritage St,,Kinston,NC,28501,US,http://www.tobaccoroadoutlet.com/,2525207799,,2020-05-25,,,T,,,,
Ase Smoke Mart,102 S First Ave Ste 1,,Knightdale,NC,27545,US,,9192954435,asesmokemart1@gmail.com,2019-07-19,,,S,,,,
Misty Mountain Vapors,7110 Knightdale Blvd Ste G,,Knightdale,NC,27545,US,https://mistymountainvapors.com/main.sc,9193738733,john@mistymountainvapors.com,2018-08-06,2019-12-29,Yes,V,CBD,,,
Smoker Friendly,7137 Knightdale Blvd #B,,Knightdale,NC,27545,US,http://smokerfriendly.com/,9192665566,,2020-01-13,,,T,,,,
Vapor Market,861 Old Knight Rd Ste 113,,Knightdale,NC,27545,US,http://www.vapormarket.org/,9193730343,vapormarketecigs@gmail.com,2018-09-11,,Yes,V,CBD,,,
Wagco Oil and Vinegar Taproom,861 Old Knight Rd Ste 104,,Knightdale,NC,27545,US,https://wagcooil.com/,9193730343,robert.wagcodistro@gmail.com,2020-12-11,,Yes,O,CBD,,,
Tobacco Road Outlet,1701 S Main St,,Laurinburg,NC,28352,US,http://www.tobaccoroadoutlet.com/,9102910084,,2020-05-25,2020-05-25,,T,,,,
Tobacco Shop & Vape,953 US-401,,Laurinburg,NC,28352,US,,9102669000,,2020-03-04,,Yes,S,CBD,,,
Avail Vapor - Leland,1114 New Pointe Blvd Ste 150,,Leland,NC,28451,US,https://www.availvapor.com/,9107698475,custservice@availvapor.com,2018-06-03,2019-06-18,Yes,V,CBD,,,
Burnett's Vapor,50 River Rd SE,,Leland,NC,28451,US,,9103993443,,2017-05-16,2021-10-10,Yes,V,CBD,,,
Iron Anchor Tattoo & CBD Oils,9625 Old Mill Rd,,Leland,NC,28451,US,,9103995672,ironanchortattoo1@yahoo.com,2021-02-12,,Yes,O,CBD,,,
Leland Tobacco,1132 New Pointe Blvd #2,,Leland,NC,28451,US,https://leland-tobacco.business.site/,9103991448,,2021-07-13,,Yes,S,CBD,,,
Smoker Friendly,1735 Reed Rd NE Ste 3,,Leland,NC,28451,US,,9103712778,,2021-07-13,2021-07-13,,S,,,,
Vapor Shack,103 Village Rd NE #B,,Leland,NC,28451,US,https://www.vaporshackecig.com/,9102285305,cindykent@vaporshackecig.com,2018-08-31,2020-03-02,Yes,V,CBD,,,
Your CBD Store,2024 Olde Regent Way #160,,Leland,NC,28451,US,https://cbdrx4u.com/find-us/north-carolina/leland,9104081755,leland700@cbdrx4u.com,2021-06-10,,Yes,C,CBD,,,
Carolina Vape Kings Lenoir Store,245 McLean Dr SW,,Lenoir,NC,28645,US,,8287263024,,2018-08-06,2020-01-12,,V,,,,
H & A Tobacco,845 Blowing Rock Blvd Ste B,,Lenoir,NC,28645,US,https://handatobacco.com/,8287580443,,2018-08-06,2019-06-01,,S,,,,
Lenoir Smokes,2144 Morganton Blvd SW,,Lenoir,NC,28645,US,https://lenoirsmokes.business.site/,8287578800,lenoirsmokes@gmail.com,2019-12-08,2019-12-08,Yes,S,CBD,,,
Natural Elements of NC,238 Morganton Blvd SW,,Lenoir,NC,28645,US,https://www.naturalelementsofnc.com/,8289292420,naturalelementsofnc@yahoo.com,2021-03-07,2021-03-07,Yes,C,CBD,,,
Carolina Brothers Dispensaries,610 N Main St,,Lexington,NC,27292,US,https://www.carolinabestbuds.com/,3368431801,matt@carolinabestbuds.com,2020-11-23,,Yes,C,CBD,,,
Daydreamers,5 E 1st Ave,,Lexington,NC,27292,US,,3362397266,daydreamersrocknroll@gmail.com,2018-12-25,,Yes,H,CBD,Yes,,
In Bloom Naturals,22 S Main St,,Lexington,NC,27292,US,https://www.inbloomnaturals.com/,3368165768,info@inbloomnaturals.com,2021-02-11,,Yes,C,CBD,,,
The Hemp Clinic,110 Cotton Grove Rd Ste B,,Lexington,NC,27292,US,https://evolutionorganix.com/,3363008005,maria@evolutionorganix.com,2020-12-17,,Yes,C,CBD,,,
TNT Smoke Shop,1983 Cotton Grove Rd,,Lexington,NC,27292,US,,3363570573,,2019-06-24,2019-06-24,,T,,,,
Zombie Vape Lexington,62 W US-64,,Lexington,NC,27295,US,,3363007366,,2018-08-31,2020-03-02,Yes,S,CBD,Yes,,
A House of Hemp CBD Store,1232 N Main St,,Lillington,NC,27546,US,https://www.ahouseofhemp.com/,9109841441,sales@ahouseofhemp.com,2020-11-15,,Yes,C,CBD,,,
CBD East Main,224 E Main St,,Lincolnton,NC,28092,US,https://www.cbdeastmain.com/,7042409420,info@cbdeastmain.com,2019-08-13,2020-04-30,Yes,C,CBD,,,
Madvapes Lincolnton,2107 E Main St,,Lincolnton,NC,28092,US,http://www.madvapeslincolnton.com/,9804292466,madvapeslincolnton@gmail.com,2018-10-12,,,V,,,,
Vape Envy,107 Court Sq,,Lincolnton,NC,28092,US,http://www.vapeenvy.net/,7047354900,,2018-08-06,2020-01-05,Yes,V,CBD,Yes,,
Tobacco & Vapor Outlet,11626 Red Bridge Rd,,Locust,NC,28107,US,,7047815612,,2019-12-03,,,T,,,,
City Tobacco & Vape,141 S Bickett Blvd,,Louisburg,NC,27549,US,,9193408881,,2020-12-04,2020-12-04,Yes,S,CBD,,,
Discount Tobacco Shop,1173 US-401,,Louisburg,NC,27549,US,,2523147291,,2019-11-15,,,S,,,,
King Tobacco & Vape,303 S Bickett Blvd,,Louisburg,NC,27549,US,https://king-tobacco-vape.business.site/,9197290225,,2021-02-24,,Yes,S,CBD,Yes,,
Tobacco & Vapor,500 Retail Way #102,,Louisburg,NC,27549,US,https://tobaccovapor.business.site/,9193402355,,2020-02-19,,,T,,,,
Atkinson Cigarette Land,3005 W 5th St,,Lumberton,NC,28358,US,,9107391132,,2019-07-19,,,T,,,,
Puff N' Stuff,325 E Elizabethtown Rd,,Lumberton,NC,28358,US,,9105361607,,2020-02-06,,Yes,S,CBD,,,
Smoke 4 Less,3215 Fayetteville Rd,,Lumberton,NC,28358,US,,9107385940,,2020-02-17,,Yes,S,CBD,Yes,,
Tobacco Station,5087 Fayetteville Rd,,Lumberton,NC,28358,US,,9102721000,,2020-03-14,,,T,,,,
G Outlet Tobacco & Vape,100 E Murphy St,,Madison,NC,27025,US,,3365481973,goutlettobacco@gmail.com,2019-12-03,2019-12-03,Yes,S,CBD,Yes,,
High Country Hemp,2534 US-221 BUS,,Marion,NC,28752,US,,8285592226,,2021-02-01,,Yes,C,CBD,,,
Marion T&V,2845 Sugar Hill Rd,,Marion,NC,28752,US,,8286590980,,2020-01-07,2020-12-30,,S,,,,
High Country Vapor and CBD,705 Carl Eller Rd #A,,Mars Hill,NC,28754,US,http://www.highcountryvapor.com/,8286801220,,2019-08-24,,Yes,V,CBD,Yes,,
Custom Vapes & E-Cigs,10046 E Independence Blvd Ste G,,Matthews,NC,28105,US,http://www.cvecigs.com,7048429533,info.cvecigs@gmail.com,2018-06-25,2019-07-06,Yes,V,CBD,,,
Edgewater CBD,11025 Monroe Rd Ste C,,Matthews,NC,28105,US,https://www.edgewatercbd.com/,7042466075,info@edgewatercbd.com,2020-12-27,,Yes,C,CBD,,,
Get Me Some Green,3555-1 Matthews-Mint Hill Rd,,Matthews,NC,28105,US,https://getmesomegreen.com/,9802921402,info@getmesomegreen.com,2020-06-29,2021-03-02,Yes,C,CBD,,,
Your CBD Source,10416 E Independence Blvd Ste 610,,Matthews,NC,28105,US,http://www.yourcbdsourcenc.com,7044437003,genuinecbdhempoil@gmail.com,2020-07-21,2022-02-01,Yes,C,CBD,,,
Smoke House,131 Commerce Dr,,Mayodan,NC,27027,US,https://smoke-house-tobacco-vape-shop.business.site/,3364914590,,2020-02-18,,Yes,S,CBD,,,
Mebane Vape Shop,1335 Mebane Oaks Rd,,Mebane,NC,27302,US,,9195634466,,2019-05-03,,Yes,V,CBD,,,
Natural Vibe Smoke Shop,4550 Hwy 24/27 Unit 4,,Midland,NC,28107,US,,7048883126,naturalvibesmokeshop@gmail.com,2020-01-27,,Yes,S,CBD,,,
Brevard Hemp,5046 Boylston Hwy Ste 4,,Mills River,NC,28759,US,https://brevardhemp.com/,8285952982,info@brevardhemp.com,2020-11-21,,Yes,C,CBD,,,
Cloud 9 Smoke Shop,8402 Fairview Rd Ste 102,,Mint Hill,NC,28227,US,,9808198739,,2019-01-15,,,S,,,,
Smoker's Depot,7102 Brighton Park Dr,,Mint Hill,NC,28227,US,,7044082324,,2019-09-29,,Yes,S,CBD,,,
All Fired Up,1360 S Salisbury St,,Mocksville,NC,27028,US,,3367531121,,2019-07-17,,,T,,,,
Celtic Vapes,562 Valley Rd #109B,,Mocksville,NC,27028,US,,3367510525,celticvapes12@gmail.com,2014-09-25,2019-01-31,Yes,V,CBD,,,
Kyur Hemp Trading Company,114 W Depot St,,Mocksville,NC,27028,US,,3369369283,support@thekyur.com,2021-03-01,2021-08-14,Yes,C,CBD,,,
Mocksville Tobacco Inc,314 Sanford Ave,,Mocksville,NC,27028,US,,3367513444,,2020-01-11,,Yes,S,CBD,Yes,,
Custom Vapes & E-Cigs,2300 W Roosevelt Blvd Ste E,,Monroe,NC,28110,US,http://www.cvecigs.com,7043502988,info.cvecigs@gmail.com,2018-06-25,2019-07-06,Yes,V,CBD,,,
High Life Smoke Shop,1401 W Roosevelt Blvd,,Monroe,NC,28110,US,,7046358500,info@highlifesmokes.com,2019-01-05,,Yes,S,CBD,,,
Smokers Depot,1853 Dickerson Blvd,,Monroe,NC,28110,US,,7047769481,,2020-01-12,,,S,,,,
Sweet Union Hemp Company,116 E Franklin St,,Monroe,NC,28112,US,,9802103527,info@sweetunionhempcompany.com,2020-07-17,,Yes,C,CBD,,,
Z's Healthy Hemp,606 W Roosevelt Blvd Ste B,,Monroe,NC,28110,US,https://www.zshealthyhemp.com/,9802103040,,2020-07-21,,Yes,C,CBD,,,
5 Star Tobacco Vape & More,168 Norman Station Blvd Ste M,,Mooresville,NC,28117,US,,7046777908,,2020-01-11,2021-06-28,,S,,,,
704Hemp CBD Shop,101 S Broad St,,Mooresville,NC,28115,US,https://www.704hemp.com/,7047469463,704hemp@gmail.com,2020-11-15,,Yes,C,CBD,,,
High Life - Mooresville,480 River Hwy Ste D,,Mooresville,NC,28117,US,,7043609886,,2018-08-06,2019-09-25,Yes,S,CBD,Yes,,
HORNco Refinery Vape Shop,101 S Broad St,,Mooresville,NC,28115,US,https://www.horncorefineryvapeshop.com/,7048394335,digjuice15@gmail.com,2016-12-20,2019-01-13,Yes,V,CBD,,,
Kure CBD and Vape - Mooresville,484 River Hwy Ste B,,Mooresville,NC,28117,US,https://www.kurevapes.com/,7047692702,kuremooresville@outlook.com,2018-08-06,2019-12-28,Yes,V,CBD,,,
Madvapes Cardigan Way,132 N Cardigan Way Ste D,,Mooresville,NC,28117,US,https://www.madvapes.com/,9804440587,support@madvapes.com,2018-08-06,2019-12-29,,V,,,,
Native Ceuticals CBD Mooresville/Davidson,331 Alcove Rd Ste 300,,Mooresville,NC,28117,US,https://nativeceuticals.com/,7046806215,info@nativeceuticals.com,2020-06-24,2020-07-24,Yes,C,CBD,,,
Sterling Vapes,2785 Charlottes Hwy Ste 10,,Mooresville,NC,28117,US,http://sterlingvapes.com/,7046608273,bill@sterlingvapes.com,2017-02-14,2019-01-15,Yes,V,CBD,,,
The Hemp Doctor,510 River Hwy #16,,Mooresville,NC,28117,US,https://thehempdoctor.com/,7043604843,info@thehempdoctor.com,2020-12-17,,Yes,C,CBD,,,
Vape Shop,373 E Plaza Dr,,Mooresville,NC,28115,US,http://chasethevapes.com/,7046600327,roc@chasethevapes.com,2018-08-06,2020-01-05,Yes,V,CBD,,,
High Life Morehead City,2900 Arendell St Unit 9,,Morehead City,NC,28557,US,http://highlifesmoke.com/,2527269698,moreheadcity@highlifesmoke.com,2018-08-09,2020-05-11,Yes,S,CBD,,,
MadVapes,4119 Arendell St Ste D,,Morehead City,NC,28557,US,https://www.madvapes.com/,2527730421,madvapesmhc@gmail.com,2014-09-08,2020-06-26,Yes,V,CBD,,,
Purely CBD,4068 Arendell St Ste B,,Morehead City,NC,28557,US,https://www.purelycbd.net/,2524999955,purelycbdofmhc@yahoo.com,2020-11-03,,Yes,C,CBD,,,
Carolina Vape Kings,910 Burkemont Ave Ste D,,Morganton,NC,28655,US,,8284751046,carolinavapekings@gmail.com,2014-09-25,2020-03-08,Yes,V,CBD,,,
Electric Eye Smoke Shop,3064 NC-18,,Morganton,NC,28655,US,https://www.electriceyesmokeshop.com/,8283348800,,2019-10-03,,Yes,H,CBD,Yes,,
Morganton Tobacco & Vape,830 Burkemont Ave,,Morganton,NC,28655,US,,8285445120,,2019-05-03,,Yes,S,CBD,Yes,,
Natural Alternatives,202 Magnolia Dr,,Morganton,NC,28655,US,https://natural-alternatives-morganton.business.site/,8283918222,abacaventures@gmail.com,2020-03-08,,Yes,C,CBD,,,
Professor Herb's Herbal Solutions,805 Jamestown Rd,,Morganton,NC,28655,US,https://morgantonvitamins.com/,8284080847,professorherb805@gmail.com,2021-02-08,,Yes,C,CBD,Yes,,
Tobacco World,140 Morganton Heights Blvd,,Morganton,NC,28655,US,,8284750152,,2018-10-27,2018-10-27,Yes,S,CBD,,,
"Good Guy Vapes, CBD & Glass - Morrisville",10970 Chapel Hill Rd,,Morrisville,NC,27560,US,http://www.goodguyvapes.com/,9196518297,info@goodguyvapes.com,2019-11-13,2019-11-13,Yes,V,CBD,,,
601 Vapor & Tobacco,2123 Rockford St #500,,Mount Airy,NC,27030,US,http://601-vapor-tobacco.business.site/,3367862879,,2019-07-13,2019-07-13,Yes,S,CBD,,,
Zombie Vapor,2207 Rockford St #B,,Mount Airy,NC,27030,US,,3367553335,zombievapor718@gmail.com,2019-07-13,2021-11-13,,V,,,,
Blue Mountain Vapor - Murphy,1370 US-64 W Ste E,,Murphy,NC,28906,US,https://www.bluemountainvape.com/,8288377780,,2016-03-07,2019-05-04,Yes,V,CBD,,,
Puffs-N-Stuff,1142 US-64,,Murphy,NC,28906,US,,8288359898,,2019-09-23,,Yes,T,CBD,,,
Serenity Mountain Gift Shop & Boutique,35 Tennessee St,,Murphy,NC,28906,US,,8283617543,serenitymountainemurray@gmail.com,2020-07-16,,Yes,O,CBD,,,
Island Tobacco,4711 S Croatan Hwy,,Nags Head,NC,27959,US,https://capitolsmoke.com,2524411392,dsendsley@capitolsmoke.com,2018-08-06,2022-03-21,Yes,S,CBD,Yes,,
Nash Tobacco Shop,914 Eastern Ave,,Nashville,NC,27856,US,https://smoke-em-up-smoke-shop.business.site/,2522206502,,2019-07-16,,,S,,,,
A&T Vape Shop,505 D St Unit C,,New Bern,NC,28560,US,,2527725834,,2016-08-06,2019-02-19,Yes,V,CBD,,,
Above The Roots,2063 S Glenburnie Rd,,New Bern,NC,28562,US,https://www.abovetherootscbd.com/,2522884475,abovetheroots@outlook.com,2020-11-16,,Yes,C,CBD,,,
King Tobacco & Vape,6530 NC-55,,New Bern,NC,28560,US,,2524746276,hazzimmohammed1985@gmail.com,2021-10-07,2021-10-07,Yes,S,CBD,Yes,,
M&M Market & Tobacco Vapor,2909 Trent Rd,,New Bern,NC,28562,US,,2526315092,,2020-01-05,,,T,,,,
Mikes Smoke Shop,1727 Red Robin Ln,,New Bern,NC,28562,US,,2522885707,,2019-12-19,,Yes,S,CBD,Yes,,
The K Spot 3.0,3811 Doctor M.L.K. Jr Blvd,,New Bern,NC,28562,US,https://www.the-kspot.com/,2526315366,,2020-12-03,,Yes,C,CBD,Yes,,
Tobacco & Vapor,1250 US-70,,New Bern,NC,28560,US,,2526365900,,2019-11-04,2019-11-04,,T,,,,
Tobacco Outlet,1822 S Glenburnie Rd,,New Bern,NC,28562,US,,2526729400,,2020-07-06,,Yes,T,CBD,Yes,,
Vape MD,1230 S Glenburnie Rd,,New Bern,NC,28562,US,,2526491835,vapemd@yahoo.com,2014-10-04,2019-01-28,,V,,,,
Askar Tobacco Shop,7075 US-70,,Newport,NC,28570,US,,2522233220,,2019-07-19,,Yes,S,CBD,Yes,,
The K Spot 2.0,5477 NC-24 #4,,Newport,NC,28570,US,https://www.the-kspot.com/,2527640150,,2020-12-03,,Yes,C,CBD,Yes,,
Emerald Isle Vapor Company,312 9th St,,North Wilkesboro,NC,28659,US,,3368180797,,2019-10-18,,Yes,V,CBD,,,
Mid Town Tobacco Inc,336 Wilkesboro Ave,,North Wilkesboro,NC,28659,US,,3368387952,,2020-01-19,,,T,,,,
Amsterdam Life,5813 E Oak Island Dr,,Oak Island,NC,28465,US,,9109331136,,2019-07-18,,Yes,S,CBD,,,
Vapor Shack,4146 Long Beach Rd SE Unit A,,Oak Island,NC,28465,US,https://www.vaporshackecig.com/,9103634024,cindykent@vaporshackecig.com,2015-01-20,2019-05-10,Yes,V,CBD,,,
Clouds Tobacco & Vape,8001 Marketplace Dr Ste B,,Oak Ridge,NC,27310,US,,3362987431,,2021-07-21,,Yes,S,CBD,,,
Huntsboro Hemp Company,123 Williamsboro St,,Oxford,NC,27565,US,https://huntsborohempco.com/,9196915382,info@huntsborohempco.com,2021-02-09,,Yes,C,CBD,,,
Vape & Tobacco,109 Roxboro Rd,,Oxford,NC,27565,US,https://website-6824744177726553091177-tobaccoshop.business.site/,9196031305,,2020-04-29,,,S,,,,
Vapor & Tobacco,502 Granville St,,Oxford,NC,27565,US,http://vapor-tobacco.business.site/,9196035439,,2019-09-25,,Yes,S,CBD,Yes,,
Zen Hybrid Shops,1011 Lewis St Ste. 104,,Oxford,NC,27565,US,,9843550808,zeneastinc@gmail.com,2020-06-08,,Yes,V,CBD,Yes,,
Main Street Smoke Shop,404 W 3rd St,,Pembroke,NC,28372,US,,9106685050,,2020-01-06,,,S,,,,
C & C Hemp Store,109 W Main St,,Pilot Mountain,NC,27041,US,http://candchemp.com,3364448099,tony@candchemp.com,2020-11-03,2021-04-04,Yes,C,CBD,,,
Papa Bear Farms Handcrafted Hemp and CBD Store,3349 Cook School Rd,,Pilot Mountain,NC,27041,US,https://www.papabearfarmsnc.com/,3364034837,papabearfarmsnc@gmail.com,2021-02-14,,Yes,C,CBD,,,
Hemp And Barrel CBD,800 N Polk Street,,Pineville,NC,28134,US,https://hempandbarrel.com/,9803264367,care@hempandbarrel.com,2020-10-16,,Yes,C,CBD,,,
L.A. Vapors Elite Smoke Shop,321 S Polk St Ste 2E,,Pineville,NC,28134,US,http://www.lavaporsclt.com/,7049992331,lavaporscharlotte@gmail.com,2018-08-06,2018-11-02,Yes,S,CBD,Yes,,
MadVapes,8320 Pineville-Matthews Rd #611,,Pineville,NC,28226,US,https://www.madvapes.com/,9802373527,,2018-09-30,2018-11-12,,V,,,,
Smoker's Depot,9939 Lee St,,Pineville,NC,28134,US,,7048890162,,2019-11-29,,,T,,,,
Oak City Hemp,192-220 Lorax Ln,,Pittsboro,NC,27312,US,https://www.oakcityhemp.com/,9198808164,oakcityhemp@gmail.com,2021-02-22,,Yes,C,CBD,,,
Tobacco World,7098 Fayetteville Rd,,Raeford,NC,28376,US,,9108480711,,2020-02-19,,,T,,,,
5 Star Tobacco and Vapes,3946 Western Blvd,,Raleigh,NC,27606,US,https://5-star-tobacco-and-vapor.business.site/,9197030231,,2019-07-13,2019-07-13,Yes,S,CBD,Yes,,
540 Smoke and Vape,8320 Litchford Rd Ste 148,,Raleigh,NC,27615,US,http://www.540smoke.com/,9198032777,540smoke@gmail.com,2019-07-13,,Yes,S,CBD,Yes,,
7 Star Tobacco Vape & Kratom,3585 Maitland Dr,,Raleigh,NC,27610,US,https://7-star-tobacco-vape-wireless.business.site/,9192311166,,2018-10-27,,Yes,S,CBD,Yes,,
Avail Vapor,6274 Glenwood Ave #110,,Raleigh,NC,27612,US,http://availvapor.com,9197824150,custservice@availvapor.com,2014-09-13,2019-02-20,Yes,V,CBD,,,
Capitol Smoke,215 W Martin St,,Raleigh,NC,27601,US,https://capitolsmoke.com,9199165966,raleigh@capitolsmoke.com,2018-12-25,2022-03-21,Yes,S,CBD,Yes,,
CBD American Shaman - Raleigh,10940 Raven Ridge Rd Ste 106,,Raleigh,NC,27614,US,https://cbdamericanshaman.com/,9196152098,info@cbdandhemphub.com,2020-03-06,2020-03-06,Yes,C,CBD,,,
Cherry Pie,6311 Glenwood Ave,,Raleigh,NC,27612,US,http://www.cherrypieonline.com,9198036392,thebuzz@cherrypieonline.com,2018-11-24,,,H,,,,
Cloud 9 Vapor - Garner,4607 Fayetteville Rd Ste C,,Raleigh,NC,27603,US,,9193074963,administrator@cloud9nc.net,2018-06-18,2019-06-27,,V,,,,
Cloud 9 Vapor - Raleigh,4205 Wake Forest Rd Ste 201,,Raleigh,NC,27609,US,,9193074967,administrator@cloud9nc.net,2014-11-20,2019-03-26,Yes,V,CBD,,,
Cloud City CBD and Hemp,1286 Buck Jones Rd suite c,,Raleigh,NC,27606,US,https://www.goldspringhemp.com/,9196785001,goldspringhemp@gmail.com,2020-12-15,,Yes,C,CBD,,,
Curious Goods,1000 Brookside Dr,,Raleigh,NC,27604,US,,9198348628,,2019-01-05,2019-09-02,Yes,H,CBD,,,
E-Smoke Tobacco and Vape,8201 Rowlock Way Ste 114,,Raleigh,NC,27613,US,http://esmoke-tobaccoshop.business.site/,9198035726,e.smoke8201@gmail.com,2019-09-30,,,S,,Yes,,
Forever Hemp,4607 Fayetteville Rd Unit 2,,Raleigh,NC,27603,US,,9198027728,foreverhempnc@gmail.com,2020-07-01,,Yes,C,CBD,,,
"Good Guy Vapes, CBD & Glass - Raleigh",2900 Hillsborough St,,Raleigh,NC,27607,US,https://goodguyvapes.com/,9199770372,goodguyvapesnc@gmail.com,2018-08-06,2019-11-13,Yes,V,CBD,,,
Hemp Times Inc,510 St Mary's St Ste 5,,Raleigh,NC,27605,US,https://hemptimesnc.com/,9842009768,info@hemptimesnc.com,2020-07-05,,Yes,C,CBD,,,
Hempie's,8320 Litchford Rd #156,,Raleigh,NC,27615,US,https://www.hempies.co/,9199252691,hello@hempies.co,2022-04-20,2022-04-20,Yes,C,CBD,,,
High Life Smoke Shop Raleigh,2302 Hillsborough St Ste 106,,Raleigh,NC,27607,US,,9842006869,raleigh@highlifesmoke.com,2018-10-31,2018-10-31,,S,,,,
Joker Smoker,6111 Capital Blvd,,Raleigh,NC,27616,US,https://www.jokersmokershop.com/,9198720099,jokersmokershop@gmail.com,2019-04-28,2020-02-16,Yes,S,CBD,Yes,,
Kitsch,2526 Hillsborough St Ste 105,,Raleigh,NC,27607,US,,9842020115,kitsch_gallery@att.net,2019-01-15,,,H,,,,
Lucky Star Tobacco,1030 N Rogers Ln #105,,Raleigh,NC,27610,US,,9199770327,,2020-01-05,,,S,,,,
MadVapes New Bern Ave,4531 New Bern Ave,,Raleigh,NC,27610,US,https://www.madvapes.com/,9199775649,support@madvapes.com,2018-08-06,2019-12-29,,V,,,,
Medicine Mama's Farmacy,2418 Hillsborough St,,Raleigh,NC,27607,US,https://www.medicinemamasfarmacy.com/,9842420690,info@medicinemamasfarmacy.com,2021-03-16,,Yes,C,CBD,,,
Misty Mountain Vapors,6405 Westgate Rd Ste 109,,Raleigh,NC,27617,US,https://www.mistymountainvapors.com/main.sc,9199770242,donnie@mistymountainvapors.com,2018-08-06,2019-12-29,Yes,V,CBD,,,
Misty Mountain Vapors,5710 Capital Blvd #C,,Raleigh,NC,27616,US,https://www.mistymountainvapors.com/main.sc,9193073585,,2018-08-06,2019-12-29,Yes,V,CBD,,,
Modern Apotheca,8604 Falls Of Neuse Rd  Ste 104,,Raleigh,NC,27615,US,https://www.modernapotheca.us/,9842009276,info@modernapotheca.us,2020-05-23,2020-05-23,Yes,C,CBD,,,
Mr Tobacco,4011 Capital Blvd #125,,Raleigh,NC,27604,US,,9197479052,,2020-01-22,,,T,,,,
Mr. Tobacco & Vapor,1811 New Hope Church Rd Ste 13,,Raleigh,NC,27609,US,https://www.mrtobaccovape.com/,9198724747,,2018-08-06,2019-06-11,Yes,S,CBD,Yes,,
Nation Vapor and Tobacco,5416 Rock Quarry Rd Ste 119,,Raleigh,NC,27610,US,,9196150481,,2018-10-12,,,S,,,,
Nature's Releaf,5224 Hollyridge Dr,,Raleigh,NC,27612,US,https://naturesreleafnc.com/,9194247542,naturesreleafnc@gmail.com,2019-08-18,,Yes,C,CBD,,,
NC Hemp Shoppe,6030 Creedmoor Rd,,Raleigh,NC,27612,US,https://www.nchempshoppe.com/,9196213886,info@nchempshoppe.com,2020-10-22,,Yes,C,CBD,,,
NC Tobacco,2720 Lake Wheeler Rd #108,,Raleigh,NC,27603,US,https://nctobaccoshop.weebly.com/,9198342345,,2020-01-27,,Yes,S,CBD,,,
Raleigh CBD Store,6300 Creedmoor Rd Ste 118,,Raleigh,NC,27612,US,https://www.raleighcbdstore.com/,9196752027,info@raleighcbdstore.com,2021-02-02,,Yes,C,CBD,,,
Redhead Hemp,1809 Glenwood Ave Ste A,,Raleigh,NC,27608,US,,,redheadhemp@gmail.com,2022-04-25,2022-04-25,Yes,C,CBD,,,
Revolution Smoke & Vape,2109 Avent Ferry Rd Ste 104,,Raleigh,NC,27606,US,,9842220033,,2018-12-19,,,H,,,,
RJ Tobacco,7851 Alexander Promenade Pl Ste 120,,Raleigh,NC,27617,US,http://rjtobacconc.com/,9195989683,,2019-02-20,2019-02-20,,T,,,,
Sherlocks,3801 Hillsborough St Ste 101,,Raleigh,NC,27607,US,http://www.sherlocksglass.com,9199779481,,2019-01-15,2019-01-15,Yes,H,CBD,,,
Sky Blue Tobacco and Vape,8420 Louisburg Rd Ste 100,,Raleigh,NC,27616,US,http://sky-blue-tobacco-and-vape.business.site/,9196793114,,2018-08-06,2019-06-16,Yes,S,CBD,Yes,,
"Smoke & Talk Kratom, Kava, CBD",3675 New Bern Ave,,Raleigh,NC,27610,US,http://kratomraleigh.com,9193706606,,2019-01-09,,Yes,S,CBD,Yes,,
Smoke Rings,3116 Hillsborough St #102,,Raleigh,NC,27604,US,,9198388877,smokeringsraleigh@gmail.com,2019-01-15,,Yes,H,CBD,Yes,,
Smoker Friendly,4701 Atlantic Ave #123,,Raleigh,NC,27604,US,http://www.smokerfriendly.com/,9198620001,,2020-03-05,,,T,,,,
Smoker Friendly,6300 Creedmoor Rd #106,,Raleigh,NC,27612,US,http://smokerfriendly.com/,9198669002,,2020-03-06,,Yes,S,CBD,,,
Smoker Friendly,1436 Garner Station Blvd,,Raleigh,NC,27603,US,http://www.smokerfriendly.com/,9196629935,,2020-03-03,,Yes,S,CBD,Yes,,
The Hemp Company,6500 Falls of Neuse Rd Ste 110,,Raleigh,NC,27615,US,https://www.thehempcompanync.com,9842222044,info@thehempcompanync.com,2019-08-19,,Yes,C,CBD,,,
The Hemp Farmacy - Hillsborough,527 Hillsborough St,,Raleigh,NC,27603,US,https://hempfarmacy.us,9199165607,marketing@hempfarmacy.us,2020-07-18,,Yes,C,CBD,,,
The Hemp Store - Raleigh,1000 Old Milburnie Rd Ste 1,,Raleigh,NC,27604,US,https://www.thehempstorenc.com/,9196077444,raleigh@thehempstorenc.com,2019-08-18,2019-08-18,Yes,C,CBD,,,
The Puffing Monkey,6514 Old Wake Forest Rd Ste 110,,Raleigh,NC,27616,US,https://www.monkeyvapor.com/,9195228507,monkeyvaporandtobacco@gmail.com,2018-10-17,2019-02-17,Yes,V,CBD,,,
Thunder and Lightning Vapes,14460 Falls of Neuse Rd Ste 151,,Raleigh,NC,27614,US,https://tandlvape.net/,9842354071,customercare@tandlvape.com,2019-06-27,2019-06-27,Yes,V,CBD,,,
Tobacco & Gifts,3281 Avent Ferry Rd Ste 121,,Raleigh,NC,27606,US,,9198541988,,2019-11-05,2019-11-05,,S,,,,
Tobacco & Vapor,7440 Louisburg Rd #131,,Raleigh,NC,27616,US,,9193220277,,2018-09-24,,,T,,,,
Triangle Hemp Wellness,4701 Creedmoor Rd Ste 113,,Raleigh,NC,27612,US,https://trianglehempwellness.com,9197878856,info@trianglehempwellness.com,2020-12-09,,Yes,C,CBD,,,
Trinity Vapor Lounge,5100 Lacy Ave Ste 100,,Raleigh,NC,27609,US,http://www.trinityvaporlounge.com/,9198360306,trinityvaporlounge@gmail.com,2018-09-20,,,V,,,,
United Zone,7332 Creedmoor Rd,,Raleigh,NC,27613,US,,9842328305,,2019-05-27,,,S,,,,
Vape & Tobacco,4452 Fayetteville Rd,,Raleigh,NC,27603,US,,9197792009,,2018-09-20,,,V,,Yes,,
Vape World,9660 Falls Of Neuse Rd Ste 140,,Raleigh,NC,27615,US,https://www.realvapeworld.com/,9195941898,,2021-09-17,2021-09-17,Yes,V,CBD,,,
Vapor Max,7851 Alexander Promenade Pl Ste 125,,Raleigh,NC,27617,US,http://vapormaxnc.com/,9197483495,cellandvape@gmail.com,2016-05-21,2019-01-10,,V,,,,
Vaporfi - Raleigh,7811 Middle Poyner Dr Ste 103,,Raleigh,NC,27616,US,,9194364441,,2019-12-14,,Yes,V,CBD,,,
Everything Hemp Store - Randleman,807 High Point Rd Unit B,,Randleman,NC,27317,US,https://everythinghempstore.com,3367994123,info@ehsretail.com,2019-12-18,,Yes,C,CBD,,,
KMX Vapes,807-C High Point St,,Randleman,NC,27317,US,https://kmx-vapes.business.site/,3367991089,kmxvapes@gmail.com,2019-10-26,2019-10-26,Yes,V,CBD,Yes,,
7 Wonderz Vapor,131 S Scales St,,Reidsville,NC,27320,US,,3363946196,7wonderzvapor@gmail.com,2014-09-21,2019-01-31,Yes,V,CBD,,,
Lunar Vapes,1537 Freeway Dr Ste 504,,Reidsville,NC,27320,US,,3363944984,lunarvapes@triad.rr.com,2018-08-06,2019-12-12,Yes,V,CBD,Yes,,
Hybrid Vapor & Tobacco 4,408 W Church St,,Richfield,NC,28137,US,https://hybridvaportobacco4.business.site/,7048504400,,2021-02-10,,Yes,S,CBD,,,
Oj's Tobacco & Vapor,8900 Richlands Hwy,,Richlands,NC,28574,US,,9103242385,,2018-10-12,2020-01-15,Yes,S,CBD,Yes,,
Bobby's Cell & Smoke Shop,129 E 10th St,,Roanoke Rapids,NC,27870,US,,2523262005,bobbys.smokeshop@yahoo.com,2019-07-27,,Yes,S,CBD,Yes,,
Cloud 9 Vapor,287 Premier Blvd,,Roanoke Rapids,NC,27870,US,,2525290367,dunlowvaporsllc@gmail.com,2014-09-26,2019-09-23,Yes,V,CBD,Yes,,
Tobacco Outlet Plus,100 Premier Blvd,,Roanoke Rapids,NC,27870,US,,2525191112,,2019-12-04,,Yes,S,CBD,,,
One Stop Vape Shop,639 E Broad Ave #A,,Rockingham,NC,28379,US,http://www.osvapeshop.com/,9108951010,osvapeshop@gmail.com,2018-08-06,2020-02-02,Yes,V,CBD,Yes,,
Tobacco Road Outlet,515 E Broad Ave,,Rockingham,NC,28379,US,http://www.tobaccoroadoutlet.com/,9104199299,,2020-05-25,,,T,,,,
US Tobacco & Vapor,722 US-74 Ste F,,Rockingham,NC,28379,US,,9107169071,,2019-10-28,,,S,,,,
K1 Tobacco Shop,2518 Sunset Ave,,Rocky Mount,NC,27804,US,,2524430759,,2018-10-28,2018-10-28,,T,,,,
Kick Ash Vape Lounge,3002 Sunset Ave,,Rocky Mount,NC,27804,US,,2524431490,,2018-08-06,2019-12-27,Yes,V,CBD,,,
Mount Tobacco Shop,618 N Church St,,Rocky Mount,NC,27804,US,,2522125547,,2020-01-23,,,S,,,,
Shadetree Vapes,1100 N Wesleyan Blvd,,Rocky Mount,NC,27801,US,http://www.shadetreevapes.com/,2528854362,sales@shadetreevapes.com,2018-09-08,2020-03-18,Yes,V,CBD,,,
Tape City Inc,3071 S Wesleyan Blvd,,Rocky Mount,NC,27803,US,,2524426378,,2019-12-17,,Yes,H,CBD,Yes,,
The Vapor Shoppe,1253 Independence Dr,,Rocky Mount,NC,27804,US,https://www.vaporshoppe.net/,2524420839,thevaporshoppelw@gmail.com,2018-09-24,,,V,,,,
CBD Connections,112 Southtown Cir,,Rolesville,NC,27571,US,http://www.mycbdconnections.com,9192631284,cbdconnections27571@gmail.com,2020-10-13,2020-10-13,Yes,C,CBD,,,
Tobacco & Vapor,411 S Main St,,Rolesville,NC,27571,US,,9192631727,,2019-12-03,,Yes,S,CBD,Yes,,
Discount Tobacco,306 S Madison Blvd #D,,Roxboro,NC,27573,US,,3363220590,thetobaccostore@usa.com,2019-10-03,,Yes,T,CBD,,,
Vanishing Vapors,1066 Old Durham Rd #B,,Roxboro,NC,27573,US,https://www.vanishingvapors.com/,3363220832,vanishingvapors@gmail.com,2018-09-20,,,V,,,,
DRx CBD Oil,704 E Church St,,Roxobel,NC,27872,US,https://www.drxcbdoil.com/,2523442120,info@drxcbdoil.com,2020-12-02,,Yes,C,CBD,,,
Celestial Wellness,6422 University Pkwy,,Rural Hall,NC,27045,US,https://celestial-wellness.com/,3363777046,tylere@celestialhemp.co,2020-12-14,,Yes,C,CBD,,,
FT Tobacco & Vape Shop,618 E Innes St,,Salisbury,NC,28144,US,,7049906000,fttobacco@hotmail.com,2018-08-09,2018-12-31,Yes,T,CBD,,,
High Life Smoke Shop Salisbury,118 E Fisher St,,Salisbury,NC,28144,US,,7046338686,,2019-01-05,,Yes,S,CBD,,,
Lost & Found,128-B E Innes St,,Salisbury,NC,28144,US,,7046806792,lost.found.nc@gmail.com,2018-11-04,,Yes,H,CBD,,,
Madvapes Salisbury,255 Faith Rd Ste 24,,Salisbury,NC,28146,US,https://www.madvapes.com/,7042094595,support@madvapes.com,2018-08-06,2019-12-29,,V,,,,
PhenomWell CBD Store,704 Jake Alexander Blvd W Ste B,,Salisbury,NC,28147,US,https://phenomwellcbd.com/,9803303073,phenomwell@gmail.com,2021-02-11,,Yes,C,CBD,,,
Tobacco Discount,2204 S Main St #102,,Salisbury,NC,28147,US,,7047970400,,2020-06-14,,,T,,,,
A1 Vapor Shop,2512 S Horner Blvd,,Sanford,NC,27330,US,https://www.a1vaporshop.com/,9197181849,a1vaporshop@yahoo.com,2016-03-28,2019-02-19,Yes,V,CBD,,,
Sanford Vapor & Tobacco,2914 S Horner Blvd,,Sanford,NC,27332,US,,9193724358,,2020-02-14,,Yes,S,CBD,Yes,,
Tobacco Road Outlet,1927 Bragg St,,Sanford,NC,27330,US,http://www.tobaccoroadoutlet.com/,9197752085,,2020-05-25,,,T,,,,
Tobacco Road Outlet #5 - Tobacco and Vapor,2254 Jefferson Davis Hwy,,Sanford,NC,27330,US,http://www.tobaccoroadoutlet.com/,9197769550,info@tobaccoroadoutlet.com,2020-03-14,,,T,,,,
"Your CBD Store - Sanford, NC",2821 S Horner Blvd,,Sanford,NC,27332,US,https://cbdrx4u.com/,9192920800,cbd3507@gmail.com,2019-09-15,2019-09-15,Yes,C,CBD,,,
Deep Blue Vapors,129 Holden Beach Rd SW,,Shallotte,NC,28470,US,,9104657612,deepbluevapors@gmail.com,2015-01-29,2019-01-09,Yes,V,CBD,,,
The Green Genie Smoke Shop,129 Holden Beach Rd SW,,Shallotte,NC,28470,US,,9104657612,thegreengeniesmokeshop@gmail.com,2019-01-09,,Yes,H,CBD,Yes,,
Tobacco Road Outlet #26,4924 Main St,,Shallotte,NC,28470,US,http://www.tobaccoroadoutlet.com/,9107547994,,2020-01-03,,,T,,,,
Vapor and CBD Paradize,5298 Main St Ste 4,,Shallotte,NC,28470,US,,9107547848,vaporparadize@gmail.com,2018-09-12,2019-09-28,Yes,V,CBD,,,
Broad River Hemp Company,413 S Lafayette St,,Shelby,NC,28152,US,https://www.broadriverhemp.com/,9805529092,info@broadriverhemp.com,2020-06-22,2020-06-22,Yes,C,CBD,,,
High Life - Shelby,302 E Dixon Blvd #4,,Shelby,NC,28152,US,,7044663023,shelby@highlifesmoke.com,2018-08-09,2019-11-25,Yes,S,CBD,Yes,,
Kibou Botanicals,814 S Washington St,,Shelby,NC,28150,US,https://www.kiboubotanicals.com/,7044187998,,2021-02-24,,Yes,C,CBD,Yes,,
Mellow Vapes Shelby,1230 E Dixon Blvd Ste 10,,Shelby,NC,28152,US,http://www.mellowvapesshelby.com/,7044817306,shelby@americanvapesusa.com,2015-10-21,2019-05-10,Yes,V,CBD,,,
Smokers Edge,3778 W Dixon Blvd,,Shelby,NC,28152,US,,7044346608,,2020-03-11,,Yes,S,CBD,Yes,,
95 Tobacco & Vapor,255 N Equity Dr,,Smithfield,NC,27577,US,,9199342345,,2018-06-03,2018-10-12,Yes,S,CBD,,,
Cloud 9 Smoke Shop & Vape - Smithfield,827 N Brightleaf Blvd,,Smithfield,NC,27577,US,,9199388923,,2019-08-26,,Yes,V,CBD,,,
Moe's Tobacco Shop & Vape,1259 N Brightleaf Blvd,,Smithfield,NC,27577,US,,9199340263,,2019-05-03,2019-05-03,Yes,S,CBD,Yes,,
The Holistic Co.,161 Venture Dr,,Smithfield,NC,27577,US,https://www.theholisticco.com/,9199388582,thejocohoco@gmail.com,2020-12-05,,Yes,C,CBD,,,
Dragonista,2017 NC-172 Ste A,,Sneads Ferry,NC,28460,US,,9107410927,,2020-12-25,,Yes,S,CBD,Yes,,
Madvapes of Greater Topsail,1961 NC-172 #104,,Sneads Ferry,NC,28460,US,,9103271310,,2019-05-02,,Yes,V,CBD,,,
Integrated Hemp Solutions,695 S Bennett St,,Southern Pines,NC,28387,US,https://www.integratedhempsolutions.com/,9106874367,info@integratedhemp.com,2019-08-17,,Yes,C,CBD,,,
ritualx,695 S Bennett St,,Southern Pines,NC,28387,US,https://integratedhempsolutions.com/,9106874367,hello@ritualxcbd.com,2020-07-18,2020-11-06,Yes,C,CBD,,,
Tobacco Plus & Vapes,711 SW Broad St,,Southern Pines,NC,28387,US,,9106922222,southerpinetobacco@gmail.com,2019-11-29,,Yes,S,CBD,,,
Vape Air,940 Old US Hwy 1,,Southern Pines,NC,28387,US,https://www.vapeair.com/,9106928273,vapeair@gmail.com,2014-09-21,2019-01-26,,V,,,,
Tobacco Road Outlet,4956 Old Long Beach Rd SE,,Southport,NC,28461,US,http://www.tobaccoroadoutlet.com/,9104540001,info@tobaccoroadoutlet.com,2019-12-14,,,T,,,,
My Green Room,195 W Main St,,Spindale,NC,28160,US,https://mygreenroom.net/,8282891078,mygreenroomllc@gmail.com,2021-03-09,,Yes,C,CBD,,,
UnderGround Vapes,128 Ohio St,,Spindale,NC,28160,US,https://www.undergroundvapes.com/,8282882144,,2019-05-27,,Yes,V,CBD,,,
#1 Tobacco & Vape,251 Skyland Plaza,,Spring Lake,NC,28390,US,,9104360476,,2019-07-12,,,S,,Yes,,
J&M Vapor 2,507 Lillington Hwy,,Spring Lake,NC,28390,US,https://www.jmvaporshop.com/,9104916267,,2017-04-25,2019-01-16,,V,,,,
US Tobacco and Vape,624 Lillington Hwy,,Spring Lake,NC,28390,US,,9104361713,,2019-10-17,2021-05-01,Yes,S,CBD,Yes,,
Vapor Depot,10563 S Nineteen E Hwy,,Spruce Pine,NC,28777,US,,8287650017,,2019-10-05,,,V,,,,
High Life Smoke Shop - Statesville,222 W Broad St,,Statesville,NC,28677,US,,9802238967,info@highlifesmokes.com,2019-01-05,2019-04-21,Yes,S,CBD,,,
Mellow Vapes Statesville,153 Turnersburg Hwy,,Statesville,NC,28625,US,https://www.mellowvapesstatesville.com/,9809490851,,2018-08-06,2021-03-15,Yes,V,CBD,,,
Tobacco & Vape,1857 E Broad St,,Statesville,NC,28625,US,,7047754530,,2020-05-24,,,S,,,,
Vape House,725 Sullivan Rd,,Statesville,NC,28677,US,http://www.vapehousenc.com/,7048726880,dougpayneconstruction@gmail.com,2018-09-12,,Yes,V,CBD,,,
Down 420 Lane,8500 US-158,,Stokesdale,NC,27357,US,,3368375125,down420lane@gmail.com,2018-10-29,2021-01-05,Yes,H,CBD,Yes,,
A & K Plus,2390 US-70,,Swannanoa,NC,28778,US,,8285810183,,2020-01-12,2021-09-20,Yes,S,CBD,Yes,,
Purely CBD,2342 US-70,,Swannanoa,NC,28778,US,https://www.purelycbd.net/,8282167052,ncswannanoa70@thepurelycbd.com,2020-11-06,,Yes,C,CBD,,,
Crystal Coast Vapors,810 W Corbett Ave Ste 2,,Swansboro,NC,28584,US,http://crystalcoastvapors.com/,9103258889,ccvapors@gmail.com,2020-12-19,,Yes,V,CBD,,,
Swansboro Tobacco,714 W Corbett Ave #3,,Swansboro,NC,28584,US,,9103250022,,2019-10-23,,,S,,,,
In Your Ear Music Emporium,573 W Main St,,Sylva,NC,28779,US,,8285866404,inyourearmusic@gmail.com,2019-01-05,,Yes,H,CBD,,,
Lola's Vape Shop,1526 E Main St,,Sylva,NC,28779,US,https://lolasvape.com/,8283671111,info@lolasvape.com,2019-11-14,2021-03-24,Yes,V,CBD,Yes,,
Mountain Flora Dispensary,634 W Main St,,Sylva,NC,28779,US,https://www.cbdsylva.com/,8283070727,mountainflora@yahoo.com,2021-03-11,2021-03-11,Yes,C,CBD,,,
Sylva Vapor,1336 E Main St Ste A,,Sylva,NC,28779,US,http://www.sylvavapor.com/,8284774964,sylvavapor@gmail.com,2019-12-03,,Yes,V,CBD,,,
The Pied Piper,310 E Main St Ste 5,,Sylva,NC,28779,US,,8285083091,piedpipersylva@gmail.com,2018-11-21,,Yes,H,CBD,,,
Smokers Den,504 W Wilson St,,Tarboro,NC,27886,US,,2525635292,,2021-11-22,,Yes,S,CBD,Yes,,
Tobacco Plus,2113 St Andrew St,,Tarboro,NC,27886,US,,2526411249,,2020-06-15,,Yes,S,CBD,Yes,,
Twelve 0 One Vapes,91 E Main Ave,,Taylorsville,NC,28681,US,,8283527333,jonb1201vapes@gmail.com,2019-05-25,,,V,,,,
Cannabis Cultivators Of America,8602 NC-150,,Terrell,NC,28682,US,https://cannabiscultivatorsofamerica.org/,8284781315,ccoajointhecult@gmail.com,2022-02-01,2022-02-01,Yes,C,CBD,,,
Smoke House Tobacco,1033 Randolph St Ste 11,,Thomasville,NC,27360,US,https://www.facebook.com/smoke-house-tobacco-of-thomasville-115871816473322/,3363131484,,2020-02-18,,Yes,S,CBD,Yes,,
T Tobacco,1587 Liberty Dr #4,,Thomasville,NC,27360,US,,3364767524,tthomasville26360@gmail.com,2020-04-15,2020-04-15,Yes,S,CBD,Yes,,
Urban Vapes,916 Randolph St Ste B,,Thomasville,NC,27360,US,,3364768273,urbanvapesnc@yahoo.com,2016-01-03,2019-01-31,Yes,V,CBD,Yes,,
Wild Tobacco,903 Randolph St Unit 3,,Thomasville,NC,27360,US,,3363136812,,2020-12-10,,,S,,,,
Hybrid Vapor & Tobacco,220 Walton Dr,,Wadesboro,NC,28170,US,,7046945883,,2019-12-09,,Yes,S,CBD,Yes,,
Cloud 9 Vapor - Wake Forest,12516 Capital Blvd #103,,Wake Forest,NC,27587,US,https://www.facebook.com/cloud9nc/,9192638259,administrator@cloud9nc.net,2018-08-06,2020-01-12,Yes,V,CBD,,,
The Hemp Farmacy - Wake Forest,121 S White St,,Wake Forest,NC,27587,US,https://hempfarmacy.us/,9842354524,marketing@hempfarmacy.us,2020-01-13,2020-01-13,Yes,C,CBD,,,
The Hemp Source,1839 S Main St Ste 140,,Wake Forest,NC,27587,US,https://thehempsourceusa.com/,9842351881,wendell@thehempsourceusa.com,2020-12-16,,Yes,C,CBD,,,
The Hemp Store - Wake Forest,1002 Durham Rd Ste 1100,,Wake Forest,NC,27587,US,https://www.thehempstorenc.com/,9842370032,wf@thehempstorenc.com,2019-08-18,2020-04-26,Yes,C,CBD,,,
United Zone,109 Capcom Ave Ste 9,,Wake Forest,NC,27587,US,,9194356048,,2019-11-14,2019-11-14,Yes,S,CBD,Yes,,
"Your CBD Store - Wake Forest, NC",706 N Main St,,Wake Forest,NC,27587,US,https://cbdrx4u.com/,9844440777,cbd3507@gmail.com,2019-09-15,2019-09-15,Yes,C,CBD,,,
"Giza Tobacco, Vapes & CBD",5194 Reidsville Rd #500,,Walkertown,NC,27051,US,,3363545304,smokehouseka@gmail.com,2021-01-12,,Yes,S,CBD,Yes,,
Tobacco & Vape,3022 Old Hollow Rd,,Walkertown,NC,27051,US,,3365959832,,2020-05-24,,Yes,S,CBD,Yes,,
Beaufort Tobacco Shop And Wireless,160 W 15th St,,Washington,NC,27889,US,,2529400111,beauforttobacco@hotmail.com,2018-08-06,2019-05-17,Yes,S,CBD,Yes,,
Hemp Health,521 W 5th St,,Washington,NC,27889,US,,2529434028,eastcarolinacustoms@gmail.com,2021-12-12,2021-12-12,Yes,C,CBD,,,
Tobacco & Vape Station,520 Pamlico Plaza,,Washington,NC,27889,US,,2529401877,,2019-05-22,,Yes,S,CBD,,,
Custom Vapes & E-Cigs,1201 N Broome St Ste G,,Waxhaw,NC,28173,US,http://www.cvecigs.com,7042884711,info.cvecigs@gmail.com,2018-06-25,2019-07-06,Yes,V,CBD,,,
Pure CBD,203 N Broome St Ste C,,Waxhaw,NC,28173,US,https://www.purecbdnc.com/,7042563796,kelley@purecbdnc.com,2021-02-05,,Yes,C,CBD,,,
Kingdom Harvest Wellness,442 Walnut St,,Waynesville,NC,28786,US,https://kingdomharvest.com/waynesville,8282460119,chelsie.copas2@gmail.com,2022-01-04,2022-01-04,Yes,C,CBD,,,
The Pied Piper,389 Walnut St,,Waynesville,NC,28786,US,,8282460077,,2022-05-12,2022-05-12,Yes,S,CBD,Yes,,
Just Like That,285 N Main St Ste 7,,Weaverville,NC,28787,US,https://www.justlikethatsmokeshop.com/,8284849966,justlikethatsmokeshop420@gmail.com,2019-12-23,2022-03-11,Yes,S,CBD,Yes,,
Octopus Garden,58 Weaver Village Way Ste 102,,Weaverville,NC,28787,US,https://www.octopusgardensmokeshops.com/,8285199012,info.octopusgarden@gmail.com,2019-06-18,2021-07-03,Yes,S,CBD,Yes,,
OG Vapors,58 Weaver Village Way Ste 103,,Weaverville,NC,28787,US,https://www.ogvapors.co,8285199015,,2019-12-30,2019-12-30,Yes,V,CBD,,,
The Hemp Source,33 N Main St,,Wendell,NC,27591,US,https://thehempsourceusa.com,9193741444,wendell@thehempsourceusa.com,2020-12-16,,Yes,C,CBD,,,
Jefferson Tobacco & Vape,1400 Mt Jefferson Rd,,West Jefferson,NC,28694,US,,3368461197,,2020-12-11,2021-07-21,Yes,S,CBD,,,
Vape World & Tobacco,221 W Williamson St,,Whiteville,NC,28472,US,https://vape-world-tobacco.business.site/,19102076225,,2020-12-14,,Yes,S,CBD,,,
Vapor Shack,136 Memory Plaza,,Whiteville,NC,28472,US,https://www.vaporshackecig.com/,9102076273,cindykent@vaporshackecig.com,2018-08-31,2020-03-02,Yes,V,CBD,,,
McHemp,90 Cape Fear Dr Ste B,,Whitsett,NC,27377,US,,3362532854,mcclendonenterprise17@gmail.com,2020-06-05,,Yes,C,CBD,,,
Ric's Smoke Shop,264 Casino Trail,,Whittier,NC,28789,US,,8284973556,,2021-01-31,,Yes,S,CBD,,,
Pipedreams,102 E Main St,,Wilkesboro,NC,28697,US,https://pipedreams-gift-shop.business.site/,3368385600,,2019-09-15,,,H,,,,
High Cotton Hemp,1366 Bell Town Rd,,Williamston,NC,27892,US,https://hchempcbd.com/,2528092787,katherine@highcottonhemp.com,2021-02-01,,Yes,C,CBD,,,
777 Tobacco Outlet,6620 Gordon Rd,,Wilmington,NC,28411,US,http://www.777tobaccooutlet.com/,9103992972,,2019-07-13,,Yes,S,CBD,Yes,,
Althea's Attic,420 Eastwood Rd Ste 111,,Wilmington,NC,28403,US,https://altheasattic420.com/,9107910720,,2019-01-05,2019-09-03,Yes,H,CBD,Yes,,
Burnett's Vapor Lab,4801 Oleander Dr,,Wilmington,NC,28403,US,,9108333008,customerservice@carolinaflavor.com,2017-02-11,2019-01-18,Yes,V,CBD,,,
Burnett's Vapor Lab,6932 Market St Unit I,,Wilmington,NC,28403,US,,,customerservice@carolinaflavor.com,2019-01-18,2019-01-18,Yes,V,CBD,,,
Coastal Hemp Company,8211 Market St Unit CC,,Wilmington,NC,28411,US,https://coastalhempcompany.org/,9108210053,support@coastalhempcompany.org,2020-12-15,,Yes,C,CBD,,,
Hemp Garden,413 S College Rd #10,,Wilmington,NC,28403,US,https://www.hempgarden.com/,9103923924,info@hempgarden.com,2020-07-04,,Yes,C,CBD,,,
High Life - Monkey Junction,5202 Carolina Beach Rd Ste 4,,Wilmington,NC,28412,US,,9103988584,monkeyjunction@highlifesmoke.com,2019-11-25,,Yes,S,CBD,Yes,,
High Life Smoke Shop Wilmington,419 S College Rd #39,,Wilmington,NC,28403,US,,9107699393,wilmington@highlifesmoke.com,2019-01-05,2021-06-20,Yes,S,CBD,,,
Jungle Tobacco,2804 S College Rd #104,,Wilmington,NC,28412,US,,9105235741,,2018-10-31,2018-10-31,,S,,,,
Kratom NC,925 S Kerr Ave m2,,Wilmington,NC,28403,US,https://kratomnc.com,9105243498,,2021-02-26,,Yes,C,CBD,Yes,,
Kure CBD & Vape,5330 Carolina Beach Rd Ste 102,,Wilmington,NC,28412,US,https://www.kurevapes.com/pages/kure-cbd-and-vape-monkey-junction,9103998586,social@kuresociety.com,2021-06-29,,Yes,C,CBD,,,
Madvapes Ogden,7208 Market St Unit D,,Wilmington,NC,28411,US,https://www.madvapes.com/,9108218300,,2018-08-06,2019-12-29,,V,,,,
Port City Vapor Kava & Oxygen Bar,5530 Carolina Beach Rd,,Wilmington,NC,28412,US,http://portcityvapor.com/,9107694933,portcitykava@yahoo.com,2020-02-03,,Yes,V,CBD,Yes,,
Port City Vapor Shop,208 S Front St Ste 2,,Wilmington,NC,28401,US,http://www.portcityvapor.com/,9103438277,portcitykava@yahoo.com,2018-08-06,2019-12-31,Yes,V,CBD,Yes,,
Smoke Rings,1207 S Kerr Ave Ste 2,,Wilmington,NC,28403,US,,9103997911,,2019-01-15,,Yes,H,CBD,Yes,,
The Hemp Farmacy - Wilmington,1402 S College Rd Ste 1,,Wilmington,NC,28403,US,https://hempfarmacy.us/,9107692891,marketing@hempfarmacy.us,2020-01-13,2020-01-13,Yes,C,CBD,,,
Up In Smoke Wilmington,1313 S College Rd,,Wilmington,NC,28403,US,http://www.smokeshopwilmington.com,9107698450,upinsmokewilmington@gmail.com,2019-01-03,,Yes,H,CBD,Yes,,
Vape Hut,4904 Carolina Beach Road Unit D,,Wilmington,NC,28412,US,http://www.vapehut.com/,9103998071,info@vapehut.com,2018-09-12,,,V,,,,
Vape Hut,4724 New Centre Dr Ste 7,,Wilmington,NC,28405,US,http://www.vapehut.com/,9103992204,info@vapehut.com,2018-09-13,,,V,,,,
Wrightsville Smoke Shop,3901 Wrightsville Ave,,Wilmington,NC,28403,US,https://www.wrightsvillesmokeshop.com/,9107694305,smokeshopnc@gmail.com,2018-11-25,2019-06-21,Yes,S,CBD,Yes,,
"Your CBD Store - Wilmington, NC",4412 Shipyard Blvd,,Wilmington,NC,28403,US,https://cbdrx4u.com/,9108994040,cbd3507@gmail.com,2019-09-15,2019-09-15,Yes,C,CBD,,,
"Your CBD Store - Wilmington, NC - Carolina Beach",5202 Carolina Beach Rd #11,,Wilmington,NC,28412,US,https://cbdrx4u.com/,9103998387,cbd3507@gmail.com,2019-09-15,2019-09-15,Yes,C,CBD,,,
Smokers Palace,4916 Hayes Pl Unit C,,Wilson,NC,27896,US,http://smokerspalacenc.com/,2522379912,smokerspalace@gmail.com,2018-08-06,2019-12-01,Yes,S,CBD,Yes,,
Tobacco & More,3710 Peppermill Dr #E,,Wilson,NC,27896,US,,2522814209,,2018-09-24,,,T,,,,
Vapor Plus,2115 Forest Hills Rd W,,Wilson,NC,27893,US,,2522342800,,2018-08-31,2020-03-02,Yes,V,CBD,,,
The Trippy Hippie LLC,11212 Old US Hwy 52 Ste 4,,Winston Salem,NC,27107,US,https://www.thetrippyhippielifestyle.com,3364480023,thetrippyhippietriad@gmail.com,2022-01-24,2022-01-24,Yes,C,CBD,,,
American Smoke Shop,2815 Waughtown St,,Winston-Salem,NC,27107,US,http://american-smoke-shop-tobacco-shop.business.site/,3368423145,,2019-07-17,,,S,,,,
Apotheca,805 Silas Creek Pkwy Ste B,,Winston-Salem,NC,27127,US,https://www.apotheca.org/apotheca-winston-salem-location,3367226393,winston@apotheca.org,2018-12-30,2021-12-06,Yes,S,CBD,Yes,,
Avail Vapor,2005 Frontis Plaza Blvd,,Winston-Salem,NC,27103,US,http://availvapor.com,3366021340,custservice@availvapor.com,2014-09-13,2019-06-18,Yes,V,CBD,,,
Blue Ridge Tobacco,2299 Cloverdale Ave,,Winston-Salem,NC,27103,US,,3367224398,,2019-07-27,2019-07-28,,T,,,,
Camel City Hemp,1039 Burke St,,Winston-Salem,NC,27101,US,https://camelcityhemp.com/,3365296099,,2020-11-22,,Yes,C,CBD,,,
Down 420 Lane,464 Knollwood St,,Winston-Salem,NC,27103,US,,3368375125,down420lane@gmail.com,2020-12-10,2020-12-10,Yes,H,CBD,Yes,,
Hemporia CBD Store,1608 S Stratford Rd Suite D,,Winston-Salem,NC,27103,US,,3364480045,hemporiacbd@gmail.com,2021-01-28,,Yes,C,CBD,,,
iHemp CBD & Kratom,636 S Stratford Rd Unit B,,Winston-Salem,NC,27103,US,https://shopihemp.com/,3368295858,ihempllc@gmail.com,2021-12-23,2021-12-23,Yes,C,CBD,Yes,,
L P Smoke House,10479 NC-109,,Winston-Salem,NC,27107,US,,3367690755,,2019-12-27,,,T,,,,
Longleaf Provisions Company,1308 S Hawthorne Rd,,Winston-Salem,NC,27103,US,https://longleafpro.com/,3366022423,info@longleafpro.com,2020-10-22,,Yes,C,CBD,,,
Love NC Hemp & Wellness,5365 Robinhood Rd Ste d,,Winston-Salem,NC,27106,US,https://www.gassedup.biz/,3368151591,,2021-03-19,,Yes,C,CBD,,,
North Point Discount Tobacco Shop,7842 North Point Blvd,,Winston-Salem,NC,27106,US,https://g-tobacco-shop.business.site/,3366444448,,2019-04-16,,,S,,,,
Peace Out Vapes,12201 NC-150 #6,,Winston-Salem,NC,27127,US,https://peaceoutvapes.com/,3369979681,peaceoutvapes@gmail.com,2018-06-26,2019-05-07,Yes,V,CBD,,,
Peace Out Vapes,170 Hanes Mill Ct,,Winston-Salem,NC,27105,US,https://peaceoutvapes.com/,3363771095,og17legionllc@yahoo.com,2018-06-26,2019-07-06,Yes,V,CBD,,,
Robinhood Tobacco,3443 Robinhood Rd #L,,Winston-Salem,NC,27106,US,,3367748000,,2020-02-10,,,S,,Yes,,
S&S Vapes,1650 Hutton St Unit 2,,Winston-Salem,NC,27127,US,https://ssvapes.business.site/,3369712107,,2019-06-27,2019-06-27,Yes,V,CBD,,,
Salem Organic Supply,545 Trade St NW Ste 106,,Winston-Salem,NC,27101,US,https://www.salemogs.com/,3367214367,salemogs@gmail.com,2021-01-14,,Yes,C,CBD,,,
Smoke House,355 Jonestown Rd,,Winston-Salem,NC,27104,US,,3367622446,,2020-02-18,,Yes,S,CBD,Yes,,
Smokey Shay's WS,1005 Burke St,,Winston-Salem,NC,27101,US,http://www.smokeyshays.com,3367223823,info@smokeyshays.com,2019-01-15,2021-07-08,Yes,S,CBD,Yes,,
Stratus Smoke & Vape,2878 Reynolda Rd,,Winston-Salem,NC,27106,US,https://smokestratus.com/,3368938589,,2019-01-15,,Yes,S,CBD,Yes,,
Syd's Tobacco & Cigars,1159 Silas Creek Pkwy,,Winston-Salem,NC,27127,US,,3367250050,,2019-12-01,,,T,,,,
The Hemp Source,690 Jonestown Rd Ste 190,,Winston-Salem,NC,27103,US,https://www.thehempsourcews.com/,3364480115,winstonsalem@thehempsourceusa.com,2020-12-16,,Yes,C,CBD,,,
The Hippie House CBD Dispensary,13 W Clemmonsville Rd,,Winston-Salem,NC,27127,US,https://hippiehousenc.com/,3366618043,,2020-12-16,,Yes,C,CBD,,,
The Vape Shop,1583 Hanes Mall Blvd,,Winston-Salem,NC,27103,US,https://thevapeshopnc.com/,3368936635,thevapeshollc@gmail.com,2018-09-24,,,V,,,,
Tobacco & Vapes,1233 W Clemmonsville Rd,,Winston-Salem,NC,27127,US,,3368425774,tobacconvapesllc@gmail.com,2019-11-04,,,S,,,,
Tobacco World,2021 Griffith Rd Ste 300,,Winston-Salem,NC,27103,US,,3363313895,,2019-12-18,,,S,,,,
Volume Vapes,163 Jonestown Rd,,Winston-Salem,NC,27104,US,http://www.juicebyvolume.com/,3368935566,volumevapes@aol.com,2017-12-21,2019-01-31,,V,,,,
Voodoo Vapes,189 Hickory Tree Rd Ste 104,,Winston-Salem,NC,27107,US,,3362934008,voodoovapesnc@gmail.com,2021-07-21,,Yes,V,CBD,,,
"Your CBD Store - Winston-Salem, NC",4991 Bethania Rd,,Winston-Salem,NC,27106,US,https://cbdrx4u.com,3368151184,winstonsalem492@cbdrx4u.com,2020-12-04,,Yes,C,CBD,,,
SmokeSmart,740 W Fire Tower Rd #107,,Winterville,NC,28590,US,,2525658709,,2018-08-06,2020-01-01,Yes,V,CBD,Yes,,
Vape Lodge,604 Tennessee Ave Ste A,,Yadkinville,NC,27055,US,,3366771119,vapelodge@aol.com,2018-09-13,,Yes,V,CBD,,,
Capital Vapors & CBD,225 Weathers St,,Youngsville,NC,27596,US,http://www.capitalvapors.net,9195541718,capitalvapors@gmail.com,2018-06-18,2019-06-27,Yes,V,CBD,,,
Carolina Hemp Company,119 E Main St,,Youngsville,NC,27596,US,https://www.carolinahempcompany.com/,9195546114,mark@chchemp.com,2020-11-23,,Yes,C,CBD,,,
1 Stop Smoke Shop,106 E Vance St,,Zebulon,NC,27597,US,,9193754414,1stopsmokeshop5@gmail.com,2020-11-14,,Yes,S,CBD,Yes,,
Bob Tobacco And Vape,148 Wakelon St,,Zebulon,NC,27597,US,,9194048788,,2019-10-22,,Yes,S,CBD,Yes,,
Cell & Vape,877 E Gannon Ave Ste 101,,Zebulon,NC,27597,US,,9193755057,cellandvape@gmail.com,2016-01-16,2019-03-26,Yes,V,CBD,,,